{
  "type": "FeatureCollection",
  "features": [
    {
      "type": "Feature",
      "geometry": {
        "type": "Polygon",
        "coordinates": [
          [
            [
              132.678553203,
              35.384302219
            ],
            [
              132.678662548,
              35.384300764
            ],
            [
              132.678665403,
              35.384366437
            ],
            [
              132.678555275,
              35.38436598
            ],
            [
              132.678557442,
              35.384432696
            ],
            [
              132.678948601,
              35.384426823
            ],
            [
              132.678947203,
              35.384321868
            ],
            [
              132.67894582,
              35.383882541
            ],
            [
              132.678945789,
              35.383864261
            ],
            [
              132.678511009,
              35.383875237
            ],
            [
              132.678488428,
              35.38388311
            ],
            [
              132.678488573,
              35.383905949
            ],
            [
              132.678469223,
              35.383933439
            ],
            [
              132.678446926,
              35.383935818
            ],
            [
              132.678453241,
              35.384273256
            ],
            [
              132.678552249,
              35.384272836
            ],
            [
              132.678553203,
              35.384302219
            ]
          ]
        ]
      },
      "properties": {
        "polygon_uuid": "517138b5-399f-4061-bef8-060e127c57a7",
        "daicho_shubetsu_cd": "FUD25"
      }
    },
    {
      "type": "Feature",
      "geometry": {
        "type": "Polygon",
        "coordinates": [
          [
            [
              132.679365977,
              35.389914998
            ],
            [
              132.67949266,
              35.389745537
            ],
            [
              132.678972208,
              35.389551948
            ],
            [
              132.678941808,
              35.389563595
            ],
            [
              132.678920838,
              35.389583839
            ],
            [
              132.678899985,
              35.38962232
            ],
            [
              132.678907138,
              35.389641485
            ],
            [
              132.678883831,
              35.389662699
            ],
            [
              132.678840666,
              35.389694555
            ],
            [
              132.678842378,
              35.389779969
            ],
            [
              132.678857718,
              35.389796221
            ],
            [
              132.679235935,
              35.389924188
            ],
            [
              132.679241777,
              35.389921284
            ],
            [
              132.679386254,
              35.389970579
            ],
            [
              132.679365977,
              35.389914998
            ]
          ]
        ]
      },
      "properties": {
        "polygon_uuid": "c9d5bcd0-8490-4c59-b90e-0e2822dd959a",
        "daicho_shubetsu_cd": "FUD25"
      }
    },
    {
      "type": "Feature",
      "geometry": {
        "type": "Polygon",
        "coordinates": [
          [
            [
              132.681566326,
              35.388342241
            ],
            [
              132.681534953,
              35.388323859
            ],
            [
              132.681462738,
              35.388435588
            ],
            [
              132.681702924,
              35.388535296
            ],
            [
              132.681719342,
              35.388490596
            ],
            [
              132.681741126,
              35.38846027
            ],
            [
              132.681781372,
              35.388430585
            ],
            [
              132.681788295,
              35.388413279
            ],
            [
              132.681777582,
              35.38838741
            ],
            [
              132.681759975,
              35.388383166
            ],
            [
              132.681728293,
              35.388377543
            ],
            [
              132.681694753,
              35.38835609
            ],
            [
              132.68163759,
              35.388352015
            ],
            [
              132.681599788,
              35.388351456
            ],
            [
              132.681566326,
              35.388342241
            ]
          ]
        ]
      },
      "properties": {
        "polygon_uuid": "feb51dd7-7c75-4e76-a140-0f09d5e56adf",
        "daicho_shubetsu_cd": "FUD25"
      }
    },
    {
      "type": "Feature",
      "geometry": {
        "type": "Polygon",
        "coordinates": [
          [
            [
              132.678143824,
              35.389134625
            ],
            [
              132.677996747,
              35.389075794
            ],
            [
              132.677898121,
              35.389209775
            ],
            [
              132.677919058,
              35.389218948
            ],
            [
              132.677997561,
              35.389252587
            ],
            [
              132.678063041,
              35.389280743
            ],
            [
              132.678143824,
              35.389134625
            ]
          ]
        ]
      },
      "properties": {
        "polygon_uuid": "c6400c1e-2d87-4b89-8650-1397197a9259",
        "daicho_shubetsu_cd": "FUD25"
      }
    },
    {
      "type": "Feature",
      "geometry": {
        "type": "Polygon",
        "coordinates": [
          [
            [
              132.682522069,
              35.388867186
            ],
            [
              132.68243223,
              35.388829178
            ],
            [
              132.682394665,
              35.388819953
            ],
            [
              132.682256811,
              35.388767647
            ],
            [
              132.682228726,
              35.388774592
            ],
            [
              132.682221516,
              35.388771886
            ],
            [
              132.682216246,
              35.388778058
            ],
            [
              132.682164688,
              35.388861886
            ],
            [
              132.682174091,
              35.388866111
            ],
            [
              132.682240946,
              35.38889398
            ],
            [
              132.682180115,
              35.388994058
            ],
            [
              132.682146657,
              35.388975431
            ],
            [
              132.682034941,
              35.389101321
            ],
            [
              132.682270134,
              35.389224023
            ],
            [
              132.682358948,
              35.389100791
            ],
            [
              132.682365084,
              35.389082849
            ],
            [
              132.682478726,
              35.388932209
            ],
            [
              132.682522069,
              35.388867186
            ]
          ]
        ]
      },
      "properties": {
        "polygon_uuid": "c07986d6-3ff0-41ef-8942-16ff6500579e",
        "daicho_shubetsu_cd": "FUD25"
      }
    },
    {
      "type": "Feature",
      "geometry": {
        "type": "Polygon",
        "coordinates": [
          [
            [
              132.681207795,
              35.387618642
            ],
            [
              132.681542257,
              35.387771848
            ],
            [
              132.681588039,
              35.387714458
            ],
            [
              132.681614071,
              35.387718699
            ],
            [
              132.681768373,
              35.387792905
            ],
            [
              132.68183374,
              35.387704806
            ],
            [
              132.681760513,
              35.387662647
            ],
            [
              132.681727101,
              35.38766135
            ],
            [
              132.681661239,
              35.387622697
            ],
            [
              132.681687459,
              35.387589829
            ],
            [
              132.681675557,
              35.387584481
            ],
            [
              132.681705575,
              35.387535764
            ],
            [
              132.681569473,
              35.387489915
            ],
            [
              132.681545808,
              35.387500813
            ],
            [
              132.681495815,
              35.387518302
            ],
            [
              132.681481441,
              35.387538879
            ],
            [
              132.681469767,
              35.387569162
            ],
            [
              132.681452682,
              35.387577873
            ],
            [
              132.681385287,
              35.387554405
            ],
            [
              132.681333762,
              35.387538428
            ],
            [
              132.681286371,
              35.387550507
            ],
            [
              132.681242998,
              35.387572287
            ],
            [
              132.681207795,
              35.387618642
            ]
          ]
        ]
      },
      "properties": {
        "polygon_uuid": "7c805b43-413a-453a-ac35-1fc6f9f9d64f",
        "daicho_shubetsu_cd": "FUD25"
      }
    },
    {
      "type": "Feature",
      "geometry": {
        "type": "Polygon",
        "coordinates": [
          [
            [
              132.678911369,
              35.390968702
            ],
            [
              132.678913622,
              35.390890703
            ],
            [
              132.678901609,
              35.390873506
            ],
            [
              132.678684549,
              35.390869927
            ],
            [
              132.678688363,
              35.390893908
            ],
            [
              132.678705041,
              35.390924583
            ],
            [
              132.678729875,
              35.390941725
            ],
            [
              132.678738174,
              35.390950688
            ],
            [
              132.678750088,
              35.390952138
            ],
            [
              132.678772996,
              35.39095429
            ],
            [
              132.67878425,
              35.390996237
            ],
            [
              132.678895891,
              35.390983015
            ],
            [
              132.678893974,
              35.390969526
            ],
            [
              132.678911369,
              35.390968702
            ]
          ]
        ]
      },
      "properties": {
        "polygon_uuid": "862c6f7c-c835-4ea5-a2f1-236c3bcb35bc",
        "daicho_shubetsu_cd": "FUD25"
      }
    },
    {
      "type": "Feature",
      "geometry": {
        "type": "Polygon",
        "coordinates": [
          [
            [
              132.677226996,
              35.383941653
            ],
            [
              132.677232579,
              35.384241015
            ],
            [
              132.677802302,
              35.384234703
            ],
            [
              132.677798389,
              35.383936392
            ],
            [
              132.677226996,
              35.383941653
            ]
          ]
        ]
      },
      "properties": {
        "polygon_uuid": "81243fbb-5652-464b-8241-255e079b233e",
        "daicho_shubetsu_cd": "FUD25"
      }
    },
    {
      "type": "Feature",
      "geometry": {
        "type": "Polygon",
        "coordinates": [
          [
            [
              132.682059842,
              35.389256726
            ],
            [
              132.682122844,
              35.38917029
            ],
            [
              132.681968163,
              35.389093313
            ],
            [
              132.681934033,
              35.389132703
            ],
            [
              132.681892746,
              35.389193454
            ],
            [
              132.681976318,
              35.389228929
            ],
            [
              132.682040016,
              35.389251692
            ],
            [
              132.682059842,
              35.389256726
            ]
          ]
        ]
      },
      "properties": {
        "polygon_uuid": "a9f36639-893d-45ba-925d-2bce2cbda1d6",
        "daicho_shubetsu_cd": "FUD25"
      }
    },
    {
      "type": "Feature",
      "geometry": {
        "type": "Polygon",
        "coordinates": [
          [
            [
              132.678335177,
              35.38882309
            ],
            [
              132.678278378,
              35.38891488
            ],
            [
              132.678155747,
              35.389113059
            ],
            [
              132.678143824,
              35.389134625
            ],
            [
              132.678063041,
              35.389280743
            ],
            [
              132.678191613,
              35.389333061
            ],
            [
              132.678233352,
              35.3892609
            ],
            [
              132.678265674,
              35.389273299
            ],
            [
              132.678283079,
              35.389245391
            ],
            [
              132.678315865,
              35.389240454
            ],
            [
              132.678342544,
              35.38919619
            ],
            [
              132.678333083,
              35.389182793
            ],
            [
              132.678338839,
              35.389166452
            ],
            [
              132.678324642,
              35.389145397
            ],
            [
              132.678326816,
              35.389118514
            ],
            [
              132.67833731,
              35.389109831
            ],
            [
              132.67835135,
              35.389105932
            ],
            [
              132.678403035,
              35.389123949
            ],
            [
              132.678425182,
              35.38910466
            ],
            [
              132.678441421,
              35.389077717
            ],
            [
              132.678444852,
              35.389064266
            ],
            [
              132.678457696,
              35.389056533
            ],
            [
              132.6785327,
              35.389055256
            ],
            [
              132.678572494,
              35.389046449
            ],
            [
              132.678608839,
              35.389048214
            ],
            [
              132.678636931,
              35.389042337
            ],
            [
              132.678650886,
              35.389025002
            ],
            [
              132.678656601,
              35.389001942
            ],
            [
              132.678648324,
              35.388990459
            ],
            [
              132.678668,
              35.388951025
            ],
            [
              132.678641634,
              35.388946025
            ],
            [
              132.678335177,
              35.38882309
            ]
          ]
        ]
      },
      "properties": {
        "polygon_uuid": "7d231681-eccb-435a-89f4-2e4618472250",
        "daicho_shubetsu_cd": "FUD25"
      }
    },
    {
      "type": "Feature",
      "geometry": {
        "type": "Polygon",
        "coordinates": [
          [
            [
              132.677219064,
              35.382889983
            ],
            [
              132.677221881,
              35.383145724
            ],
            [
              132.677723164,
              35.383141397
            ],
            [
              132.677721017,
              35.383088667
            ],
            [
              132.677741815,
              35.383069736
            ],
            [
              132.677781557,
              35.383069568
            ],
            [
              132.677780375,
              35.382882267
            ],
            [
              132.677219064,
              35.382889983
            ]
          ]
        ]
      },
      "properties": {
        "polygon_uuid": "559ca88d-4bed-4baa-9377-324fe89d09ed",
        "daicho_shubetsu_cd": "FUD25"
      }
    },
    {
      "type": "Feature",
      "geometry": {
        "type": "Polygon",
        "coordinates": [
          [
            [
              132.679946449,
              35.390971824
            ],
            [
              132.679956378,
              35.390804555
            ],
            [
              132.679850987,
              35.390792255
            ],
            [
              132.679841759,
              35.390925775
            ],
            [
              132.679830177,
              35.390976818
            ],
            [
              132.679861365,
              35.390984935
            ],
            [
              132.679917244,
              35.390987696
            ],
            [
              132.679927256,
              35.390977905
            ],
            [
              132.679946449,
              35.390971824
            ]
          ]
        ]
      },
      "properties": {
        "polygon_uuid": "b6c5c906-b1a9-4f72-b5c6-32ccde4d0005",
        "daicho_shubetsu_cd": "FUD25"
      }
    },
    {
      "type": "Feature",
      "geometry": {
        "type": "Polygon",
        "coordinates": [
          [
            [
              132.678853632,
              35.39074774
            ],
            [
              132.678896208,
              35.39052934
            ],
            [
              132.678740755,
              35.390492879
            ],
            [
              132.678687127,
              35.390484107
            ],
            [
              132.678676166,
              35.390488654
            ],
            [
              132.678649469,
              35.390611375
            ],
            [
              132.678666422,
              35.390685543
            ],
            [
              132.678670905,
              35.390742891
            ],
            [
              132.678778054,
              35.390743562
            ],
            [
              132.678853632,
              35.39074774
            ]
          ]
        ]
      },
      "properties": {
        "polygon_uuid": "561da584-c3af-4d25-b5f8-38c34f899df0",
        "daicho_shubetsu_cd": "FUD25"
      }
    },
    {
      "type": "Feature",
      "geometry": {
        "type": "Polygon",
        "coordinates": [
          [
            [
              132.679837689,
              35.392434761
            ],
            [
              132.67989544,
              35.392443515
            ],
            [
              132.679891876,
              35.392459278
            ],
            [
              132.679882027,
              35.392494565
            ],
            [
              132.679862909,
              35.392512643
            ],
            [
              132.679847441,
              35.392528457
            ],
            [
              132.679801008,
              35.392571399
            ],
            [
              132.679806545,
              35.392578124
            ],
            [
              132.679836908,
              35.392600492
            ],
            [
              132.679836092,
              35.392616244
            ],
            [
              132.679863683,
              35.392634874
            ],
            [
              132.679893913,
              35.392636245
            ],
            [
              132.679974722,
              35.392526417
            ],
            [
              132.679996293,
              35.392534007
            ],
            [
              132.680005579,
              35.392482117
            ],
            [
              132.680040552,
              35.392364984
            ],
            [
              132.680062967,
              35.392289149
            ],
            [
              132.680066563,
              35.392278635
            ],
            [
              132.680056442,
              35.392271179
            ],
            [
              132.680052665,
              35.392253198
            ],
            [
              132.68002605,
              35.392244312
            ],
            [
              132.67998114,
              35.392238504
            ],
            [
              132.679966802,
              35.392288058
            ],
            [
              132.679880634,
              35.392274926
            ],
            [
              132.6798574,
              35.392365763
            ],
            [
              132.679837689,
              35.392434761
            ]
          ]
        ]
      },
      "properties": {
        "polygon_uuid": "8279ec28-e491-45cb-94e2-41354f3b4931",
        "daicho_shubetsu_cd": "FUD25"
      }
    },
    {
      "type": "Feature",
      "geometry": {
        "type": "Polygon",
        "coordinates": [
          [
            [
              132.678424186,
              35.385033567
            ],
            [
              132.67812828,
              35.385040539
            ],
            [
              132.678132703,
              35.385270235
            ],
            [
              132.678219937,
              35.385280936
            ],
            [
              132.678225984,
              35.385244937
            ],
            [
              132.678427083,
              35.385245462
            ],
            [
              132.678424186,
              35.385033567
            ]
          ]
        ]
      },
      "properties": {
        "polygon_uuid": "025ddc2f-33a5-47fc-987b-43c888a0ccbe",
        "daicho_shubetsu_cd": "FUD25"
      }
    },
    {
      "type": "Feature",
      "geometry": {
        "type": "Polygon",
        "coordinates": [
          [
            [
              132.680281974,
              35.390713318
            ],
            [
              132.680290402,
              35.390742528
            ],
            [
              132.680285078,
              35.390769547
            ],
            [
              132.680268716,
              35.390788738
            ],
            [
              132.680270304,
              35.390822477
            ],
            [
              132.680238746,
              35.390828236
            ],
            [
              132.680240263,
              35.390850726
            ],
            [
              132.680258241,
              35.390869772
            ],
            [
              132.680269279,
              35.3908776
            ],
            [
              132.680410819,
              35.390885996
            ],
            [
              132.680420549,
              35.390903952
            ],
            [
              132.680487856,
              35.390903666
            ],
            [
              132.680511468,
              35.39072809
            ],
            [
              132.680344118,
              35.390699442
            ],
            [
              132.680281974,
              35.390713318
            ]
          ]
        ]
      },
      "properties": {
        "polygon_uuid": "dddd5a39-0182-4ceb-ac34-4e6e0a4b6d36",
        "daicho_shubetsu_cd": "FUD25"
      }
    },
    {
      "type": "Feature",
      "geometry": {
        "type": "Polygon",
        "coordinates": [
          [
            [
              132.681271979,
              35.388362931
            ],
            [
              132.681393571,
              35.388407763
            ],
            [
              132.681417141,
              35.388381748
            ],
            [
              132.681474666,
              35.38830448
            ],
            [
              132.681492988,
              35.388282806
            ],
            [
              132.681515605,
              35.388245278
            ],
            [
              132.681510234,
              35.388230184
            ],
            [
              132.68149432,
              35.388215855
            ],
            [
              132.681460813,
              35.388199442
            ],
            [
              132.681386481,
              35.388260225
            ],
            [
              132.681302553,
              35.388332568
            ],
            [
              132.681277203,
              35.38835499
            ],
            [
              132.681271979,
              35.388362931
            ]
          ]
        ]
      },
      "properties": {
        "polygon_uuid": "f995e6f2-524e-4872-a542-564750575b7d",
        "daicho_shubetsu_cd": "FUD25"
      }
    },
    {
      "type": "Feature",
      "geometry": {
        "type": "Polygon",
        "coordinates": [
          [
            [
              132.678407673,
              35.383492279
            ],
            [
              132.678925499,
              35.383486493
            ],
            [
              132.678949529,
              35.383477514
            ],
            [
              132.678958705,
              35.383458442
            ],
            [
              132.678955881,
              35.383289011
            ],
            [
              132.678404101,
              35.38329619
            ],
            [
              132.678407673,
              35.383492279
            ]
          ]
        ]
      },
      "properties": {
        "polygon_uuid": "9196b5f5-ef15-4d9c-a856-5b64d17eaad3",
        "daicho_shubetsu_cd": "FUD25"
      }
    },
    {
      "type": "Feature",
      "geometry": {
        "type": "Polygon",
        "coordinates": [
          [
            [
              132.681570374,
              35.389282021
            ],
            [
              132.68166751,
              35.389325798
            ],
            [
              132.681688373,
              35.389329975
            ],
            [
              132.681746866,
              35.389353614
            ],
            [
              132.681840916,
              35.38939843
            ],
            [
              132.681875025,
              35.389355626
            ],
            [
              132.681931847,
              35.389280307
            ],
            [
              132.68183046,
              35.389228698
            ],
            [
              132.681780199,
              35.389188814
            ],
            [
              132.681740453,
              35.389164243
            ],
            [
              132.681699714,
              35.389147353
            ],
            [
              132.681631764,
              35.389110958
            ],
            [
              132.681613011,
              35.389111038
            ],
            [
              132.681567616,
              35.389181189
            ],
            [
              132.681628236,
              35.389211644
            ],
            [
              132.681570374,
              35.389282021
            ]
          ]
        ]
      },
      "properties": {
        "polygon_uuid": "38c297ce-5bab-4fa7-8a82-5d7c3e637b31",
        "daicho_shubetsu_cd": "FUD25"
      }
    },
    {
      "type": "Feature",
      "geometry": {
        "type": "Polygon",
        "coordinates": [
          [
            [
              132.677241785,
              35.384734722
            ],
            [
              132.677243067,
              35.384783711
            ],
            [
              132.677809371,
              35.384773509
            ],
            [
              132.677802302,
              35.384234703
            ],
            [
              132.677232579,
              35.384241015
            ],
            [
              132.677238862,
              35.384578001
            ],
            [
              132.677241785,
              35.384734722
            ]
          ]
        ]
      },
      "properties": {
        "polygon_uuid": "4467db7f-514a-40a9-b927-637b95a9d021",
        "daicho_shubetsu_cd": "FUD25"
      }
    },
    {
      "type": "Feature",
      "geometry": {
        "type": "Polygon",
        "coordinates": [
          [
            [
              132.676731042,
              35.384734269
            ],
            [
              132.677241785,
              35.384734722
            ],
            [
              132.677238862,
              35.384578001
            ],
            [
              132.676783502,
              35.384576112
            ],
            [
              132.676777424,
              35.384273495
            ],
            [
              132.676712444,
              35.384279123
            ],
            [
              132.676731042,
              35.384734269
            ]
          ]
        ]
      },
      "properties": {
        "polygon_uuid": "4b602761-32b1-4e6d-aafd-64792d8fb3fa",
        "daicho_shubetsu_cd": "FUD25"
      }
    },
    {
      "type": "Feature",
      "geometry": {
        "type": "Polygon",
        "coordinates": [
          [
            [
              132.678335177,
              35.38882309
            ],
            [
              132.678396497,
              35.38869984
            ],
            [
              132.678341769,
              35.388683184
            ],
            [
              132.678265627,
              35.388711737
            ],
            [
              132.678234693,
              35.388775982
            ],
            [
              132.678184724,
              35.38878788
            ],
            [
              132.678151412,
              35.388856884
            ],
            [
              132.678278378,
              35.38891488
            ],
            [
              132.678335177,
              35.38882309
            ]
          ]
        ]
      },
      "properties": {
        "polygon_uuid": "1398bb94-93f4-4ae2-bc6d-6f0de9b30f86",
        "daicho_shubetsu_cd": "FUD25"
      }
    },
    {
      "type": "Feature",
      "geometry": {
        "type": "Polygon",
        "coordinates": [
          [
            [
              132.682164688,
              35.388861886
            ],
            [
              132.682216246,
              35.388778058
            ],
            [
              132.682221516,
              35.388771886
            ],
            [
              132.682066856,
              35.388713856
            ],
            [
              132.682071962,
              35.388697624
            ],
            [
              132.682021798,
              35.388673097
            ],
            [
              132.681980056,
              35.388662184
            ],
            [
              132.681952969,
              35.3886623
            ],
            [
              132.681842462,
              35.388814631
            ],
            [
              132.682109039,
              35.388957676
            ],
            [
              132.682164688,
              35.388861886
            ]
          ]
        ]
      },
      "properties": {
        "polygon_uuid": "abbd50c8-fb49-4d5b-9914-76b08d9fa865",
        "daicho_shubetsu_cd": "FUD25"
      }
    },
    {
      "type": "Feature",
      "geometry": {
        "type": "Polygon",
        "coordinates": [
          [
            [
              132.678191613,
              35.389333061
            ],
            [
              132.678063041,
              35.389280743
            ],
            [
              132.677997561,
              35.389252587
            ],
            [
              132.677828889,
              35.389555725
            ],
            [
              132.677849868,
              35.389564305
            ],
            [
              132.6778719,
              35.389588527
            ],
            [
              132.677874309,
              35.389598754
            ],
            [
              132.677972229,
              35.389638011
            ],
            [
              132.678010189,
              35.389586022
            ],
            [
              132.678029617,
              35.389569303
            ],
            [
              132.678047527,
              35.38955963
            ],
            [
              132.678068649,
              35.389563379
            ],
            [
              132.678114149,
              35.38959198
            ],
            [
              132.678153472,
              35.389632125
            ],
            [
              132.678232357,
              35.389660176
            ],
            [
              132.678253478,
              35.389663927
            ],
            [
              132.678269717,
              35.389636984
            ],
            [
              132.678282548,
              35.389627331
            ],
            [
              132.678307155,
              35.389626268
            ],
            [
              132.678367069,
              35.389648089
            ],
            [
              132.678411146,
              35.389574958
            ],
            [
              132.67820904,
              35.389494232
            ],
            [
              132.678206587,
              35.389476966
            ],
            [
              132.678222929,
              35.389466339
            ],
            [
              132.678262724,
              35.389457532
            ],
            [
              132.678312648,
              35.389382458
            ],
            [
              132.678191613,
              35.389333061
            ]
          ]
        ]
      },
      "properties": {
        "polygon_uuid": "d4f7adcb-3382-44d9-aad1-7b43d7cb25bf",
        "daicho_shubetsu_cd": "FUD25"
      }
    },
    {
      "type": "Feature",
      "geometry": {
        "type": "Polygon",
        "coordinates": [
          [
            [
              132.677219275,
              35.383527587
            ],
            [
              132.67685694,
              35.383536827
            ],
            [
              132.676732223,
              35.383537353
            ],
            [
              132.67669747,
              35.383566288
            ],
            [
              132.676695308,
              35.383639305
            ],
            [
              132.676699064,
              35.383819662
            ],
            [
              132.6767824,
              35.383817895
            ],
            [
              132.676787786,
              35.383925792
            ],
            [
              132.677226668,
              35.383924019
            ],
            [
              132.677219275,
              35.383527587
            ]
          ]
        ]
      },
      "properties": {
        "polygon_uuid": "4ac368d0-f06c-4adc-b6fb-7f694c9fb933",
        "daicho_shubetsu_cd": "FUD25"
      }
    },
    {
      "type": "Feature",
      "geometry": {
        "type": "Polygon",
        "coordinates": [
          [
            [
              132.676695549,
              35.382973467
            ],
            [
              132.67672013,
              35.382708221
            ],
            [
              132.67666763,
              35.382708442
            ],
            [
              132.676669146,
              35.382671173
            ],
            [
              132.676754187,
              35.382669726
            ],
            [
              132.676778209,
              35.382454645
            ],
            [
              132.676556849,
              35.382457728
            ],
            [
              132.676553434,
              35.382471358
            ],
            [
              132.676538347,
              35.382576763
            ],
            [
              132.676530941,
              35.38265132
            ],
            [
              132.676524866,
              35.382798249
            ],
            [
              132.676520834,
              35.382852729
            ],
            [
              132.676518695,
              35.382930131
            ],
            [
              132.676528523,
              35.382962336
            ],
            [
              132.676562712,
              35.382972224
            ],
            [
              132.676623123,
              35.382977702
            ],
            [
              132.676695549,
              35.382973467
            ]
          ]
        ]
      },
      "properties": {
        "polygon_uuid": "347f59f0-bcd6-481a-92c3-82b9d4665b65",
        "daicho_shubetsu_cd": "FUD25"
      }
    },
    {
      "type": "Feature",
      "geometry": {
        "type": "Polygon",
        "coordinates": [
          [
            [
              132.678507706,
              35.383844199
            ],
            [
              132.678945732,
              35.383830012
            ],
            [
              132.678945316,
              35.383582194
            ],
            [
              132.678942332,
              35.383551372
            ],
            [
              132.678929673,
              35.383534295
            ],
            [
              132.678904451,
              35.383514988
            ],
            [
              132.678469416,
              35.383522313
            ],
            [
              132.678456916,
              35.383530361
            ],
            [
              132.678448643,
              35.383545242
            ],
            [
              132.678454133,
              35.383751923
            ],
            [
              132.678532214,
              35.38375045
            ],
            [
              132.678532698,
              35.383826963
            ],
            [
              132.678507706,
              35.383844199
            ]
          ]
        ]
      },
      "properties": {
        "polygon_uuid": "783e4b74-2fd9-4da3-99ce-838121760784",
        "daicho_shubetsu_cd": "FUD25"
      }
    },
    {
      "type": "Feature",
      "geometry": {
        "type": "Polygon",
        "coordinates": [
          [
            [
              132.677850633,
              35.384790869
            ],
            [
              132.678420785,
              35.384784676
            ],
            [
              132.678416553,
              35.384475076
            ],
            [
              132.678412891,
              35.384247603
            ],
            [
              132.67784363,
              35.384253433
            ],
            [
              132.677844356,
              35.384293434
            ],
            [
              132.677850633,
              35.384790869
            ]
          ]
        ]
      },
      "properties": {
        "polygon_uuid": "eccf1658-37c7-4f02-b939-83d718876023",
        "daicho_shubetsu_cd": "FUD25"
      }
    },
    {
      "type": "Feature",
      "geometry": {
        "type": "Polygon",
        "coordinates": [
          [
            [
              132.677243067,
              35.384783711
            ],
            [
              132.677250052,
              35.385050739
            ],
            [
              132.677265788,
              35.385058382
            ],
            [
              132.677813499,
              35.385088185
            ],
            [
              132.677809371,
              35.384773509
            ],
            [
              132.677243067,
              35.384783711
            ]
          ]
        ]
      },
      "properties": {
        "polygon_uuid": "c224b0f4-2213-4132-acb2-843b04063b80",
        "daicho_shubetsu_cd": "FUD25"
      }
    },
    {
      "type": "Feature",
      "geometry": {
        "type": "Polygon",
        "coordinates": [
          [
            [
              132.677219275,
              35.383527587
            ],
            [
              132.677226668,
              35.383924019
            ],
            [
              132.677226996,
              35.383941653
            ],
            [
              132.677798389,
              35.383936392
            ],
            [
              132.677793588,
              35.383548285
            ],
            [
              132.677776957,
              35.383523303
            ],
            [
              132.677219275,
              35.383527587
            ]
          ]
        ]
      },
      "properties": {
        "polygon_uuid": "e90bf73c-bfc8-4633-a0cb-8a07b8ea6384",
        "daicho_shubetsu_cd": "FUD25"
      }
    },
    {
      "type": "Feature",
      "geometry": {
        "type": "Polygon",
        "coordinates": [
          [
            [
              132.677834744,
              35.383764494
            ],
            [
              132.677838771,
              35.383986069
            ],
            [
              132.67784363,
              35.384253433
            ],
            [
              132.678412891,
              35.384247603
            ],
            [
              132.678408567,
              35.383979048
            ],
            [
              132.678406227,
              35.383833765
            ],
            [
              132.678403306,
              35.383536825
            ],
            [
              132.678390659,
              35.383521462
            ],
            [
              132.678229611,
              35.383523857
            ],
            [
              132.67820554,
              35.383521389
            ],
            [
              132.67786982,
              35.383521953
            ],
            [
              132.677843765,
              35.383536624
            ],
            [
              132.67783755,
              35.383546072
            ],
            [
              132.677837944,
              35.383608595
            ],
            [
              132.677903837,
              35.383609174
            ],
            [
              132.677903208,
              35.383675127
            ],
            [
              132.677836131,
              35.383682583
            ],
            [
              132.677834744,
              35.383764494
            ]
          ]
        ]
      },
      "properties": {
        "polygon_uuid": "d211221b-5082-4d1d-af6d-8cf35237394e",
        "daicho_shubetsu_cd": "FUD25"
      }
    },
    {
      "type": "Feature",
      "geometry": {
        "type": "Polygon",
        "coordinates": [
          [
            [
              132.677215621,
              35.382577425
            ],
            [
              132.677217489,
              35.382747016
            ],
            [
              132.677219064,
              35.382889983
            ],
            [
              132.677780375,
              35.382882267
            ],
            [
              132.677778415,
              35.382571491
            ],
            [
              132.677215621,
              35.382577425
            ]
          ]
        ]
      },
      "properties": {
        "polygon_uuid": "4ff4fba7-441d-49db-bc4b-8fefeef42af3",
        "daicho_shubetsu_cd": "FUD25"
      }
    },
    {
      "type": "Feature",
      "geometry": {
        "type": "Polygon",
        "coordinates": [
          [
            [
              132.676709127,
              35.383501156
            ],
            [
              132.676757257,
              35.383504378
            ],
            [
              132.677225771,
              35.383498973
            ],
            [
              132.677222248,
              35.383179122
            ],
            [
              132.676737461,
              35.383183201
            ],
            [
              132.676723851,
              35.383181958
            ],
            [
              132.676713856,
              35.38325566
            ],
            [
              132.676774536,
              35.38325883
            ],
            [
              132.676770795,
              35.38332908
            ],
            [
              132.676737436,
              35.38334635
            ],
            [
              132.676693511,
              35.383346536
            ],
            [
              132.676687764,
              35.383430498
            ],
            [
              132.676683894,
              35.383480192
            ],
            [
              132.676709127,
              35.383501156
            ]
          ]
        ]
      },
      "properties": {
        "polygon_uuid": "3b3dc968-bf3b-43ca-a08a-93719207ed4a",
        "daicho_shubetsu_cd": "FUD25"
      }
    },
    {
      "type": "Feature",
      "geometry": {
        "type": "Polygon",
        "coordinates": [
          [
            [
              132.677977701,
              35.382917568
            ],
            [
              132.677976754,
              35.382988377
            ],
            [
              132.677826176,
              35.38299244
            ],
            [
              132.67783088,
              35.383298692
            ],
            [
              132.678045397,
              35.383298615
            ],
            [
              132.678305827,
              35.383300082
            ],
            [
              132.678404101,
              35.38329619
            ],
            [
              132.678396998,
              35.382906301
            ],
            [
              132.677977701,
              35.382917568
            ]
          ]
        ]
      },
      "properties": {
        "polygon_uuid": "76df236d-ee92-432d-b2c6-94473412a597",
        "daicho_shubetsu_cd": "FUD25"
      }
    },
    {
      "type": "Feature",
      "geometry": {
        "type": "Polygon",
        "coordinates": [
          [
            [
              132.679118336,
              35.390462723
            ],
            [
              132.679155963,
              35.390470504
            ],
            [
              132.679174138,
              35.390469434
            ],
            [
              132.679180206,
              35.390470402
            ],
            [
              132.67918734,
              35.390448534
            ],
            [
              132.67919075,
              35.390412785
            ],
            [
              132.679194249,
              35.390390932
            ],
            [
              132.679196516,
              35.390366107
            ],
            [
              132.679192703,
              35.390338331
            ],
            [
              132.679198614,
              35.390314483
            ],
            [
              132.67919934,
              35.390262837
            ],
            [
              132.679184937,
              35.390256774
            ],
            [
              132.679176332,
              35.390259164
            ],
            [
              132.679141884,
              35.390264015
            ],
            [
              132.679107435,
              35.390268867
            ],
            [
              132.679075949,
              35.390287823
            ],
            [
              132.679060955,
              35.390318541
            ],
            [
              132.679057097,
              35.390360177
            ],
            [
              132.679057573,
              35.39043554
            ],
            [
              132.679078313,
              35.390456824
            ],
            [
              132.679100154,
              35.3904628
            ],
            [
              132.679118336,
              35.390462723
            ]
          ]
        ]
      },
      "properties": {
        "polygon_uuid": "59d2083c-4de4-4c6d-9220-95a5ed33a5ba",
        "daicho_shubetsu_cd": "FUD25"
      }
    },
    {
      "type": "Feature",
      "geometry": {
        "type": "Polygon",
        "coordinates": [
          [
            [
              132.678943843,
              35.382054843
            ],
            [
              132.678385013,
              35.382055587
            ],
            [
              132.678389541,
              35.382376992
            ],
            [
              132.678393085,
              35.382628577
            ],
            [
              132.678946492,
              35.382621043
            ],
            [
              132.678943843,
              35.382054843
            ]
          ]
        ]
      },
      "properties": {
        "polygon_uuid": "a13e5026-3d70-4d1c-90fe-9641ed671ffc",
        "daicho_shubetsu_cd": "FUD25"
      }
    },
    {
      "type": "Feature",
      "geometry": {
        "type": "Polygon",
        "coordinates": [
          [
            [
              132.682223868,
              35.388308656
            ],
            [
              132.682336906,
              35.388356006
            ],
            [
              132.682277474,
              35.388444477
            ],
            [
              132.682317153,
              35.388463744
            ],
            [
              132.68234267,
              35.388473098
            ],
            [
              132.682361104,
              35.388478499
            ],
            [
              132.68240388,
              35.388497493
            ],
            [
              132.682453364,
              35.388519199
            ],
            [
              132.682506224,
              35.388545684
            ],
            [
              132.682531419,
              35.388562014
            ],
            [
              132.682560941,
              35.388583261
            ],
            [
              132.6826803,
              35.388643299
            ],
            [
              132.682688335,
              35.388643862
            ],
            [
              132.682796361,
              35.388497692
            ],
            [
              132.682734093,
              35.38846757
            ],
            [
              132.682678689,
              35.388441529
            ],
            [
              132.682613218,
              35.388404824
            ],
            [
              132.682663786,
              35.388334063
            ],
            [
              132.682603386,
              35.388305555
            ],
            [
              132.68250441,
              35.388260774
            ],
            [
              132.682468346,
              35.388245175
            ],
            [
              132.682444014,
              35.388232951
            ],
            [
              132.682404562,
              35.388210518
            ],
            [
              132.682355981,
              35.388188239
            ],
            [
              132.68233301,
              35.388204769
            ],
            [
              132.682306901,
              35.388245912
            ],
            [
              132.682285873,
              35.388256799
            ],
            [
              132.682250335,
              35.388266668
            ],
            [
              132.68223989,
              35.38828291
            ],
            [
              132.682223868,
              35.388308656
            ]
          ]
        ]
      },
      "properties": {
        "polygon_uuid": "796945bd-ec36-41c3-abf2-9aba58652957",
        "daicho_shubetsu_cd": "FUD25"
      }
    },
    {
      "type": "Feature",
      "geometry": {
        "type": "Polygon",
        "coordinates": [
          [
            [
              132.682703757,
              35.38824141
            ],
            [
              132.682436555,
              35.388107148
            ],
            [
              132.682397301,
              35.388154826
            ],
            [
              132.682363199,
              35.388183045
            ],
            [
              132.682355981,
              35.388188239
            ],
            [
              132.682404562,
              35.388210518
            ],
            [
              132.682444014,
              35.388232951
            ],
            [
              132.682468346,
              35.388245175
            ],
            [
              132.68250441,
              35.388260774
            ],
            [
              132.682603386,
              35.388305555
            ],
            [
              132.682663786,
              35.388334063
            ],
            [
              132.682613218,
              35.388404824
            ],
            [
              132.682678689,
              35.388441529
            ],
            [
              132.682734093,
              35.38846757
            ],
            [
              132.682796361,
              35.388497692
            ],
            [
              132.682904474,
              35.388351403
            ],
            [
              132.682701196,
              35.388253298
            ],
            [
              132.682703757,
              35.38824141
            ]
          ]
        ]
      },
      "properties": {
        "polygon_uuid": "d7c574e2-94b4-45d4-8768-a74886deae72",
        "daicho_shubetsu_cd": "FUD25"
      }
    },
    {
      "type": "Feature",
      "geometry": {
        "type": "Polygon",
        "coordinates": [
          [
            [
              132.680028303,
              35.388307502
            ],
            [
              132.680083922,
              35.388206487
            ],
            [
              132.680009902,
              35.388178008
            ],
            [
              132.679991168,
              35.388180967
            ],
            [
              132.679926986,
              35.38822539
            ],
            [
              132.679905911,
              35.388259997
            ],
            [
              132.679757085,
              35.388202188
            ],
            [
              132.679714185,
              35.388220509
            ],
            [
              132.679683134,
              35.388252634
            ],
            [
              132.679644476,
              35.388317424
            ],
            [
              132.679644625,
              35.388341099
            ],
            [
              132.679654095,
              35.388355775
            ],
            [
              132.679713628,
              35.388379197
            ],
            [
              132.679695859,
              35.388411265
            ],
            [
              132.679748217,
              35.388432493
            ],
            [
              132.679705368,
              35.388514257
            ],
            [
              132.679681035,
              35.388558511
            ],
            [
              132.679681144,
              35.388575787
            ],
            [
              132.679761018,
              35.388603282
            ],
            [
              132.679774991,
              35.388588825
            ],
            [
              132.679835213,
              35.388474354
            ],
            [
              132.679906883,
              35.388501884
            ],
            [
              132.680028303,
              35.388307502
            ]
          ]
        ]
      },
      "properties": {
        "polygon_uuid": "87a2dc9d-c128-4d52-ae2a-a9161ddbd0f1",
        "daicho_shubetsu_cd": "FUD25"
      }
    },
    {
      "type": "Feature",
      "geometry": {
        "type": "Polygon",
        "coordinates": [
          [
            [
              132.681381562,
              35.388005762
            ],
            [
              132.681542257,
              35.387771848
            ],
            [
              132.681207795,
              35.387618642
            ],
            [
              132.681118774,
              35.38773586
            ],
            [
              132.681032473,
              35.387849603
            ],
            [
              132.681066849,
              35.387864574
            ],
            [
              132.681031586,
              35.387917632
            ],
            [
              132.681032986,
              35.387930583
            ],
            [
              132.681058168,
              35.387950992
            ],
            [
              132.681059611,
              35.387970421
            ],
            [
              132.681133653,
              35.388002498
            ],
            [
              132.681310862,
              35.388084885
            ],
            [
              132.681363102,
              35.38800584
            ],
            [
              132.681381562,
              35.388005762
            ]
          ]
        ]
      },
      "properties": {
        "polygon_uuid": "ce3253e5-6bdf-4d76-86e4-b493eb4cbaf4",
        "daicho_shubetsu_cd": "FUD25"
      }
    },
    {
      "type": "Feature",
      "geometry": {
        "type": "Polygon",
        "coordinates": [
          [
            [
              132.678393085,
              35.382628577
            ],
            [
              132.678389541,
              35.382376992
            ],
            [
              132.678341676,
              35.382378087
            ],
            [
              132.678282004,
              35.382368918
            ],
            [
              132.678188925,
              35.382369312
            ],
            [
              132.678178348,
              35.382350514
            ],
            [
              132.67815948,
              35.382343742
            ],
            [
              132.678051782,
              35.382347624
            ],
            [
              132.677812698,
              35.382359137
            ],
            [
              132.677822969,
              35.382484257
            ],
            [
              132.677877352,
              35.382484027
            ],
            [
              132.677879101,
              35.382539979
            ],
            [
              132.677823323,
              35.382540215
            ],
            [
              132.677822634,
              35.382652135
            ],
            [
              132.677875616,
              35.382650769
            ],
            [
              132.677877248,
              35.382688449
            ],
            [
              132.677923279,
              35.382690538
            ],
            [
              132.678015495,
              35.382694376
            ],
            [
              132.678170298,
              35.382697147
            ],
            [
              132.678367933,
              35.382692027
            ],
            [
              132.678393965,
              35.382691061
            ],
            [
              132.678393085,
              35.382628577
            ]
          ]
        ]
      },
      "properties": {
        "polygon_uuid": "3c9e7b93-9a47-4f28-b8f5-badc6c0457c8",
        "daicho_shubetsu_cd": "FUD25"
      }
    },
    {
      "type": "Feature",
      "geometry": {
        "type": "Polygon",
        "coordinates": [
          [
            [
              132.677865371,
              35.38349555
            ],
            [
              132.678256723,
              35.383490087
            ],
            [
              132.678258016,
              35.383400243
            ],
            [
              132.678269119,
              35.383391822
            ],
            [
              132.678289537,
              35.383386406
            ],
            [
              132.678377842,
              35.383384509
            ],
            [
              132.678376666,
              35.383492625
            ],
            [
              132.678407673,
              35.383492279
            ],
            [
              132.678404101,
              35.38329619
            ],
            [
              132.678305827,
              35.383300082
            ],
            [
              132.678045397,
              35.383298615
            ],
            [
              132.67783088,
              35.383298692
            ],
            [
              132.677833274,
              35.383454584
            ],
            [
              132.677839003,
              35.383478542
            ],
            [
              132.677865371,
              35.38349555
            ]
          ]
        ]
      },
      "properties": {
        "polygon_uuid": "f4a89ed1-0530-41b9-bcf4-bbac4eb658e6",
        "daicho_shubetsu_cd": "FUD25"
      }
    },
    {
      "type": "Feature",
      "geometry": {
        "type": "Polygon",
        "coordinates": [
          [
            [
              132.680320727,
              35.388340506
            ],
            [
              132.68039219,
              35.388335403
            ],
            [
              132.68041795,
              35.388331454
            ],
            [
              132.680434218,
              35.38830931
            ],
            [
              132.680441031,
              35.388274729
            ],
            [
              132.68043848,
              35.388242107
            ],
            [
              132.680186993,
              35.388136639
            ],
            [
              132.680127792,
              35.388227111
            ],
            [
              132.680119795,
              35.388259777
            ],
            [
              132.680278455,
              35.388328209
            ],
            [
              132.680320727,
              35.388340506
            ]
          ]
        ]
      },
      "properties": {
        "polygon_uuid": "7b7189fa-a94e-4ea6-9fda-be738068f543",
        "daicho_shubetsu_cd": "FUD25"
      }
    },
    {
      "type": "Feature",
      "geometry": {
        "type": "Polygon",
        "coordinates": [
          [
            [
              132.677997561,
              35.389252587
            ],
            [
              132.677919058,
              35.389218948
            ],
            [
              132.677898121,
              35.389209775
            ],
            [
              132.677721606,
              35.389132443
            ],
            [
              132.677589447,
              35.389363352
            ],
            [
              132.677623541,
              35.389379811
            ],
            [
              132.677611994,
              35.389401271
            ],
            [
              132.67765039,
              35.389418385
            ],
            [
              132.677638025,
              35.389440192
            ],
            [
              132.677677189,
              35.389455383
            ],
            [
              132.677660291,
              35.389487684
            ],
            [
              132.67778328,
              35.389537073
            ],
            [
              132.677828889,
              35.389555725
            ],
            [
              132.677997561,
              35.389252587
            ]
          ]
        ]
      },
      "properties": {
        "polygon_uuid": "1c437164-a278-494a-a43b-c049852bf9ec",
        "daicho_shubetsu_cd": "FUD25"
      }
    },
    {
      "type": "Feature",
      "geometry": {
        "type": "Polygon",
        "coordinates": [
          [
            [
              132.676723851,
              35.383181958
            ],
            [
              132.676737461,
              35.383183201
            ],
            [
              132.677222248,
              35.383179122
            ],
            [
              132.677221881,
              35.383145724
            ],
            [
              132.677219064,
              35.382889983
            ],
            [
              132.677217489,
              35.382747016
            ],
            [
              132.67677925,
              35.382750974
            ],
            [
              132.676723851,
              35.383181958
            ]
          ]
        ]
      },
      "properties": {
        "polygon_uuid": "39232394-1dff-48cc-bc54-c11283eb3830",
        "daicho_shubetsu_cd": "FUD25"
      }
    },
    {
      "type": "Feature",
      "geometry": {
        "type": "Polygon",
        "coordinates": [
          [
            [
              132.682912525,
              35.388357627
            ],
            [
              132.682805337,
              35.388504213
            ],
            [
              132.682901615,
              35.388552961
            ],
            [
              132.68287546,
              35.388586906
            ],
            [
              132.683129388,
              35.388706754
            ],
            [
              132.683147746,
              35.388714671
            ],
            [
              132.683170411,
              35.388684773
            ],
            [
              132.683187057,
              35.388676064
            ],
            [
              132.683211638,
              35.38867092
            ],
            [
              132.683229038,
              35.388708907
            ],
            [
              132.683248946,
              35.388726738
            ],
            [
              132.683345096,
              35.388774102
            ],
            [
              132.68335666,
              35.388790263
            ],
            [
              132.683383768,
              35.388793559
            ],
            [
              132.683407746,
              35.388796016
            ],
            [
              132.683443921,
              35.388750644
            ],
            [
              132.683419796,
              35.388725154
            ],
            [
              132.683423806,
              35.388700396
            ],
            [
              132.683424766,
              35.388687594
            ],
            [
              132.683390283,
              35.388671532
            ],
            [
              132.68337554,
              35.388646854
            ],
            [
              132.683304513,
              35.38861815
            ],
            [
              132.683283601,
              35.388606296
            ],
            [
              132.683263054,
              35.388600875
            ],
            [
              132.683175775,
              35.388560937
            ],
            [
              132.683217536,
              35.388493093
            ],
            [
              132.682968947,
              35.3883833
            ],
            [
              132.682912525,
              35.388357627
            ]
          ]
        ]
      },
      "properties": {
        "polygon_uuid": "9ba6337b-e1b4-467b-a6f6-d138826b2390",
        "daicho_shubetsu_cd": "FUD25"
      }
    },
    {
      "type": "Feature",
      "geometry": {
        "type": "Polygon",
        "coordinates": [
          [
            [
              132.678997042,
              35.38881839
            ],
            [
              132.679085745,
              35.388666847
            ],
            [
              132.678935939,
              35.388608455
            ],
            [
              132.678888919,
              35.3886792
            ],
            [
              132.67867922,
              35.388602345
            ],
            [
              132.678679075,
              35.388579311
            ],
            [
              132.678712218,
              35.388541875
            ],
            [
              132.678729348,
              35.388532204
            ],
            [
              132.678758314,
              35.388541039
            ],
            [
              132.678776281,
              35.388540324
            ],
            [
              132.678810721,
              35.388549775
            ],
            [
              132.678887237,
              35.388417
            ],
            [
              132.678813571,
              35.388382632
            ],
            [
              132.678781762,
              35.388418599
            ],
            [
              132.678733561,
              35.388457195
            ],
            [
              132.678699235,
              35.388465658
            ],
            [
              132.678664009,
              35.388455571
            ],
            [
              132.678642152,
              35.388458862
            ],
            [
              132.678622658,
              35.388465344
            ],
            [
              132.678589052,
              35.388464206
            ],
            [
              132.678547742,
              35.388480377
            ],
            [
              132.67851429,
              35.388503554
            ],
            [
              132.678497983,
              35.388519619
            ],
            [
              132.678506678,
              35.38853558
            ],
            [
              132.67860933,
              35.388581854
            ],
            [
              132.678586669,
              35.388619277
            ],
            [
              132.67854385,
              35.388651548
            ],
            [
              132.678512241,
              35.38865744
            ],
            [
              132.678467832,
              35.388677784
            ],
            [
              132.678428086,
              35.38869427
            ],
            [
              132.678515992,
              35.388723886
            ],
            [
              132.678587717,
              35.388760054
            ],
            [
              132.678669856,
              35.388775063
            ],
            [
              132.678710949,
              35.388786406
            ],
            [
              132.678733234,
              35.388796852
            ],
            [
              132.678768559,
              35.388727928
            ],
            [
              132.678997042,
              35.38881839
            ]
          ]
        ]
      },
      "properties": {
        "polygon_uuid": "04298225-53d7-48c0-991e-d6c915ae30a6",
        "daicho_shubetsu_cd": "FUD25"
      }
    },
    {
      "type": "Feature",
      "geometry": {
        "type": "Polygon",
        "coordinates": [
          [
            [
              132.678393085,
              35.382628577
            ],
            [
              132.678393965,
              35.382691061
            ],
            [
              132.678396998,
              35.382906301
            ],
            [
              132.678404101,
              35.38329619
            ],
            [
              132.678955881,
              35.383289011
            ],
            [
              132.678951218,
              35.383009281
            ],
            [
              132.678948559,
              35.382653772
            ],
            [
              132.678946492,
              35.382621043
            ],
            [
              132.678393085,
              35.382628577
            ]
          ]
        ]
      },
      "properties": {
        "polygon_uuid": "af716341-9be9-4898-80d9-db79df8d8f93",
        "daicho_shubetsu_cd": "FUD25"
      }
    },
    {
      "type": "Feature",
      "geometry": {
        "type": "Polygon",
        "coordinates": [
          [
            [
              132.677211826,
              35.382232767
            ],
            [
              132.677209545,
              35.382025718
            ],
            [
              132.676867199,
              35.382029345
            ],
            [
              132.67682156,
              35.38242182
            ],
            [
              132.67677925,
              35.382750974
            ],
            [
              132.677217489,
              35.382747016
            ],
            [
              132.677215621,
              35.382577425
            ],
            [
              132.677211826,
              35.382232767
            ]
          ]
        ]
      },
      "properties": {
        "polygon_uuid": "8e4237d9-0b92-40e2-a02c-dbf467509892",
        "daicho_shubetsu_cd": "FUD25"
      }
    },
    {
      "type": "Feature",
      "geometry": {
        "type": "Polygon",
        "coordinates": [
          [
            [
              132.682668268,
              35.389255836
            ],
            [
              132.682799864,
              35.388979707
            ],
            [
              132.682534573,
              35.38887505
            ],
            [
              132.682377614,
              35.389094979
            ],
            [
              132.682378721,
              35.389105212
            ],
            [
              132.682462326,
              35.389145806
            ],
            [
              132.682501584,
              35.389093596
            ],
            [
              132.682541286,
              35.389111343
            ],
            [
              132.682507254,
              35.38916609
            ],
            [
              132.682668268,
              35.389255836
            ]
          ]
        ]
      },
      "properties": {
        "polygon_uuid": "4f34227e-fd06-4208-9b09-dde7913855c9",
        "daicho_shubetsu_cd": "FUD25"
      }
    },
    {
      "type": "Feature",
      "geometry": {
        "type": "Polygon",
        "coordinates": [
          [
            [
              132.679497784,
              35.391552301
            ],
            [
              132.679893247,
              35.391528124
            ],
            [
              132.679879041,
              35.391453944
            ],
            [
              132.679801667,
              35.391467236
            ],
            [
              132.679753648,
              35.391476438
            ],
            [
              132.67954625,
              35.391480694
            ],
            [
              132.679488629,
              35.391492187
            ],
            [
              132.679497784,
              35.391552301
            ]
          ]
        ]
      },
      "properties": {
        "polygon_uuid": "941937cf-4832-44b7-8d88-ddfa09578d1c",
        "daicho_shubetsu_cd": "FUD25"
      }
    },
    {
      "type": "Feature",
      "geometry": {
        "type": "Polygon",
        "coordinates": [
          [
            [
              132.683272109,
              35.388504522
            ],
            [
              132.683324424,
              35.388437352
            ],
            [
              132.68329884,
              35.388423065
            ],
            [
              132.683259115,
              35.3883966
            ],
            [
              132.683261573,
              35.388368516
            ],
            [
              132.683292964,
              35.38832879
            ],
            [
              132.683179236,
              35.388276585
            ],
            [
              132.683150256,
              35.388281027
            ],
            [
              132.683139781,
              35.38829259
            ],
            [
              132.683100244,
              35.388295638
            ],
            [
              132.683065042,
              35.38828931
            ],
            [
              132.683031639,
              35.388289452
            ],
            [
              132.683018459,
              35.388290228
            ],
            [
              132.682989346,
              35.388273797
            ],
            [
              132.682974449,
              35.388281059
            ],
            [
              132.682920372,
              35.388347515
            ],
            [
              132.683127569,
              35.388445248
            ],
            [
              132.683224522,
              35.388485865
            ],
            [
              132.683272109,
              35.388504522
            ]
          ]
        ]
      },
      "properties": {
        "polygon_uuid": "a704292f-9e21-444f-87d3-e049c4f495db",
        "daicho_shubetsu_cd": "FUD25"
      }
    },
    {
      "type": "Feature",
      "geometry": {
        "type": "Polygon",
        "coordinates": [
          [
            [
              132.678460291,
              35.384727062
            ],
            [
              132.678952512,
              35.384720408
            ],
            [
              132.678948601,
              35.384426823
            ],
            [
              132.678557442,
              35.384432696
            ],
            [
              132.678454258,
              35.384434275
            ],
            [
              132.678460291,
              35.384727062
            ]
          ]
        ]
      },
      "properties": {
        "polygon_uuid": "e55f8d3e-4f62-445a-a21a-e3252d7f4b3f",
        "daicho_shubetsu_cd": "FUD25"
      }
    },
    {
      "type": "Feature",
      "geometry": {
        "type": "Polygon",
        "coordinates": [
          [
            [
              132.677225771,
              35.383498973
            ],
            [
              132.67777377,
              35.38349323
            ],
            [
              132.677788326,
              35.383479465
            ],
            [
              132.677794471,
              35.383458882
            ],
            [
              132.677786637,
              35.383211727
            ],
            [
              132.677725968,
              35.38321027
            ],
            [
              132.677723164,
              35.383141397
            ],
            [
              132.677221881,
              35.383145724
            ],
            [
              132.677222248,
              35.383179122
            ],
            [
              132.677225771,
              35.383498973
            ]
          ]
        ]
      },
      "properties": {
        "polygon_uuid": "c106f784-2bd0-4dd5-b2b9-edf3af2e8bec",
        "daicho_shubetsu_cd": "FUD25"
      }
    },
    {
      "type": "Feature",
      "geometry": {
        "type": "Polygon",
        "coordinates": [
          [
            [
              132.676787786,
              35.383925792
            ],
            [
              132.676750151,
              35.383928521
            ],
            [
              132.676754405,
              35.384105801
            ],
            [
              132.676776368,
              35.384105708
            ],
            [
              132.676777424,
              35.384273495
            ],
            [
              132.676783502,
              35.384576112
            ],
            [
              132.677238862,
              35.384578001
            ],
            [
              132.677232579,
              35.384241015
            ],
            [
              132.677226996,
              35.383941653
            ],
            [
              132.677226668,
              35.383924019
            ],
            [
              132.676787786,
              35.383925792
            ]
          ]
        ]
      },
      "properties": {
        "polygon_uuid": "cad1f27c-e80f-4fee-a6eb-ee99f22b392b",
        "daicho_shubetsu_cd": "FUD25"
      }
    },
    {
      "type": "Feature",
      "geometry": {
        "type": "Polygon",
        "coordinates": [
          [
            [
              132.682805337,
              35.388504213
            ],
            [
              132.682692921,
              35.38865802
            ],
            [
              132.682543013,
              35.388860215
            ],
            [
              132.682755414,
              35.388946697
            ],
            [
              132.682885839,
              35.388997968
            ],
            [
              132.682928124,
              35.389012184
            ],
            [
              132.683147746,
              35.388714671
            ],
            [
              132.683129388,
              35.388706754
            ],
            [
              132.68287546,
              35.388586906
            ],
            [
              132.682901615,
              35.388552961
            ],
            [
              132.682805337,
              35.388504213
            ]
          ]
        ]
      },
      "properties": {
        "polygon_uuid": "2afd05fd-33b2-4288-999a-ef636d381d35",
        "daicho_shubetsu_cd": "FUD25"
      }
    },
    {
      "type": "Feature",
      "geometry": {
        "type": "Polygon",
        "coordinates": [
          [
            [
              132.677923279,
              35.382690538
            ],
            [
              132.677927642,
              35.38271907
            ],
            [
              132.677898373,
              35.382721477
            ],
            [
              132.677898856,
              35.38279799
            ],
            [
              132.677845867,
              35.382798214
            ],
            [
              132.677825051,
              35.382814291
            ],
            [
              132.677825714,
              35.382919353
            ],
            [
              132.677977701,
              35.382917568
            ],
            [
              132.678396998,
              35.382906301
            ],
            [
              132.678393965,
              35.382691061
            ],
            [
              132.678367933,
              35.382692027
            ],
            [
              132.678170298,
              35.382697147
            ],
            [
              132.678015495,
              35.382694376
            ],
            [
              132.677923279,
              35.382690538
            ]
          ]
        ]
      },
      "properties": {
        "polygon_uuid": "1d25fda0-66b4-45b9-b8ae-efda688085c5",
        "daicho_shubetsu_cd": "FUD25"
      }
    },
    {
      "type": "Feature",
      "geometry": {
        "type": "Polygon",
        "coordinates": [
          [
            [
              132.677857067,
              35.385206671
            ],
            [
              132.677922956,
              35.385206392
            ],
            [
              132.677926337,
              35.38524492
            ],
            [
              132.678132703,
              35.385270235
            ],
            [
              132.67812828,
              35.385040539
            ],
            [
              132.678424186,
              35.385033567
            ],
            [
              132.678420785,
              35.384784676
            ],
            [
              132.677850633,
              35.384790869
            ],
            [
              132.677857067,
              35.385206671
            ]
          ]
        ]
      },
      "properties": {
        "polygon_uuid": "b30ec970-ac82-445a-9c2e-efea5f9a25a5",
        "daicho_shubetsu_cd": "FUD25"
      }
    },
    {
      "type": "Feature",
      "geometry": {
        "type": "Polygon",
        "coordinates": [
          [
            [
              132.677776252,
              35.382228694
            ],
            [
              132.677691494,
              35.382229053
            ],
            [
              132.677211826,
              35.382232767
            ],
            [
              132.677215621,
              35.382577425
            ],
            [
              132.677778415,
              35.382571491
            ],
            [
              132.677776252,
              35.382228694
            ]
          ]
        ]
      },
      "properties": {
        "polygon_uuid": "547c7337-af90-48d5-8a2a-f24ec68547f9",
        "daicho_shubetsu_cd": "FUD25"
      }
    },
    {
      "type": "Feature",
      "geometry": {
        "type": "Polygon",
        "coordinates": [
          [
            [
              132.679628578,
              35.391172928
            ],
            [
              132.679628325,
              35.391209257
            ],
            [
              132.679595486,
              35.391229644
            ],
            [
              132.679566741,
              35.391245514
            ],
            [
              132.679569665,
              35.391273622
            ],
            [
              132.679576683,
              35.391297214
            ],
            [
              132.679615228,
              35.391350716
            ],
            [
              132.679693772,
              35.391331057
            ],
            [
              132.679752578,
              35.391307716
            ],
            [
              132.679763974,
              35.391371784
            ],
            [
              132.679847729,
              35.391365804
            ],
            [
              132.679889445,
              35.391361663
            ],
            [
              132.679905872,
              35.391352594
            ],
            [
              132.679909907,
              35.391339079
            ],
            [
              132.679905473,
              35.391289605
            ],
            [
              132.67996999,
              35.391282581
            ],
            [
              132.679946437,
              35.391034091
            ],
            [
              132.679828232,
              35.391017578
            ],
            [
              132.679823521,
              35.391141332
            ],
            [
              132.679765879,
              35.39114945
            ],
            [
              132.679713682,
              35.391149672
            ],
            [
              132.679689028,
              35.391161025
            ],
            [
              132.679680829,
              35.391167809
            ],
            [
              132.679636908,
              35.391173619
            ],
            [
              132.679628578,
              35.391172928
            ]
          ]
        ]
      },
      "properties": {
        "polygon_uuid": "76b6f7c7-ca79-4d75-8e95-f915fff1f8be",
        "daicho_shubetsu_cd": "FUD25"
      }
    },
    {
      "type": "Feature",
      "geometry": {
        "type": "Polygon",
        "coordinates": [
          [
            [
              132.679218593,
              35.388614196
            ],
            [
              132.679529652,
              35.388749165
            ],
            [
              132.679623263,
              35.388601601
            ],
            [
              132.679417995,
              35.388514811
            ],
            [
              132.67937273,
              35.388523321
            ],
            [
              132.679364313,
              35.388551511
            ],
            [
              132.679349585,
              35.388570129
            ],
            [
              132.679337913,
              35.388577857
            ],
            [
              132.679317598,
              35.388577943
            ],
            [
              132.679253325,
              35.388546223
            ],
            [
              132.679218545,
              35.388606517
            ],
            [
              132.679218593,
              35.388614196
            ]
          ]
        ]
      },
      "properties": {
        "polygon_uuid": "62c38f55-5f57-4e89-8fe0-fdf29a9863bb",
        "daicho_shubetsu_cd": "FUD25"
      }
    }
  ]
}