{
  "type": "FeatureCollection",
  "features": [
    {
      "type": "Feature",
      "geometry": {
        "type": "Polygon",
        "coordinates": [
          [
            [
              132.683332809,
              35.311127712
            ],
            [
              132.683577002,
              35.311169514
            ],
            [
              132.683639674,
              35.310978823
            ],
            [
              132.683403951,
              35.310898901
            ],
            [
              132.683374919,
              35.310957427
            ],
            [
              132.683329405,
              35.311049177
            ],
            [
              132.683332809,
              35.311127712
            ]
          ]
        ]
      },
      "properties": {
        "polygon_uuid": "31da3fa5-a3ba-4675-9518-03865412b52f",
        "daicho_shubetsu_cd": "FUD25"
      }
    },
    {
      "type": "Feature",
      "geometry": {
        "type": "Polygon",
        "coordinates": [
          [
            [
              132.68129848,
              35.310931643
            ],
            [
              132.681632369,
              35.311013565
            ],
            [
              132.681766977,
              35.310686448
            ],
            [
              132.681747118,
              35.310446063
            ],
            [
              132.681689914,
              35.310099268
            ],
            [
              132.681365774,
              35.31024001
            ],
            [
              132.68134577,
              35.310766119
            ],
            [
              132.68129848,
              35.310931643
            ]
          ]
        ]
      },
      "properties": {
        "polygon_uuid": "e813f69a-33f1-44ab-b5b2-040012e32a93",
        "daicho_shubetsu_cd": "FUD25"
      }
    },
    {
      "type": "Feature",
      "geometry": {
        "type": "Polygon",
        "coordinates": [
          [
            [
              132.685120454,
              35.310491666
            ],
            [
              132.685329983,
              35.310562176
            ],
            [
              132.685517392,
              35.310351907
            ],
            [
              132.685695086,
              35.310439215
            ],
            [
              132.6857789,
              35.310376967
            ],
            [
              132.685405802,
              35.310157202
            ],
            [
              132.685221024,
              35.310324614
            ],
            [
              132.685120454,
              35.310491666
            ]
          ]
        ]
      },
      "properties": {
        "polygon_uuid": "d7498856-2b3b-4eb9-a777-049fe920c047",
        "daicho_shubetsu_cd": "FUD25"
      }
    },
    {
      "type": "Feature",
      "geometry": {
        "type": "Polygon",
        "coordinates": [
          [
            [
              132.681345081,
              35.30573086
            ],
            [
              132.681397487,
              35.305771275
            ],
            [
              132.681501595,
              35.305777748
            ],
            [
              132.68166465,
              35.305765525
            ],
            [
              132.681712361,
              35.305749183
            ],
            [
              132.681734262,
              35.305654559
            ],
            [
              132.681767326,
              35.305546054
            ],
            [
              132.681808812,
              35.305435207
            ],
            [
              132.681819055,
              35.305276075
            ],
            [
              132.681835593,
              35.305222975
            ],
            [
              132.681757106,
              35.305264811
            ],
            [
              132.68161989,
              35.305359926
            ],
            [
              132.681564589,
              35.305510027
            ],
            [
              132.681494991,
              35.305623299
            ],
            [
              132.681345081,
              35.30573086
            ]
          ]
        ]
      },
      "properties": {
        "polygon_uuid": "aa2e3654-c022-48f3-b500-0894088bf21b",
        "daicho_shubetsu_cd": "FUD25"
      }
    },
    {
      "type": "Feature",
      "geometry": {
        "type": "Polygon",
        "coordinates": [
          [
            [
              132.67668071,
              35.308083925
            ],
            [
              132.676958771,
              35.308324454
            ],
            [
              132.677045765,
              35.308399704
            ],
            [
              132.677358006,
              35.308161952
            ],
            [
              132.677135819,
              35.308034303
            ],
            [
              132.676967787,
              35.307868056
            ],
            [
              132.67668071,
              35.308083925
            ]
          ]
        ]
      },
      "properties": {
        "polygon_uuid": "30c0a84c-f892-4ed5-aa53-0a40f0b97270",
        "daicho_shubetsu_cd": "FUD25"
      }
    },
    {
      "type": "Feature",
      "geometry": {
        "type": "Polygon",
        "coordinates": [
          [
            [
              132.681267642,
              35.30520465
            ],
            [
              132.681159641,
              35.305628255
            ],
            [
              132.681139404,
              35.305878432
            ],
            [
              132.681345081,
              35.30573086
            ],
            [
              132.681494991,
              35.305623299
            ],
            [
              132.681564589,
              35.305510027
            ],
            [
              132.68161989,
              35.305359926
            ],
            [
              132.681757106,
              35.305264811
            ],
            [
              132.681267642,
              35.30520465
            ]
          ]
        ]
      },
      "properties": {
        "polygon_uuid": "eb62a49a-9440-454f-aa93-0f1d6b09841e",
        "daicho_shubetsu_cd": "FUD25"
      }
    },
    {
      "type": "Feature",
      "geometry": {
        "type": "Polygon",
        "coordinates": [
          [
            [
              132.682349069,
              35.311033209
            ],
            [
              132.682580338,
              35.31109768
            ],
            [
              132.68269637,
              35.311078143
            ],
            [
              132.682788354,
              35.310930172
            ],
            [
              132.682603615,
              35.310876214
            ],
            [
              132.682688015,
              35.3106771
            ],
            [
              132.68266908,
              35.31066766
            ],
            [
              132.682541562,
              35.310707478
            ],
            [
              132.682349069,
              35.311033209
            ]
          ]
        ]
      },
      "properties": {
        "polygon_uuid": "4af5466e-b615-48ab-a6d2-105463934c55",
        "daicho_shubetsu_cd": "FUD25"
      }
    },
    {
      "type": "Feature",
      "geometry": {
        "type": "Polygon",
        "coordinates": [
          [
            [
              132.678836683,
              35.308966635
            ],
            [
              132.678822771,
              35.3089201
            ],
            [
              132.678762796,
              35.308790396
            ],
            [
              132.678687014,
              35.30859287
            ],
            [
              132.678372997,
              35.30870379
            ],
            [
              132.67853818,
              35.309044025
            ],
            [
              132.678836683,
              35.308966635
            ]
          ]
        ]
      },
      "properties": {
        "polygon_uuid": "1e6a3380-322e-40d8-8edd-130b84523e12",
        "daicho_shubetsu_cd": "FUD25"
      }
    },
    {
      "type": "Feature",
      "geometry": {
        "type": "Polygon",
        "coordinates": [
          [
            [
              132.681410743,
              35.308392585
            ],
            [
              132.68148402,
              35.308382708
            ],
            [
              132.681476556,
              35.308257041
            ],
            [
              132.681487617,
              35.308161353
            ],
            [
              132.681471794,
              35.308031622
            ],
            [
              132.681468192,
              35.307989282
            ],
            [
              132.68133664,
              35.30800897
            ],
            [
              132.681410743,
              35.308392585
            ]
          ]
        ]
      },
      "properties": {
        "polygon_uuid": "9c1813c5-9ba9-406a-b157-1321b4ac1d7d",
        "daicho_shubetsu_cd": "FUD25"
      }
    },
    {
      "type": "Feature",
      "geometry": {
        "type": "Polygon",
        "coordinates": [
          [
            [
              132.680964642,
              35.310594221
            ],
            [
              132.680908905,
              35.311214779
            ],
            [
              132.680926782,
              35.311241657
            ],
            [
              132.681149622,
              35.311280103
            ],
            [
              132.681331172,
              35.310790008
            ],
            [
              132.681332987,
              35.310589921
            ],
            [
              132.680964642,
              35.310594221
            ]
          ]
        ]
      },
      "properties": {
        "polygon_uuid": "270e45ee-289d-4e7b-8038-13b913d7f4c3",
        "daicho_shubetsu_cd": "FUD25"
      }
    },
    {
      "type": "Feature",
      "geometry": {
        "type": "Polygon",
        "coordinates": [
          [
            [
              132.680889883,
              35.306978696
            ],
            [
              132.680912405,
              35.307007272
            ],
            [
              132.68080533,
              35.30705486
            ],
            [
              132.680865932,
              35.307246614
            ],
            [
              132.680999865,
              35.307251723
            ],
            [
              132.681067437,
              35.306992489
            ],
            [
              132.680889883,
              35.306978696
            ]
          ]
        ]
      },
      "properties": {
        "polygon_uuid": "082f66e0-bc5f-40a6-a8b0-18169fb8b4a5",
        "daicho_shubetsu_cd": "FUD25"
      }
    },
    {
      "type": "Feature",
      "geometry": {
        "type": "Polygon",
        "coordinates": [
          [
            [
              132.677045765,
              35.308399704
            ],
            [
              132.676958771,
              35.308324454
            ],
            [
              132.676723017,
              35.308498929
            ],
            [
              132.676833477,
              35.308629816
            ],
            [
              132.677092586,
              35.308439582
            ],
            [
              132.677045765,
              35.308399704
            ]
          ]
        ]
      },
      "properties": {
        "polygon_uuid": "950e9bc5-87cf-40bd-9e38-181d3cff367e",
        "daicho_shubetsu_cd": "FUD25"
      }
    },
    {
      "type": "Feature",
      "geometry": {
        "type": "Polygon",
        "coordinates": [
          [
            [
              132.677358006,
              35.308161952
            ],
            [
              132.677045765,
              35.308399704
            ],
            [
              132.677092586,
              35.308439582
            ],
            [
              132.677428662,
              35.308725818
            ],
            [
              132.677846937,
              35.30851838
            ],
            [
              132.67779338,
              35.308383798
            ],
            [
              132.677689428,
              35.308282267
            ],
            [
              132.677358006,
              35.308161952
            ]
          ]
        ]
      },
      "properties": {
        "polygon_uuid": "4d33fc08-59ae-4981-a912-1a4f3773ab21",
        "daicho_shubetsu_cd": "FUD25"
      }
    },
    {
      "type": "Feature",
      "geometry": {
        "type": "Polygon",
        "coordinates": [
          [
            [
              132.675109586,
              35.30947764
            ],
            [
              132.675251904,
              35.309477042
            ],
            [
              132.675257272,
              35.309324063
            ],
            [
              132.675114825,
              35.309303922
            ],
            [
              132.675109586,
              35.30947764
            ]
          ]
        ]
      },
      "properties": {
        "polygon_uuid": "a4014aae-6da9-4d25-9039-1d6a1bd773b1",
        "daicho_shubetsu_cd": "FUD25"
      }
    },
    {
      "type": "Feature",
      "geometry": {
        "type": "Polygon",
        "coordinates": [
          [
            [
              132.68099064,
              35.307672938
            ],
            [
              132.681034681,
              35.308013271
            ],
            [
              132.681231463,
              35.307982092
            ],
            [
              132.681220442,
              35.307820915
            ],
            [
              132.68124627,
              35.307688274
            ],
            [
              132.681234066,
              35.307603616
            ],
            [
              132.681186965,
              35.307535501
            ],
            [
              132.68099064,
              35.307672938
            ]
          ]
        ]
      },
      "properties": {
        "polygon_uuid": "855260aa-be05-4af7-b888-2288a0316c08",
        "daicho_shubetsu_cd": "FUD25"
      }
    },
    {
      "type": "Feature",
      "geometry": {
        "type": "Polygon",
        "coordinates": [
          [
            [
              132.675041881,
              35.310036161
            ],
            [
              132.675476309,
              35.310217536
            ],
            [
              132.675535728,
              35.31011013
            ],
            [
              132.675518412,
              35.310038478
            ],
            [
              132.675444827,
              35.309903978
            ],
            [
              132.675134678,
              35.309871581
            ],
            [
              132.675097186,
              35.309945192
            ],
            [
              132.675041881,
              35.310036161
            ]
          ]
        ]
      },
      "properties": {
        "polygon_uuid": "c8ebb52e-6989-434a-8fdb-27479d460572",
        "daicho_shubetsu_cd": "FUD25"
      }
    },
    {
      "type": "Feature",
      "geometry": {
        "type": "Polygon",
        "coordinates": [
          [
            [
              132.681549919,
              35.307734802
            ],
            [
              132.681564227,
              35.307625438
            ],
            [
              132.681518385,
              35.307493102
            ],
            [
              132.681409174,
              35.307355571
            ],
            [
              132.681328539,
              35.307256174
            ],
            [
              132.681323214,
              35.307467973
            ],
            [
              132.681372293,
              35.307585266
            ],
            [
              132.681549919,
              35.307734802
            ]
          ]
        ]
      },
      "properties": {
        "polygon_uuid": "eca857a4-818c-4a18-823b-2b7817d95bf5",
        "daicho_shubetsu_cd": "FUD25"
      }
    },
    {
      "type": "Feature",
      "geometry": {
        "type": "Polygon",
        "coordinates": [
          [
            [
              132.681468192,
              35.307989282
            ],
            [
              132.681539014,
              35.307855083
            ],
            [
              132.681549919,
              35.307734802
            ],
            [
              132.681372293,
              35.307585266
            ],
            [
              132.681323214,
              35.307467973
            ],
            [
              132.681175126,
              35.307508225
            ],
            [
              132.681232002,
              35.307540775
            ],
            [
              132.681269034,
              35.307598002
            ],
            [
              132.681318485,
              35.307774043
            ],
            [
              132.68133664,
              35.30800897
            ],
            [
              132.681468192,
              35.307989282
            ]
          ]
        ]
      },
      "properties": {
        "polygon_uuid": "92c63d87-f794-4048-8a34-2f46d195f044",
        "daicho_shubetsu_cd": "FUD25"
      }
    },
    {
      "type": "Feature",
      "geometry": {
        "type": "Polygon",
        "coordinates": [
          [
            [
              132.68392008,
              35.309474548
            ],
            [
              132.684198485,
              35.309588504
            ],
            [
              132.684256996,
              35.30954273
            ],
            [
              132.683980156,
              35.309418057
            ],
            [
              132.68392008,
              35.309474548
            ]
          ]
        ]
      },
      "properties": {
        "polygon_uuid": "5faecf0a-17f5-4709-8736-3341499a23a1",
        "daicho_shubetsu_cd": "FUD25"
      }
    },
    {
      "type": "Feature",
      "geometry": {
        "type": "Polygon",
        "coordinates": [
          [
            [
              132.682327645,
              35.303836267
            ],
            [
              132.682273705,
              35.303887441
            ],
            [
              132.682208984,
              35.303910283
            ],
            [
              132.682102336,
              35.304058878
            ],
            [
              132.68223075,
              35.304112284
            ],
            [
              132.682255873,
              35.304082203
            ],
            [
              132.682362294,
              35.304010275
            ],
            [
              132.682327645,
              35.303836267
            ]
          ]
        ]
      },
      "properties": {
        "polygon_uuid": "60f98752-5316-4ad4-8256-382b373718fc",
        "daicho_shubetsu_cd": "FUD25"
      }
    },
    {
      "type": "Feature",
      "geometry": {
        "type": "Polygon",
        "coordinates": [
          [
            [
              132.683383906,
              35.310179769
            ],
            [
              132.683545985,
              35.310237989
            ],
            [
              132.683770216,
              35.31005226
            ],
            [
              132.683493834,
              35.309999885
            ],
            [
              132.683383906,
              35.310179769
            ]
          ]
        ]
      },
      "properties": {
        "polygon_uuid": "6e2d631b-11ba-4d05-8392-38737267da92",
        "daicho_shubetsu_cd": "FUD25"
      }
    },
    {
      "type": "Feature",
      "geometry": {
        "type": "Polygon",
        "coordinates": [
          [
            [
              132.675440858,
              35.310685963
            ],
            [
              132.675405265,
              35.310848111
            ],
            [
              132.675390745,
              35.310980785
            ],
            [
              132.676231329,
              35.311119832
            ],
            [
              132.676299242,
              35.31085222
            ],
            [
              132.675440858,
              35.310685963
            ]
          ]
        ]
      },
      "properties": {
        "polygon_uuid": "0a830d42-fd81-4807-b98d-3a72b8e66703",
        "daicho_shubetsu_cd": "FUD25"
      }
    },
    {
      "type": "Feature",
      "geometry": {
        "type": "Polygon",
        "coordinates": [
          [
            [
              132.681029013,
              35.309887442
            ],
            [
              132.68102659,
              35.309963434
            ],
            [
              132.681068231,
              35.3100021
            ],
            [
              132.681052751,
              35.310278105
            ],
            [
              132.681349028,
              35.310227784
            ],
            [
              132.681263465,
              35.30987701
            ],
            [
              132.681029013,
              35.309887442
            ]
          ]
        ]
      },
      "properties": {
        "polygon_uuid": "720a2a90-eec2-4e7d-8870-3c0419ed69f3",
        "daicho_shubetsu_cd": "FUD25"
      }
    },
    {
      "type": "Feature",
      "geometry": {
        "type": "Polygon",
        "coordinates": [
          [
            [
              132.677369679,
              35.307120614
            ],
            [
              132.676904303,
              35.307313816
            ],
            [
              132.677187632,
              35.307748884
            ],
            [
              132.677640302,
              35.30803199
            ],
            [
              132.677745488,
              35.307992929
            ],
            [
              132.677369679,
              35.307120614
            ]
          ]
        ]
      },
      "properties": {
        "polygon_uuid": "faa9020e-ae58-463f-88e4-3ca6ef42cfc6",
        "daicho_shubetsu_cd": "FUD25"
      }
    },
    {
      "type": "Feature",
      "geometry": {
        "type": "Polygon",
        "coordinates": [
          [
            [
              132.685777609,
              35.309103436
            ],
            [
              132.685920429,
              35.309215292
            ],
            [
              132.68595726,
              35.309099987
            ],
            [
              132.685956918,
              35.309046431
            ],
            [
              132.685807023,
              35.308870125
            ],
            [
              132.685648093,
              35.308992201
            ],
            [
              132.685777609,
              35.309103436
            ]
          ]
        ]
      },
      "properties": {
        "polygon_uuid": "408b952a-5dbd-4f61-9ba1-3eb5a5004387",
        "daicho_shubetsu_cd": "FUD25"
      }
    },
    {
      "type": "Feature",
      "geometry": {
        "type": "Polygon",
        "coordinates": [
          [
            [
              132.684105129,
              35.309741463
            ],
            [
              132.684314807,
              35.309835777
            ],
            [
              132.684429054,
              35.309629023
            ],
            [
              132.684312871,
              35.309596047
            ],
            [
              132.684224849,
              35.309624542
            ],
            [
              132.684105129,
              35.309741463
            ]
          ]
        ]
      },
      "properties": {
        "polygon_uuid": "e89197fe-adda-4a8f-a231-3f0bc35b7169",
        "daicho_shubetsu_cd": "FUD25"
      }
    },
    {
      "type": "Feature",
      "geometry": {
        "type": "Polygon",
        "coordinates": [
          [
            [
              132.678363045,
              35.308693715
            ],
            [
              132.678664079,
              35.308585112
            ],
            [
              132.678576044,
              35.308165504
            ],
            [
              132.678283194,
              35.307765427
            ],
            [
              132.678150825,
              35.307537331
            ],
            [
              132.677692543,
              35.307081955
            ],
            [
              132.677635971,
              35.307138191
            ],
            [
              132.678363045,
              35.308693715
            ]
          ]
        ]
      },
      "properties": {
        "polygon_uuid": "36742a13-3bba-4117-b779-3f337c0173e3",
        "daicho_shubetsu_cd": "FUD25"
      }
    },
    {
      "type": "Feature",
      "geometry": {
        "type": "Polygon",
        "coordinates": [
          [
            [
              132.675390745,
              35.310980785
            ],
            [
              132.675383227,
              35.311116025
            ],
            [
              132.6754268,
              35.311255835
            ],
            [
              132.676160556,
              35.311381074
            ],
            [
              132.676231329,
              35.311119832
            ],
            [
              132.675390745,
              35.310980785
            ]
          ]
        ]
      },
      "properties": {
        "polygon_uuid": "3bd5ad56-d22f-403b-93e5-412c1a2cc260",
        "daicho_shubetsu_cd": "FUD25"
      }
    },
    {
      "type": "Feature",
      "geometry": {
        "type": "Polygon",
        "coordinates": [
          [
            [
              132.677932165,
              35.308659743
            ],
            [
              132.677129127,
              35.309039908
            ],
            [
              132.677222678,
              35.309163952
            ],
            [
              132.677994308,
              35.308818485
            ],
            [
              132.677932165,
              35.308659743
            ]
          ]
        ]
      },
      "properties": {
        "polygon_uuid": "c46f4b64-8108-45cf-b085-4458b1b3cbd7",
        "daicho_shubetsu_cd": "FUD25"
      }
    },
    {
      "type": "Feature",
      "geometry": {
        "type": "Polygon",
        "coordinates": [
          [
            [
              132.683893331,
              35.310682583
            ],
            [
              132.684099819,
              35.310731686
            ],
            [
              132.684286352,
              35.310383365
            ],
            [
              132.684065255,
              35.310320044
            ],
            [
              132.683893331,
              35.310682583
            ]
          ]
        ]
      },
      "properties": {
        "polygon_uuid": "f3440f9d-c7f1-4934-86b9-486ed8a59c8d",
        "daicho_shubetsu_cd": "FUD25"
      }
    },
    {
      "type": "Feature",
      "geometry": {
        "type": "Polygon",
        "coordinates": [
          [
            [
              132.674466955,
              35.310315108
            ],
            [
              132.674584799,
              35.310347355
            ],
            [
              132.674695265,
              35.310410071
            ],
            [
              132.674927349,
              35.310265645
            ],
            [
              132.675036231,
              35.310213241
            ],
            [
              132.67513988,
              35.310197347
            ],
            [
              132.675145729,
              35.310121276
            ],
            [
              132.675000534,
              35.310068212
            ],
            [
              132.674832655,
              35.310027439
            ],
            [
              132.674566199,
              35.310001001
            ],
            [
              132.674466955,
              35.310315108
            ]
          ]
        ]
      },
      "properties": {
        "polygon_uuid": "6ac76e69-00a0-4da6-9c42-5345f726eb2c",
        "daicho_shubetsu_cd": "FUD25"
      }
    },
    {
      "type": "Feature",
      "geometry": {
        "type": "Polygon",
        "coordinates": [
          [
            [
              132.684435084,
              35.309550001
            ],
            [
              132.6847837,
              35.309595741
            ],
            [
              132.684856187,
              35.309578768
            ],
            [
              132.68488784,
              35.309533407
            ],
            [
              132.684899,
              35.30946195
            ],
            [
              132.684623082,
              35.309453611
            ],
            [
              132.684478695,
              35.309401507
            ],
            [
              132.684435084,
              35.309550001
            ]
          ]
        ]
      },
      "properties": {
        "polygon_uuid": "6354ed54-e321-4cdf-a488-55b92d3f71f2",
        "daicho_shubetsu_cd": "FUD25"
      }
    },
    {
      "type": "Feature",
      "geometry": {
        "type": "Polygon",
        "coordinates": [
          [
            [
              132.681853569,
              35.309621733
            ],
            [
              132.681953278,
              35.309837183
            ],
            [
              132.682162555,
              35.309720156
            ],
            [
              132.682041378,
              35.309536222
            ],
            [
              132.681853569,
              35.309621733
            ]
          ]
        ]
      },
      "properties": {
        "polygon_uuid": "cf1df4c5-241f-43fa-aace-5c4c10f2e39f",
        "daicho_shubetsu_cd": "FUD25"
      }
    },
    {
      "type": "Feature",
      "geometry": {
        "type": "Polygon",
        "coordinates": [
          [
            [
              132.681563589,
              35.304908262
            ],
            [
              132.681695894,
              35.304926144
            ],
            [
              132.68196884,
              35.304945732
            ],
            [
              132.681874829,
              35.304757071
            ],
            [
              132.681604871,
              35.304765138
            ],
            [
              132.681563589,
              35.304908262
            ]
          ]
        ]
      },
      "properties": {
        "polygon_uuid": "23f71be2-5d9d-4352-aa34-61c1e452cd20",
        "daicho_shubetsu_cd": "FUD25"
      }
    },
    {
      "type": "Feature",
      "geometry": {
        "type": "Polygon",
        "coordinates": [
          [
            [
              132.677222678,
              35.309163952
            ],
            [
              132.677412021,
              35.30943277
            ],
            [
              132.678128943,
              35.309104816
            ],
            [
              132.677994308,
              35.308818485
            ],
            [
              132.677222678,
              35.309163952
            ]
          ]
        ]
      },
      "properties": {
        "polygon_uuid": "da241de1-9f78-407e-bc82-6b69fd225bca",
        "daicho_shubetsu_cd": "FUD25"
      }
    },
    {
      "type": "Feature",
      "geometry": {
        "type": "Polygon",
        "coordinates": [
          [
            [
              132.681040368,
              35.306314271
            ],
            [
              132.681053369,
              35.306265482
            ],
            [
              132.681052996,
              35.306206566
            ],
            [
              132.681025094,
              35.30614413
            ],
            [
              132.680982424,
              35.306131946
            ],
            [
              132.680929375,
              35.306161994
            ],
            [
              132.680885291,
              35.306206551
            ],
            [
              132.68086093,
              35.30628303
            ],
            [
              132.680944558,
              35.306317588
            ],
            [
              132.681024461,
              35.306324522
            ],
            [
              132.681040368,
              35.306314271
            ]
          ]
        ]
      },
      "properties": {
        "polygon_uuid": "ba65928e-83b0-4ba6-bac8-6fc76126b82d",
        "daicho_shubetsu_cd": "FUD25"
      }
    },
    {
      "type": "Feature",
      "geometry": {
        "type": "Polygon",
        "coordinates": [
          [
            [
              132.675431551,
              35.309346798
            ],
            [
              132.675380451,
              35.30937985
            ],
            [
              132.675343601,
              35.309418707
            ],
            [
              132.675319013,
              35.309532879
            ],
            [
              132.675426835,
              35.30957909
            ],
            [
              132.675525623,
              35.309697928
            ],
            [
              132.675670746,
              35.309640283
            ],
            [
              132.675639699,
              35.309364933
            ],
            [
              132.675431551,
              35.309346798
            ]
          ]
        ]
      },
      "properties": {
        "polygon_uuid": "f69976f7-d7f1-42af-93ee-76313175393e",
        "daicho_shubetsu_cd": "FUD25"
      }
    },
    {
      "type": "Feature",
      "geometry": {
        "type": "Polygon",
        "coordinates": [
          [
            [
              132.676618388,
              35.306792796
            ],
            [
              132.676781973,
              35.307123094
            ],
            [
              132.676904303,
              35.307313816
            ],
            [
              132.677369679,
              35.307120614
            ],
            [
              132.677159912,
              35.306580885
            ],
            [
              132.676618388,
              35.306792796
            ]
          ]
        ]
      },
      "properties": {
        "polygon_uuid": "d32566f2-964f-4c9a-87ea-7ecb5ad18ef5",
        "daicho_shubetsu_cd": "FUD25"
      }
    },
    {
      "type": "Feature",
      "geometry": {
        "type": "Polygon",
        "coordinates": [
          [
            [
              132.676444986,
              35.30785252
            ],
            [
              132.67668071,
              35.308083925
            ],
            [
              132.676967787,
              35.307868056
            ],
            [
              132.67675325,
              35.307605261
            ],
            [
              132.676444986,
              35.30785252
            ]
          ]
        ]
      },
      "properties": {
        "polygon_uuid": "cc425eb9-689e-4d1f-bd58-800b0329710b",
        "daicho_shubetsu_cd": "FUD25"
      }
    },
    {
      "type": "Feature",
      "geometry": {
        "type": "Polygon",
        "coordinates": [
          [
            [
              132.68547353,
              35.311213759
            ],
            [
              132.685668436,
              35.311267669
            ],
            [
              132.685722772,
              35.31113652
            ],
            [
              132.685516144,
              35.311065998
            ],
            [
              132.68547353,
              35.311213759
            ]
          ]
        ]
      },
      "properties": {
        "polygon_uuid": "ca5163f9-d3ac-4146-afd9-817659c68da9",
        "daicho_shubetsu_cd": "FUD25"
      }
    },
    {
      "type": "Feature",
      "geometry": {
        "type": "Polygon",
        "coordinates": [
          [
            [
              132.678203629,
              35.309246223
            ],
            [
              132.678128943,
              35.309104816
            ],
            [
              132.677412021,
              35.30943277
            ],
            [
              132.677499292,
              35.309563754
            ],
            [
              132.677569554,
              35.309672341
            ],
            [
              132.677652543,
              35.309792973
            ],
            [
              132.67829789,
              35.309482603
            ],
            [
              132.67825709,
              35.309365251
            ],
            [
              132.678203629,
              35.309246223
            ]
          ]
        ]
      },
      "properties": {
        "polygon_uuid": "61960aca-f651-4a03-af05-820d1b394fbe",
        "daicho_shubetsu_cd": "FUD25"
      }
    },
    {
      "type": "Feature",
      "geometry": {
        "type": "Polygon",
        "coordinates": [
          [
            [
              132.681034681,
              35.308013271
            ],
            [
              132.681038041,
              35.308039244
            ],
            [
              132.681003777,
              35.308092544
            ],
            [
              132.681015088,
              35.308383013
            ],
            [
              132.681314025,
              35.308375787
            ],
            [
              132.68129235,
              35.308315871
            ],
            [
              132.681253313,
              35.308036725
            ],
            [
              132.681231463,
              35.307982092
            ],
            [
              132.681034681,
              35.308013271
            ]
          ]
        ]
      },
      "properties": {
        "polygon_uuid": "ede5b35d-2365-4e00-86a9-8359ee7ea4d5",
        "daicho_shubetsu_cd": "FUD25"
      }
    },
    {
      "type": "Feature",
      "geometry": {
        "type": "Polygon",
        "coordinates": [
          [
            [
              132.675431551,
              35.309346798
            ],
            [
              132.675639699,
              35.309364933
            ],
            [
              132.675670385,
              35.308990335
            ],
            [
              132.675667965,
              35.308691447
            ],
            [
              132.675500235,
              35.308674006
            ],
            [
              132.6754708,
              35.309024115
            ],
            [
              132.675499558,
              35.309095905
            ],
            [
              132.675506595,
              35.309184698
            ],
            [
              132.675480944,
              35.309265935
            ],
            [
              132.675431551,
              35.309346798
            ]
          ]
        ]
      },
      "properties": {
        "polygon_uuid": "fe7bbccd-727e-43e5-9d2c-84922c214971",
        "daicho_shubetsu_cd": "FUD25"
      }
    },
    {
      "type": "Feature",
      "geometry": {
        "type": "Polygon",
        "coordinates": [
          [
            [
              132.676135714,
              35.30755517
            ],
            [
              132.676444986,
              35.30785252
            ],
            [
              132.67675325,
              35.307605261
            ],
            [
              132.676602342,
              35.307412325
            ],
            [
              132.676508642,
              35.307110284
            ],
            [
              132.676338334,
              35.307185666
            ],
            [
              132.676281742,
              35.307392937
            ],
            [
              132.676135714,
              35.30755517
            ]
          ]
        ]
      },
      "properties": {
        "polygon_uuid": "98ab53d5-799c-4548-8378-84c7c4ffd219",
        "daicho_shubetsu_cd": "FUD25"
      }
    },
    {
      "type": "Feature",
      "geometry": {
        "type": "Polygon",
        "coordinates": [
          [
            [
              132.681122526,
              35.306834864
            ],
            [
              132.681369278,
              35.306846111
            ],
            [
              132.681365477,
              35.306772347
            ],
            [
              132.681318074,
              35.306656414
            ],
            [
              132.68125321,
              35.306528134
            ],
            [
              132.681218642,
              35.306399166
            ],
            [
              132.681147058,
              35.306198882
            ],
            [
              132.681103633,
              35.30622011
            ],
            [
              132.681094204,
              35.306310327
            ],
            [
              132.681018314,
              35.306433617
            ],
            [
              132.680977173,
              35.306517136
            ],
            [
              132.680990827,
              35.30656763
            ],
            [
              132.681075097,
              35.306714832
            ],
            [
              132.681122526,
              35.306834864
            ]
          ]
        ]
      },
      "properties": {
        "polygon_uuid": "b686c57d-856e-40c4-8803-8553723e9c3d",
        "daicho_shubetsu_cd": "FUD25"
      }
    },
    {
      "type": "Feature",
      "geometry": {
        "type": "Polygon",
        "coordinates": [
          [
            [
              132.683248005,
              35.310385203
            ],
            [
              132.683356148,
              35.310438298
            ],
            [
              132.683430765,
              35.310356305
            ],
            [
              132.68330462,
              35.310297932
            ],
            [
              132.683248005,
              35.310385203
            ]
          ]
        ]
      },
      "properties": {
        "polygon_uuid": "402c6890-e67b-49b6-868d-8e9d90c29e3e",
        "daicho_shubetsu_cd": "FUD25"
      }
    },
    {
      "type": "Feature",
      "geometry": {
        "type": "Polygon",
        "coordinates": [
          [
            [
              132.680742743,
              35.306620148
            ],
            [
              132.680741084,
              35.30678836
            ],
            [
              132.680775803,
              35.306969835
            ],
            [
              132.680889883,
              35.306978696
            ],
            [
              132.681067437,
              35.306992489
            ],
            [
              132.681100454,
              35.306881787
            ],
            [
              132.681096537,
              35.306823614
            ],
            [
              132.681053366,
              35.306732147
            ],
            [
              132.680969578,
              35.30659851
            ],
            [
              132.680742743,
              35.306620148
            ]
          ]
        ]
      },
      "properties": {
        "polygon_uuid": "70c01ea4-528e-4b23-85c1-8f32d624c1bf",
        "daicho_shubetsu_cd": "FUD25"
      }
    },
    {
      "type": "Feature",
      "geometry": {
        "type": "Polygon",
        "coordinates": [
          [
            [
              132.681340984,
              35.306619987
            ],
            [
              132.68148466,
              35.306656264
            ],
            [
              132.681532108,
              35.306598422
            ],
            [
              132.681594825,
              35.306286895
            ],
            [
              132.681649397,
              35.306021516
            ],
            [
              132.681676236,
              35.305818506
            ],
            [
              132.681313139,
              35.305776244
            ],
            [
              132.681212311,
              35.305843537
            ],
            [
              132.681153627,
              35.305903733
            ],
            [
              132.68109034,
              35.306125342
            ],
            [
              132.681155291,
              35.306166567
            ],
            [
              132.681218102,
              35.30631386
            ],
            [
              132.68128119,
              35.306504959
            ],
            [
              132.681340984,
              35.306619987
            ]
          ]
        ]
      },
      "properties": {
        "polygon_uuid": "027d8a89-8365-464c-833e-99b33fb7cc12",
        "daicho_shubetsu_cd": "FUD25"
      }
    },
    {
      "type": "Feature",
      "geometry": {
        "type": "Polygon",
        "coordinates": [
          [
            [
              132.683383906,
              35.310179769
            ],
            [
              132.683322357,
              35.310261706
            ],
            [
              132.683468094,
              35.310318656
            ],
            [
              132.683545985,
              35.310237989
            ],
            [
              132.683383906,
              35.310179769
            ]
          ]
        ]
      },
      "properties": {
        "polygon_uuid": "797edc69-73a7-47dd-9ecd-9d69de82a53b",
        "daicho_shubetsu_cd": "FUD25"
      }
    },
    {
      "type": "Feature",
      "geometry": {
        "type": "Polygon",
        "coordinates": [
          [
            [
              132.681378857,
              35.310200332
            ],
            [
              132.681714604,
              35.310049976
            ],
            [
              132.681618281,
              35.309842709
            ],
            [
              132.681594588,
              35.309523096
            ],
            [
              132.681347247,
              35.30942031
            ],
            [
              132.681251301,
              35.309535488
            ],
            [
              132.681231664,
              35.309592956
            ],
            [
              132.68129681,
              35.309878235
            ],
            [
              132.681378857,
              35.310200332
            ]
          ]
        ]
      },
      "properties": {
        "polygon_uuid": "e9cc8acf-9bff-4113-a00e-9eb59d59894e",
        "daicho_shubetsu_cd": "FUD25"
      }
    },
    {
      "type": "Feature",
      "geometry": {
        "type": "Polygon",
        "coordinates": [
          [
            [
              132.681389096,
              35.30489056
            ],
            [
              132.681304788,
              35.305038148
            ],
            [
              132.681267642,
              35.30520465
            ],
            [
              132.681757106,
              35.305264811
            ],
            [
              132.681835593,
              35.305222975
            ],
            [
              132.681930752,
              35.305148789
            ],
            [
              132.681972325,
              35.305051776
            ],
            [
              132.68196884,
              35.304945732
            ],
            [
              132.681695894,
              35.304926144
            ],
            [
              132.681563589,
              35.304908262
            ],
            [
              132.681389096,
              35.30489056
            ]
          ]
        ]
      },
      "properties": {
        "polygon_uuid": "f5d500a7-a85a-4c5b-8463-9fc6eb8e4eab",
        "daicho_shubetsu_cd": "FUD25"
      }
    },
    {
      "type": "Feature",
      "geometry": {
        "type": "Polygon",
        "coordinates": [
          [
            [
              132.683879774,
              35.309557734
            ],
            [
              132.684086072,
              35.309634508
            ],
            [
              132.684162756,
              35.30962079
            ],
            [
              132.684183784,
              35.309588567
            ],
            [
              132.683913615,
              35.309485287
            ],
            [
              132.683879774,
              35.309557734
            ]
          ]
        ]
      },
      "properties": {
        "polygon_uuid": "9759364e-4bfe-4e60-987d-9fe6382f4c11",
        "daicho_shubetsu_cd": "FUD25"
      }
    },
    {
      "type": "Feature",
      "geometry": {
        "type": "Polygon",
        "coordinates": [
          [
            [
              132.675440858,
              35.310685963
            ],
            [
              132.676299242,
              35.31085222
            ],
            [
              132.676332892,
              35.310708131
            ],
            [
              132.675655795,
              35.310197965
            ],
            [
              132.675540472,
              35.310431481
            ],
            [
              132.675485703,
              35.310561628
            ],
            [
              132.675440858,
              35.310685963
            ]
          ]
        ]
      },
      "properties": {
        "polygon_uuid": "99abe3b0-78a9-470d-a631-a54e768efe1a",
        "daicho_shubetsu_cd": "FUD25"
      }
    },
    {
      "type": "Feature",
      "geometry": {
        "type": "Polygon",
        "coordinates": [
          [
            [
              132.681357187,
              35.309410704
            ],
            [
              132.68160115,
              35.309506673
            ],
            [
              132.681597219,
              35.309412415
            ],
            [
              132.681556663,
              35.309325145
            ],
            [
              132.681575902,
              35.309204828
            ],
            [
              132.681583292,
              35.309055871
            ],
            [
              132.681283284,
              35.309058514
            ],
            [
              132.681327597,
              35.309212717
            ],
            [
              132.681390012,
              35.309329952
            ],
            [
              132.681357187,
              35.309410704
            ]
          ]
        ]
      },
      "properties": {
        "polygon_uuid": "159cee3a-8d6d-4ef9-82bf-ab320ea3d3eb",
        "daicho_shubetsu_cd": "FUD25"
      }
    },
    {
      "type": "Feature",
      "geometry": {
        "type": "Polygon",
        "coordinates": [
          [
            [
              132.684229072,
              35.309241592
            ],
            [
              132.68450198,
              35.309364563
            ],
            [
              132.684486049,
              35.309278315
            ],
            [
              132.684476095,
              35.309201741
            ],
            [
              132.684487402,
              35.309119257
            ],
            [
              132.684545983,
              35.309028811
            ],
            [
              132.684595352,
              35.308978168
            ],
            [
              132.684408024,
              35.308916901
            ],
            [
              132.684373937,
              35.308951961
            ],
            [
              132.68431193,
              35.309061818
            ],
            [
              132.684229072,
              35.309241592
            ]
          ]
        ]
      },
      "properties": {
        "polygon_uuid": "7790adf5-c629-4716-85ee-ae383bccd946",
        "daicho_shubetsu_cd": "FUD25"
      }
    },
    {
      "type": "Feature",
      "geometry": {
        "type": "Polygon",
        "coordinates": [
          [
            [
              132.681338825,
              35.308616963
            ],
            [
              132.681503921,
              35.308629924
            ],
            [
              132.681474218,
              35.308414175
            ],
            [
              132.681377624,
              35.308426883
            ],
            [
              132.681371701,
              35.308544409
            ],
            [
              132.681338825,
              35.308616963
            ]
          ]
        ]
      },
      "properties": {
        "polygon_uuid": "4aaeedf6-c040-492d-82ad-b57bd6934505",
        "daicho_shubetsu_cd": "FUD25"
      }
    },
    {
      "type": "Feature",
      "geometry": {
        "type": "Polygon",
        "coordinates": [
          [
            [
              132.681287306,
              35.308712937
            ],
            [
              132.681292763,
              35.308645689
            ],
            [
              132.681344159,
              35.308531475
            ],
            [
              132.681344159,
              35.308425826
            ],
            [
              132.681314025,
              35.308375787
            ],
            [
              132.681015088,
              35.308383013
            ],
            [
              132.681012342,
              35.308801393
            ],
            [
              132.681113414,
              35.308768878
            ],
            [
              132.681287306,
              35.308712937
            ]
          ]
        ]
      },
      "properties": {
        "polygon_uuid": "6629bbc0-9a23-4b8f-9b9d-bc3a81962b10",
        "daicho_shubetsu_cd": "FUD25"
      }
    },
    {
      "type": "Feature",
      "geometry": {
        "type": "Polygon",
        "coordinates": [
          [
            [
              132.684330506,
              35.309543755
            ],
            [
              132.684435084,
              35.309550001
            ],
            [
              132.684478695,
              35.309401507
            ],
            [
              132.684487842,
              35.309370362
            ],
            [
              132.68425199,
              35.309269613
            ],
            [
              132.684187192,
              35.309354242
            ],
            [
              132.684255107,
              35.309502571
            ],
            [
              132.684330506,
              35.309543755
            ]
          ]
        ]
      },
      "properties": {
        "polygon_uuid": "a53d6eae-7a0a-40ab-ba9b-be2d1f7044aa",
        "daicho_shubetsu_cd": "FUD25"
      }
    },
    {
      "type": "Feature",
      "geometry": {
        "type": "Polygon",
        "coordinates": [
          [
            [
              132.676292145,
              35.311182195
            ],
            [
              132.677011695,
              35.311311377
            ],
            [
              132.677028055,
              35.311272421
            ],
            [
              132.676405703,
              35.310755902
            ],
            [
              132.676292145,
              35.311182195
            ]
          ]
        ]
      },
      "properties": {
        "polygon_uuid": "c677f2ed-3683-4a4a-aa01-c4b619c4ae34",
        "daicho_shubetsu_cd": "FUD25"
      }
    },
    {
      "type": "Feature",
      "geometry": {
        "type": "Polygon",
        "coordinates": [
          [
            [
              132.680849568,
              35.306301594
            ],
            [
              132.680742743,
              35.306620148
            ],
            [
              132.680969578,
              35.30659851
            ],
            [
              132.680944755,
              35.306520854
            ],
            [
              132.681022514,
              35.306363741
            ],
            [
              132.680849568,
              35.306301594
            ]
          ]
        ]
      },
      "properties": {
        "polygon_uuid": "19273c4f-1043-4eb8-bcb7-c61284284d84",
        "daicho_shubetsu_cd": "FUD25"
      }
    },
    {
      "type": "Feature",
      "geometry": {
        "type": "Polygon",
        "coordinates": [
          [
            [
              132.685020092,
              35.309115382
            ],
            [
              132.684937813,
              35.309075889
            ],
            [
              132.684776546,
              35.309079179
            ],
            [
              132.684545983,
              35.309028811
            ],
            [
              132.684487402,
              35.309119257
            ],
            [
              132.684476095,
              35.309201741
            ],
            [
              132.684486049,
              35.309278315
            ],
            [
              132.68450198,
              35.309364563
            ],
            [
              132.68462186,
              35.309411587
            ],
            [
              132.684898318,
              35.309434625
            ],
            [
              132.684960851,
              35.309181205
            ],
            [
              132.685020092,
              35.309115382
            ]
          ]
        ]
      },
      "properties": {
        "polygon_uuid": "f42c640f-a2bd-4d39-ab17-c9b8cb2718e7",
        "daicho_shubetsu_cd": "FUD25"
      }
    },
    {
      "type": "Feature",
      "geometry": {
        "type": "Polygon",
        "coordinates": [
          [
            [
              132.681668773,
              35.304595119
            ],
            [
              132.681526078,
              35.304688368
            ],
            [
              132.68148409,
              35.304755756
            ],
            [
              132.681604871,
              35.304765138
            ],
            [
              132.681874829,
              35.304757071
            ],
            [
              132.68174903,
              35.304624551
            ],
            [
              132.681668773,
              35.304595119
            ]
          ]
        ]
      },
      "properties": {
        "polygon_uuid": "d09ba8e5-dc83-4cdf-93de-cd181ef35a14",
        "daicho_shubetsu_cd": "FUD25"
      }
    },
    {
      "type": "Feature",
      "geometry": {
        "type": "Polygon",
        "coordinates": [
          [
            [
              132.682549555,
              35.31059438
            ],
            [
              132.682667462,
              35.310641483
            ],
            [
              132.682733758,
              35.310563841
            ],
            [
              132.682629153,
              35.310553576
            ],
            [
              132.682582564,
              35.310533542
            ],
            [
              132.682549555,
              35.31059438
            ]
          ]
        ]
      },
      "properties": {
        "polygon_uuid": "6080c88f-47fa-4da4-8004-ce41e93b6bbc",
        "daicho_shubetsu_cd": "FUD25"
      }
    },
    {
      "type": "Feature",
      "geometry": {
        "type": "Polygon",
        "coordinates": [
          [
            [
              132.681113414,
              35.308768878
            ],
            [
              132.681139614,
              35.308824267
            ],
            [
              132.681059308,
              35.308937291
            ],
            [
              132.681038473,
              35.309590731
            ],
            [
              132.681200003,
              35.309594457
            ],
            [
              132.68121278,
              35.309555557
            ],
            [
              132.681280095,
              35.309465803
            ],
            [
              132.681355285,
              35.309358559
            ],
            [
              132.68135103,
              35.309317116
            ],
            [
              132.681307864,
              35.309226742
            ],
            [
              132.681245663,
              35.309073166
            ],
            [
              132.681235752,
              35.308979377
            ],
            [
              132.681304149,
              35.30885034
            ],
            [
              132.681319721,
              35.308786992
            ],
            [
              132.681287306,
              35.308712937
            ],
            [
              132.681113414,
              35.308768878
            ]
          ]
        ]
      },
      "properties": {
        "polygon_uuid": "c7e9a54a-a4bd-41c3-aba2-d04918a502d8",
        "daicho_shubetsu_cd": "FUD25"
      }
    },
    {
      "type": "Feature",
      "geometry": {
        "type": "Polygon",
        "coordinates": [
          [
            [
              132.681705586,
              35.309942077
            ],
            [
              132.681880615,
              35.309944063
            ],
            [
              132.681953278,
              35.309837183
            ],
            [
              132.681853569,
              35.309621733
            ],
            [
              132.681633928,
              35.309681419
            ],
            [
              132.681646513,
              35.309826193
            ],
            [
              132.681705586,
              35.309942077
            ]
          ]
        ]
      },
      "properties": {
        "polygon_uuid": "a54164e0-45e6-4902-9a6d-d99c2b812b73",
        "daicho_shubetsu_cd": "FUD25"
      }
    },
    {
      "type": "Feature",
      "geometry": {
        "type": "Polygon",
        "coordinates": [
          [
            [
              132.683329405,
              35.311049177
            ],
            [
              132.683307641,
              35.311100502
            ],
            [
              132.683250534,
              35.311099312
            ],
            [
              132.68326481,
              35.311020789
            ],
            [
              132.683336837,
              35.311034196
            ],
            [
              132.683374919,
              35.310957427
            ],
            [
              132.683285046,
              35.310923212
            ],
            [
              132.683135667,
              35.311178541
            ],
            [
              132.683301563,
              35.31123734
            ],
            [
              132.683332809,
              35.311127712
            ],
            [
              132.683329405,
              35.311049177
            ]
          ]
        ]
      },
      "properties": {
        "polygon_uuid": "d95b709d-41b8-4d39-8440-da4d9b9bc79e",
        "daicho_shubetsu_cd": "FUD25"
      }
    },
    {
      "type": "Feature",
      "geometry": {
        "type": "Polygon",
        "coordinates": [
          [
            [
              132.68100935,
              35.310300859
            ],
            [
              132.681006167,
              35.310489493
            ],
            [
              132.68096979,
              35.31049369
            ],
            [
              132.680964642,
              35.310594221
            ],
            [
              132.681332987,
              35.310589921
            ],
            [
              132.681327576,
              35.310262033
            ],
            [
              132.68100935,
              35.310300859
            ]
          ]
        ]
      },
      "properties": {
        "polygon_uuid": "df953713-b9e0-4b9e-a33a-dc39403646de",
        "daicho_shubetsu_cd": "FUD25"
      }
    },
    {
      "type": "Feature",
      "geometry": {
        "type": "Polygon",
        "coordinates": [
          [
            [
              132.674050289,
              35.309912995
            ],
            [
              132.673951625,
              35.310217937
            ],
            [
              132.674080719,
              35.310238732
            ],
            [
              132.674192019,
              35.310251843
            ],
            [
              132.674354229,
              35.310270559
            ],
            [
              132.674462167,
              35.310313748
            ],
            [
              132.674566655,
              35.309994233
            ],
            [
              132.674519251,
              35.309981824
            ],
            [
              132.674328748,
              35.309979714
            ],
            [
              132.674241209,
              35.309982022
            ],
            [
              132.67417007,
              35.309958074
            ],
            [
              132.674050289,
              35.309912995
            ]
          ]
        ]
      },
      "properties": {
        "polygon_uuid": "ef1f66b4-a5ae-47d2-b5f7-dfd650e2796a",
        "daicho_shubetsu_cd": "FUD25"
      }
    },
    {
      "type": "Feature",
      "geometry": {
        "type": "Polygon",
        "coordinates": [
          [
            [
              132.681044495,
              35.307146712
            ],
            [
              132.681322959,
              35.307164656
            ],
            [
              132.681369278,
              35.306846111
            ],
            [
              132.681122526,
              35.306834864
            ],
            [
              132.681044495,
              35.307146712
            ]
          ]
        ]
      },
      "properties": {
        "polygon_uuid": "f3418195-483e-430d-814b-e35f7f468567",
        "daicho_shubetsu_cd": "FUD25"
      }
    },
    {
      "type": "Feature",
      "geometry": {
        "type": "Polygon",
        "coordinates": [
          [
            [
              132.676103384,
              35.310145666
            ],
            [
              132.676256393,
              35.310020114
            ],
            [
              132.676174071,
              35.309961938
            ],
            [
              132.676036538,
              35.309832343
            ],
            [
              132.675857373,
              35.30998614
            ],
            [
              132.67604773,
              35.310143184
            ],
            [
              132.676064718,
              35.310121871
            ],
            [
              132.676103384,
              35.310145666
            ]
          ]
        ]
      },
      "properties": {
        "polygon_uuid": "647bb2fc-5798-49f6-b57f-e3d0245cafa9",
        "daicho_shubetsu_cd": "FUD25"
      }
    },
    {
      "type": "Feature",
      "geometry": {
        "type": "Polygon",
        "coordinates": [
          [
            [
              132.68362857,
              35.310602785
            ],
            [
              132.683808939,
              35.31065438
            ],
            [
              132.683880549,
              35.310499355
            ],
            [
              132.683703144,
              35.310457269
            ],
            [
              132.68362857,
              35.310602785
            ]
          ]
        ]
      },
      "properties": {
        "polygon_uuid": "4e6db7db-68d5-4420-b38d-e859c87b0a51",
        "daicho_shubetsu_cd": "FUD25"
      }
    },
    {
      "type": "Feature",
      "geometry": {
        "type": "Polygon",
        "coordinates": [
          [
            [
              132.677428662,
              35.308725818
            ],
            [
              132.677044042,
              35.308921014
            ],
            [
              132.677129127,
              35.309039908
            ],
            [
              132.677932165,
              35.308659743
            ],
            [
              132.677846937,
              35.30851838
            ],
            [
              132.677428662,
              35.308725818
            ]
          ]
        ]
      },
      "properties": {
        "polygon_uuid": "b9ae4bb2-04bd-4ce4-a7b0-e866588675af",
        "daicho_shubetsu_cd": "FUD25"
      }
    },
    {
      "type": "Feature",
      "geometry": {
        "type": "Polygon",
        "coordinates": [
          [
            [
              132.684297058,
              35.310190592
            ],
            [
              132.684380468,
              35.310072116
            ],
            [
              132.684518066,
              35.310126173
            ],
            [
              132.68456557,
              35.310047545
            ],
            [
              132.684539361,
              35.310027888
            ],
            [
              132.684593417,
              35.309952537
            ],
            [
              132.684501685,
              35.309905033
            ],
            [
              132.684551255,
              35.30983737
            ],
            [
              132.684379212,
              35.309753755
            ],
            [
              132.684266011,
              35.309932315
            ],
            [
              132.684159522,
              35.310138964
            ],
            [
              132.684297058,
              35.310190592
            ]
          ]
        ]
      },
      "properties": {
        "polygon_uuid": "163cf1f0-4d7e-4ce0-8219-e95a6f89ce3c",
        "daicho_shubetsu_cd": "FUD25"
      }
    },
    {
      "type": "Feature",
      "geometry": {
        "type": "Polygon",
        "coordinates": [
          [
            [
              132.678836683,
              35.308966635
            ],
            [
              132.67853818,
              35.309044025
            ],
            [
              132.678607942,
              35.309187715
            ],
            [
              132.678878368,
              35.309106072
            ],
            [
              132.678836683,
              35.308966635
            ]
          ]
        ]
      },
      "properties": {
        "polygon_uuid": "e1d5f423-11eb-4e99-9a2f-eecdf7a729e5",
        "daicho_shubetsu_cd": "FUD25"
      }
    },
    {
      "type": "Feature",
      "geometry": {
        "type": "Polygon",
        "coordinates": [
          [
            [
              132.680865932,
              35.307246614
            ],
            [
              132.680964754,
              35.307559306
            ],
            [
              132.681078968,
              35.307559306
            ],
            [
              132.681090751,
              35.307590714
            ],
            [
              132.681175557,
              35.307531743
            ],
            [
              132.681048839,
              35.307418811
            ],
            [
              132.681021833,
              35.307357826
            ],
            [
              132.680999865,
              35.307251723
            ],
            [
              132.680865932,
              35.307246614
            ]
          ]
        ]
      },
      "properties": {
        "polygon_uuid": "7a744413-5051-47c9-8eb4-f0a8aadb2022",
        "daicho_shubetsu_cd": "FUD25"
      }
    },
    {
      "type": "Feature",
      "geometry": {
        "type": "Polygon",
        "coordinates": [
          [
            [
              132.685129564,
              35.309338156
            ],
            [
              132.685163883,
              35.309340687
            ],
            [
              132.685239094,
              35.309352414
            ],
            [
              132.685248091,
              35.309226518
            ],
            [
              132.68526275,
              35.308964028
            ],
            [
              132.685144105,
              35.309056922
            ],
            [
              132.685129564,
              35.309338156
            ]
          ]
        ]
      },
      "properties": {
        "polygon_uuid": "dd8dcf42-dbbe-4a21-b2b8-f7bb5ad9fb4f",
        "daicho_shubetsu_cd": "FUD25"
      }
    },
    {
      "type": "Feature",
      "geometry": {
        "type": "Polygon",
        "coordinates": [
          [
            [
              132.67341942,
              35.31003865
            ],
            [
              132.673538773,
              35.310074444
            ],
            [
              132.673733163,
              35.31014017
            ],
            [
              132.673828426,
              35.310201126
            ],
            [
              132.673951625,
              35.310217937
            ],
            [
              132.674050289,
              35.309912995
            ],
            [
              132.673944572,
              35.309892134
            ],
            [
              132.673870524,
              35.309851829
            ],
            [
              132.673665338,
              35.309745534
            ],
            [
              132.673497935,
              35.309780801
            ],
            [
              132.673493094,
              35.309849955
            ],
            [
              132.67341942,
              35.31003865
            ]
          ]
        ]
      },
      "properties": {
        "polygon_uuid": "04e1ae55-6805-4547-be1c-f97bfe5d41ed",
        "daicho_shubetsu_cd": "FUD25"
      }
    }
  ]
}