{
  "type": "FeatureCollection",
  "features": [
    {
      "type": "Feature",
      "geometry": {
        "type": "Polygon",
        "coordinates": [
          [
            [
              132.805285,
              35.366806
            ],
            [
              132.80534,
              35.366844
            ],
            [
              132.805684,
              35.367105
            ],
            [
              132.805962,
              35.366923
            ],
            [
              132.805905,
              35.36684
            ],
            [
              132.805765,
              35.366921
            ],
            [
              132.805678,
              35.366824
            ],
            [
              132.805832,
              35.366737
            ],
            [
              132.805707,
              35.366586
            ],
            [
              132.805469,
              35.366706
            ],
            [
              132.805285,
              35.366806
            ]
          ]
        ]
      },
      "properties": {
        "polygon_uuid": "6d1e3e26-005c-488c-a7ac-1885f6bc67dc",
        "daicho_shubetsu_cd": "FUD25",
        "SelectedCrop": "1号遊休農地再生利用が比較的容易"
      }
    },
    {
      "type": "Feature",
      "geometry": {
        "type": "Polygon",
        "coordinates": [
          [
            [
              132.805285,
              35.366806
            ],
            [
              132.805151,
              35.366905
            ],
            [
              132.80506,
              35.366979
            ],
            [
              132.805882,
              35.367652
            ],
            [
              132.806115,
              35.367466
            ],
            [
              132.805834,
              35.367233
            ],
            [
              132.805684,
              35.367105
            ],
            [
              132.80534,
              35.366844
            ],
            [
              132.805285,
              35.366806
            ]
          ]
        ]
      },
      "properties": {
        "polygon_uuid": "94dec5bd-3d43-4e53-aa87-59b599f9a68e",
        "daicho_shubetsu_cd": "FUD25",
        "SelectedCrop": "1号遊休農地再生利用が比較的容易"
      }
    },
    {
      "type": "Feature",
      "geometry": {
        "type": "Polygon",
        "coordinates": [
          [
            [
              132.807585,
              35.368627
            ],
            [
              132.807713,
              35.368872
            ],
            [
              132.807979,
              35.368369
            ],
            [
              132.807813,
              35.368313
            ],
            [
              132.807762,
              35.368295
            ],
            [
              132.807585,
              35.368627
            ]
          ]
        ]
      },
      "properties": {
        "polygon_uuid": "2511dd3f-f92c-4bfa-a2ea-68b7435e2054",
        "daicho_shubetsu_cd": "FUD25",
        "SelectedCrop": "1号遊休農地再生利用が比較的容易"
      }
    },
    {
      "type": "Feature",
      "geometry": {
        "type": "Polygon",
        "coordinates": [
          [
            [
              132.807713,
              35.368872
            ],
            [
              132.807738,
              35.368898
            ],
            [
              132.807761,
              35.368899
            ],
            [
              132.808037,
              35.368822
            ],
            [
              132.808225,
              35.368456
            ],
            [
              132.807979,
              35.368369
            ],
            [
              132.807713,
              35.368872
            ]
          ]
        ]
      },
      "properties": {
        "polygon_uuid": "771a0747-c98b-40ed-92a6-bb09fb866aaa",
        "daicho_shubetsu_cd": "FUD25",
        "SelectedCrop": "1号遊休農地再生利用が比較的容易"
      }
    },
    {
      "type": "Feature",
      "geometry": {
        "type": "Polygon",
        "coordinates": [
          [
            [
              132.804463,
              35.347771
            ],
            [
              132.804532,
              35.347784
            ],
            [
              132.804602,
              35.347788
            ],
            [
              132.804878,
              35.347783
            ],
            [
              132.804858,
              35.347603
            ],
            [
              132.804479,
              35.347593
            ],
            [
              132.803916,
              35.347531
            ],
            [
              132.803904,
              35.347572
            ],
            [
              132.803904,
              35.347582
            ],
            [
              132.804148,
              35.347668
            ],
            [
              132.804353,
              35.347739
            ],
            [
              132.804463,
              35.347771
            ]
          ]
        ]
      },
      "properties": {
        "polygon_uuid": "1038ca83-831e-44ee-8958-7a600a1a5470",
        "daicho_shubetsu_cd": "FUD25",
        "SelectedCrop": "1号遊休農地再生利用が比較的容易"
      }
    },
    {
      "type": "Feature",
      "geometry": {
        "type": "Polygon",
        "coordinates": [
          [
            [
              132.803794,
              35.347619
            ],
            [
              132.803776,
              35.347758
            ],
            [
              132.803854,
              35.347764
            ],
            [
              132.804004,
              35.34776
            ],
            [
              132.804019,
              35.347701
            ],
            [
              132.803794,
              35.347619
            ]
          ]
        ]
      },
      "properties": {
        "polygon_uuid": "eb1a723c-3644-43ff-a0de-86e5de2d746f",
        "daicho_shubetsu_cd": "FUD25",
        "SelectedCrop": "1号遊休農地再生利用が比較的容易"
      }
    },
    {
      "type": "Feature",
      "geometry": {
        "type": "Polygon",
        "coordinates": [
          [
            [
              132.793412,
              35.351195
            ],
            [
              132.793337,
              35.351348
            ],
            [
              132.793722,
              35.351344
            ],
            [
              132.794221,
              35.351345
            ],
            [
              132.794221,
              35.351295
            ],
            [
              132.79419,
              35.351211
            ],
            [
              132.794109,
              35.351183
            ],
            [
              132.793412,
              35.351195
            ]
          ]
        ]
      },
      "properties": {
        "polygon_uuid": "a973248e-7bff-4821-b2bc-6056bd2e6ba1",
        "daicho_shubetsu_cd": "FUD25",
        "SelectedCrop": "1号遊休農地再生利用が比較的容易"
      }
    },
    {
      "type": "Feature",
      "geometry": {
        "type": "Polygon",
        "coordinates": [
          [
            [
              132.79282,
              35.359299
            ],
            [
              132.792765,
              35.359255
            ],
            [
              132.792561,
              35.35942
            ],
            [
              132.792552,
              35.359527
            ],
            [
              132.79262,
              35.359473
            ],
            [
              132.79282,
              35.359299
            ]
          ]
        ]
      },
      "properties": {
        "polygon_uuid": "df8f3670-7e06-4a8a-b0a1-0cedfaf6950a",
        "daicho_shubetsu_cd": "FUD25",
        "SelectedCrop": "1号遊休農地再生利用が比較的容易"
      }
    },
    {
      "type": "Feature",
      "geometry": {
        "type": "Polygon",
        "coordinates": [
          [
            [
              132.792479,
              35.359928
            ],
            [
              132.792448,
              35.360152
            ],
            [
              132.792464,
              35.360166
            ],
            [
              132.792772,
              35.359919
            ],
            [
              132.793018,
              35.359711
            ],
            [
              132.792883,
              35.359599
            ],
            [
              132.792632,
              35.3598
            ],
            [
              132.792564,
              35.359856
            ],
            [
              132.792479,
              35.359928
            ]
          ]
        ]
      },
      "properties": {
        "polygon_uuid": "844d005d-f30b-4f9e-8838-5d10ac30b13d",
        "daicho_shubetsu_cd": "FUD25",
        "SelectedCrop": "1号遊休農地再生利用が比較的容易"
      }
    },
    {
      "type": "Feature",
      "geometry": {
        "type": "Polygon",
        "coordinates": [
          [
            [
              132.792538,
              35.359644
            ],
            [
              132.793033,
              35.35924
            ],
            [
              132.792958,
              35.359185
            ],
            [
              132.79282,
              35.359299
            ],
            [
              132.79262,
              35.359473
            ],
            [
              132.792552,
              35.359527
            ],
            [
              132.792538,
              35.359644
            ]
          ]
        ]
      },
      "properties": {
        "polygon_uuid": "66c9d731-8884-4ed2-b37f-9891e0702671",
        "daicho_shubetsu_cd": "FUD25",
        "SelectedCrop": "1号遊休農地再生利用が比較的容易"
      }
    },
    {
      "type": "Feature",
      "geometry": {
        "type": "Polygon",
        "coordinates": [
          [
            [
              132.792464,
              35.360166
            ],
            [
              132.792608,
              35.360284
            ],
            [
              132.79321,
              35.359812
            ],
            [
              132.793509,
              35.359587
            ],
            [
              132.793353,
              35.359455
            ],
            [
              132.793247,
              35.359529
            ],
            [
              132.793018,
              35.359711
            ],
            [
              132.792772,
              35.359919
            ],
            [
              132.792464,
              35.360166
            ]
          ]
        ]
      },
      "properties": {
        "polygon_uuid": "1bbb2ce2-689e-4efd-9fde-98beea4bf99e",
        "daicho_shubetsu_cd": "FUD25",
        "SelectedCrop": "1号遊休農地再生利用が比較的容易"
      }
    },
    {
      "type": "Feature",
      "geometry": {
        "type": "Polygon",
        "coordinates": [
          [
            [
              132.792608,
              35.360284
            ],
            [
              132.792746,
              35.360402
            ],
            [
              132.793633,
              35.35969
            ],
            [
              132.793509,
              35.359587
            ],
            [
              132.79321,
              35.359812
            ],
            [
              132.792608,
              35.360284
            ]
          ]
        ]
      },
      "properties": {
        "polygon_uuid": "1a7b11e4-b48b-4c32-9c36-f79cec871062",
        "daicho_shubetsu_cd": "FUD25",
        "SelectedCrop": "1号遊休農地再生利用が比較的容易"
      }
    }
  ]
}