{
  "type": "FeatureCollection",
  "features": [
    {
      "type": "Feature",
      "geometry": {
        "type": "Polygon",
        "coordinates": [
          [
            [
              132.792099,
              35.353541
            ],
            [
              132.791837,
              35.353497
            ],
            [
              132.791821,
              35.353538
            ],
            [
              132.791793,
              35.353616
            ],
            [
              132.791775,
              35.353677
            ],
            [
              132.791767,
              35.353703
            ],
            [
              132.792298,
              35.353817
            ],
            [
              132.792306,
              35.353784
            ],
            [
              132.792326,
              35.353726
            ],
            [
              132.792362,
              35.353589
            ],
            [
              132.792099,
              35.353541
            ]
          ]
        ]
      },
      "properties": {
        "polygon_uuid": "9132e8c1-b22c-42ea-a8f9-0b88f71edd6e",
        "daicho_shubetsu_cd": "FUD25",
        "SelectedCrop": "1号遊休農地基盤整備が必要"
      }
    },
    {
      "type": "Feature",
      "geometry": {
        "type": "Polygon",
        "coordinates": [
          [
            [
              132.794349,
              35.358644
            ],
            [
              132.79438,
              35.358619
            ],
            [
              132.794481,
              35.358537
            ],
            [
              132.793716,
              35.357925
            ],
            [
              132.793662,
              35.357968
            ],
            [
              132.793616,
              35.358005
            ],
            [
              132.793582,
              35.358029
            ],
            [
              132.794349,
              35.358644
            ]
          ]
        ]
      },
      "properties": {
        "polygon_uuid": "eb109d61-7667-4cc3-9d57-0827a63ec5d0",
        "daicho_shubetsu_cd": "FUD25",
        "SelectedCrop": "1号遊休農地基盤整備が必要"
      }
    },
    {
      "type": "Feature",
      "geometry": {
        "type": "Polygon",
        "coordinates": [
          [
            [
              132.793989,
              35.358945
            ],
            [
              132.794058,
              35.358885
            ],
            [
              132.793287,
              35.358236
            ],
            [
              132.793223,
              35.358283
            ],
            [
              132.793989,
              35.358945
            ]
          ]
        ]
      },
      "properties": {
        "polygon_uuid": "ba2fed15-cf11-44e0-8a4c-0be0371decea",
        "daicho_shubetsu_cd": "FUD25",
        "SelectedCrop": "1号遊休農地基盤整備が必要"
      }
    },
    {
      "type": "Feature",
      "geometry": {
        "type": "Polygon",
        "coordinates": [
          [
            [
              132.794133,
              35.358819
            ],
            [
              132.794349,
              35.358644
            ],
            [
              132.793582,
              35.358029
            ],
            [
              132.793443,
              35.358129
            ],
            [
              132.793363,
              35.358181
            ],
            [
              132.794133,
              35.358819
            ]
          ]
        ]
      },
      "properties": {
        "polygon_uuid": "e091cb51-87c3-40c3-aad9-8d5d33be0d8e",
        "daicho_shubetsu_cd": "FUD25",
        "SelectedCrop": "1号遊休農地基盤整備が必要"
      }
    },
    {
      "type": "Feature",
      "geometry": {
        "type": "Polygon",
        "coordinates": [
          [
            [
              132.793684,
              35.359205
            ],
            [
              132.793735,
              35.359162
            ],
            [
              132.79383,
              35.359078
            ],
            [
              132.793067,
              35.358451
            ],
            [
              132.792981,
              35.35853
            ],
            [
              132.792935,
              35.358574
            ],
            [
              132.793684,
              35.359205
            ]
          ]
        ]
      },
      "properties": {
        "polygon_uuid": "fb93587e-08ce-486c-905f-a621599c57e8",
        "daicho_shubetsu_cd": "FUD25",
        "SelectedCrop": "1号遊休農地基盤整備が必要"
      }
    },
    {
      "type": "Feature",
      "geometry": {
        "type": "Polygon",
        "coordinates": [
          [
            [
              132.79383,
              35.359078
            ],
            [
              132.793856,
              35.359056
            ],
            [
              132.793894,
              35.359025
            ],
            [
              132.793989,
              35.358945
            ],
            [
              132.793223,
              35.358283
            ],
            [
              132.793179,
              35.358305
            ],
            [
              132.793177,
              35.358354
            ],
            [
              132.793167,
              35.358386
            ],
            [
              132.793147,
              35.358404
            ],
            [
              132.793123,
              35.358427
            ],
            [
              132.793067,
              35.358451
            ],
            [
              132.79383,
              35.359078
            ]
          ]
        ]
      },
      "properties": {
        "polygon_uuid": "3ab0b47a-4641-4ef3-a22e-a8bfe49a6cf3",
        "daicho_shubetsu_cd": "FUD25",
        "SelectedCrop": "1号遊休農地基盤整備が必要"
      }
    },
    {
      "type": "Feature",
      "geometry": {
        "type": "Polygon",
        "coordinates": [
          [
            [
              132.793114,
              35.355192
            ],
            [
              132.793258,
              35.355551
            ],
            [
              132.793349,
              35.355528
            ],
            [
              132.793453,
              35.355497
            ],
            [
              132.793293,
              35.35514
            ],
            [
              132.793203,
              35.355167
            ],
            [
              132.793114,
              35.355192
            ]
          ]
        ]
      },
      "properties": {
        "polygon_uuid": "77d85010-275e-4631-8f01-f617ebc8d416",
        "daicho_shubetsu_cd": "FUD25",
        "SelectedCrop": "1号遊休農地基盤整備が必要"
      }
    },
    {
      "type": "Feature",
      "geometry": {
        "type": "Polygon",
        "coordinates": [
          [
            [
              132.792779,
              35.355592
            ],
            [
              132.792935,
              35.355547
            ],
            [
              132.79308,
              35.355521
            ],
            [
              132.793216,
              35.355505
            ],
            [
              132.793087,
              35.3552
            ],
            [
              132.793035,
              35.355217
            ],
            [
              132.792852,
              35.355273
            ],
            [
              132.792652,
              35.355338
            ],
            [
              132.792779,
              35.355592
            ]
          ]
        ]
      },
      "properties": {
        "polygon_uuid": "dfd1edc7-f674-428d-9929-fbb914732076",
        "daicho_shubetsu_cd": "FUD25",
        "SelectedCrop": "1号遊休農地基盤整備が必要"
      }
    }
  ]
}