{
  "type": "FeatureCollection",
  "features": [
    {
      "type": "Feature",
      "geometry": {
        "type": "Point",
        "coordinates": [
          132.80564851401346,
          35.36688972322143
        ]
      },
      "properties": {
        "FarmCommitteeCd": "3220321",
        "FarmCommitteeName": "出雲市農業委員会",
        "TodofukenCode": "32",
        "ShikuchosonCode": "322032",
        "OazaCode": "80022",
        "ClassificationOfLandCodeName": "畑",
        "ClassificationOfLand": "2",
        "AreaOnRegistry": "1461",
        "SectionOfNoushinhouCodeName": "農業振興地域内・農用地区域内(青地)",
        "SectionOfNoushinhou": "1",
        "SectionOfToshikeikakuhouCodeName": "設定なし",
        "SectionOfToshikeikakuhou": "0",
        "OwnerFarmIntentionCodeName": "非公表",
        "OwnerFarmIntention": "999",
        "FarmerIndicationNumberHash": "ef70681b752926797bd8774f3bf9980f",
        "KindOfRightCodeName": "賃借権等の設定がない",
        "KindOfRight": "0",
        "CommencementDate": "",
        "EndStagesDate": "",
        "RightSettingContentsCodeName": "農地中間管理権が設定されていない",
        "RightSettingContents": "0",
        "UsageSituationInvestigationDate": "20250804",
        "UsageSituationInvestigationResultCodeName": "遊休農地（不耕作緑）",
        "UsageSituationInvestigationResult": "6",
        "UseIntentionInvestigationDate": "20231127",
        "OwnerStatementIntentSurveyResultsCodeName": "自ら耕作を再開",
        "OwnerStatementIntentSurveyResults": "1",
        "UseIntentionAscertainmentResultCodeName": "調査中",
        "UseIntentionAscertainmentResult": "2",
        "PublicNoticeDate": "",
        "RightOfMiddleManagement": "",
        "RecommendationContenDate": "",
        "ActionOrderDate": "",
        "MayorPublicAnnouncementDate": "",
        "Address": "島根県出雲市斐川町出西1873",
        "Tiban": "1873",
        "SectionOfPolygon": "3",
        "SectionOfPolygonCodeName": "その他",
        "DaichoId": "320173133",
        "daicho_shubetsu_cd": "KNO01"
      }
    },
    {
      "type": "Feature",
      "geometry": {
        "type": "Point",
        "coordinates": [
          132.80586962213698,
          35.36709414576974
        ]
      },
      "properties": {
        "FarmCommitteeCd": "3220321",
        "FarmCommitteeName": "出雲市農業委員会",
        "TodofukenCode": "32",
        "ShikuchosonCode": "322032",
        "OazaCode": "80022",
        "ClassificationOfLandCodeName": "畑",
        "ClassificationOfLand": "2",
        "AreaOnRegistry": "390",
        "SectionOfNoushinhouCodeName": "農業振興地域内・農用地区域内(青地)",
        "SectionOfNoushinhou": "1",
        "SectionOfToshikeikakuhouCodeName": "設定なし",
        "SectionOfToshikeikakuhou": "0",
        "OwnerFarmIntentionCodeName": "非公表",
        "OwnerFarmIntention": "999",
        "FarmerIndicationNumberHash": "fa69b77daf74c9c2bc2e2a5824af9bdf",
        "KindOfRightCodeName": "賃借権等の設定がない",
        "KindOfRight": "0",
        "CommencementDate": "",
        "EndStagesDate": "",
        "RightSettingContentsCodeName": "農地中間管理権が設定されていない",
        "RightSettingContents": "0",
        "UsageSituationInvestigationDate": "20250804",
        "UsageSituationInvestigationResultCodeName": "遊休農地ではない",
        "UsageSituationInvestigationResult": "3",
        "UseIntentionInvestigationDate": "",
        "OwnerStatementIntentSurveyResultsCodeName": "調査対象外",
        "OwnerStatementIntentSurveyResults": "6",
        "UseIntentionAscertainmentResultCodeName": "対象外",
        "UseIntentionAscertainmentResult": "1",
        "PublicNoticeDate": "",
        "RightOfMiddleManagement": "",
        "RecommendationContenDate": "",
        "ActionOrderDate": "",
        "MayorPublicAnnouncementDate": "",
        "Address": "島根県出雲市斐川町出西1877",
        "Tiban": "1877",
        "SectionOfPolygon": "3",
        "SectionOfPolygonCodeName": "その他",
        "DaichoId": "320173136",
        "daicho_shubetsu_cd": "KNO01"
      }
    },
    {
      "type": "Feature",
      "geometry": {
        "type": "Point",
        "coordinates": [
          132.80514751065797,
          35.36683312739853
        ]
      },
      "properties": {
        "FarmCommitteeCd": "3220321",
        "FarmCommitteeName": "出雲市農業委員会",
        "TodofukenCode": "32",
        "ShikuchosonCode": "322032",
        "OazaCode": "80022",
        "ClassificationOfLandCodeName": "田",
        "ClassificationOfLand": "1",
        "AreaOnRegistry": "236",
        "SectionOfNoushinhouCodeName": "農業振興地域内・農用地区域内(青地)",
        "SectionOfNoushinhou": "1",
        "SectionOfToshikeikakuhouCodeName": "設定なし",
        "SectionOfToshikeikakuhou": "0",
        "OwnerFarmIntentionCodeName": "非公表",
        "OwnerFarmIntention": "999",
        "FarmerIndicationNumberHash": "55df528a2b03adabd021556adebe2937",
        "KindOfRightCodeName": "賃借権等の設定がない",
        "KindOfRight": "0",
        "CommencementDate": "",
        "EndStagesDate": "",
        "RightSettingContentsCodeName": "農地中間管理権が設定されていない",
        "RightSettingContents": "0",
        "UsageSituationInvestigationDate": "20250804",
        "UsageSituationInvestigationResultCodeName": "遊休農地ではない",
        "UsageSituationInvestigationResult": "3",
        "UseIntentionInvestigationDate": "",
        "OwnerStatementIntentSurveyResultsCodeName": "調査対象外",
        "OwnerStatementIntentSurveyResults": "6",
        "UseIntentionAscertainmentResultCodeName": "対象外",
        "UseIntentionAscertainmentResult": "1",
        "PublicNoticeDate": "",
        "RightOfMiddleManagement": "",
        "RecommendationContenDate": "",
        "ActionOrderDate": "",
        "MayorPublicAnnouncementDate": "",
        "Address": "島根県出雲市斐川町出西1848-2",
        "Tiban": "1848-2",
        "SectionOfPolygon": "3",
        "SectionOfPolygonCodeName": "その他",
        "DaichoId": "320173112",
        "daicho_shubetsu_cd": "KNO01"
      }
    },
    {
      "type": "Feature",
      "geometry": {
        "type": "Point",
        "coordinates": [
          132.80512768460693,
          35.367641216656956
        ]
      },
      "properties": {
        "FarmCommitteeCd": "3220321",
        "FarmCommitteeName": "出雲市農業委員会",
        "TodofukenCode": "32",
        "ShikuchosonCode": "322032",
        "OazaCode": "80022",
        "ClassificationOfLandCodeName": "田",
        "ClassificationOfLand": "1",
        "AreaOnRegistry": "3015",
        "SectionOfNoushinhouCodeName": "農業振興地域内・農用地区域内(青地)",
        "SectionOfNoushinhou": "1",
        "SectionOfToshikeikakuhouCodeName": "設定なし",
        "SectionOfToshikeikakuhou": "0",
        "OwnerFarmIntentionCodeName": "非公表",
        "OwnerFarmIntention": "999",
        "FarmerIndicationNumberHash": "97924f7b6cf9081eceb40f8ee17c295f",
        "KindOfRightCodeName": "賃借権",
        "KindOfRight": "5",
        "CommencementDate": "20221108",
        "EndStagesDate": "20320331",
        "RightSettingContentsCodeName": "農地中間管理権が設定されていない",
        "RightSettingContents": "0",
        "UsageSituationInvestigationDate": "20250804",
        "UsageSituationInvestigationResultCodeName": "遊休農地ではない",
        "UsageSituationInvestigationResult": "3",
        "UseIntentionInvestigationDate": "",
        "OwnerStatementIntentSurveyResultsCodeName": "調査対象外",
        "OwnerStatementIntentSurveyResults": "6",
        "UseIntentionAscertainmentResultCodeName": "対象外",
        "UseIntentionAscertainmentResult": "1",
        "PublicNoticeDate": "",
        "RightOfMiddleManagement": "",
        "RecommendationContenDate": "",
        "ActionOrderDate": "",
        "MayorPublicAnnouncementDate": "",
        "Address": "島根県出雲市斐川町出西1870",
        "Tiban": "1870",
        "SectionOfPolygon": "3",
        "SectionOfPolygonCodeName": "その他",
        "DaichoId": "320173130",
        "daicho_shubetsu_cd": "KNO01"
      }
    },
    {
      "type": "Feature",
      "geometry": {
        "type": "Point",
        "coordinates": [
          132.80536102067762,
          35.367448537307006
        ]
      },
      "properties": {
        "FarmCommitteeCd": "3220321",
        "FarmCommitteeName": "出雲市農業委員会",
        "TodofukenCode": "32",
        "ShikuchosonCode": "322032",
        "OazaCode": "80022",
        "ClassificationOfLandCodeName": "田",
        "ClassificationOfLand": "1",
        "AreaOnRegistry": "3015",
        "SectionOfNoushinhouCodeName": "農業振興地域内・農用地区域内(青地)",
        "SectionOfNoushinhou": "1",
        "SectionOfToshikeikakuhouCodeName": "設定なし",
        "SectionOfToshikeikakuhou": "0",
        "OwnerFarmIntentionCodeName": "非公表",
        "OwnerFarmIntention": "999",
        "FarmerIndicationNumberHash": "97924f7b6cf9081eceb40f8ee17c295f",
        "KindOfRightCodeName": "賃借権",
        "KindOfRight": "5",
        "CommencementDate": "20210608",
        "EndStagesDate": "20310228",
        "RightSettingContentsCodeName": "農地中間管理権が設定されていない",
        "RightSettingContents": "0",
        "UsageSituationInvestigationDate": "20250804",
        "UsageSituationInvestigationResultCodeName": "遊休農地ではない",
        "UsageSituationInvestigationResult": "3",
        "UseIntentionInvestigationDate": "",
        "OwnerStatementIntentSurveyResultsCodeName": "調査対象外",
        "OwnerStatementIntentSurveyResults": "6",
        "UseIntentionAscertainmentResultCodeName": "対象外",
        "UseIntentionAscertainmentResult": "1",
        "PublicNoticeDate": "",
        "RightOfMiddleManagement": "",
        "RecommendationContenDate": "",
        "ActionOrderDate": "",
        "MayorPublicAnnouncementDate": "",
        "Address": "島根県出雲市斐川町出西1871",
        "Tiban": "1871",
        "SectionOfPolygon": "3",
        "SectionOfPolygonCodeName": "その他",
        "DaichoId": "320173131",
        "daicho_shubetsu_cd": "KNO01"
      }
    },
    {
      "type": "Feature",
      "geometry": {
        "type": "Point",
        "coordinates": [
          132.8055967650285,
          35.36725648629942
        ]
      },
      "properties": {
        "FarmCommitteeCd": "3220321",
        "FarmCommitteeName": "出雲市農業委員会",
        "TodofukenCode": "32",
        "ShikuchosonCode": "322032",
        "OazaCode": "80022",
        "ClassificationOfLandCodeName": "田",
        "ClassificationOfLand": "1",
        "AreaOnRegistry": "3009",
        "SectionOfNoushinhouCodeName": "農業振興地域内・農用地区域内(青地)",
        "SectionOfNoushinhou": "1",
        "SectionOfToshikeikakuhouCodeName": "設定なし",
        "SectionOfToshikeikakuhou": "0",
        "OwnerFarmIntentionCodeName": "非公表",
        "OwnerFarmIntention": "999",
        "FarmerIndicationNumberHash": "97924f7b6cf9081eceb40f8ee17c295f",
        "KindOfRightCodeName": "賃借権",
        "KindOfRight": "5",
        "CommencementDate": "20210608",
        "EndStagesDate": "20310228",
        "RightSettingContentsCodeName": "農地中間管理権が設定されていない",
        "RightSettingContents": "0",
        "UsageSituationInvestigationDate": "20250804",
        "UsageSituationInvestigationResultCodeName": "遊休農地ではない",
        "UsageSituationInvestigationResult": "3",
        "UseIntentionInvestigationDate": "",
        "OwnerStatementIntentSurveyResultsCodeName": "調査対象外",
        "OwnerStatementIntentSurveyResults": "6",
        "UseIntentionAscertainmentResultCodeName": "対象外",
        "UseIntentionAscertainmentResult": "1",
        "PublicNoticeDate": "",
        "RightOfMiddleManagement": "",
        "RecommendationContenDate": "",
        "ActionOrderDate": "",
        "MayorPublicAnnouncementDate": "",
        "Address": "島根県出雲市斐川町出西1872",
        "Tiban": "1872",
        "SectionOfPolygon": "3",
        "SectionOfPolygonCodeName": "その他",
        "DaichoId": "320173132",
        "daicho_shubetsu_cd": "KNO01"
      }
    },
    {
      "type": "Feature",
      "geometry": {
        "type": "Point",
        "coordinates": [
          132.80603589433835,
          35.36727692112314
        ]
      },
      "properties": {
        "FarmCommitteeCd": "3220321",
        "FarmCommitteeName": "出雲市農業委員会",
        "TodofukenCode": "32",
        "ShikuchosonCode": "322032",
        "OazaCode": "80022",
        "ClassificationOfLandCodeName": "畑",
        "ClassificationOfLand": "2",
        "AreaOnRegistry": "958",
        "SectionOfNoushinhouCodeName": "農業振興地域内・農用地区域内(青地)",
        "SectionOfNoushinhou": "1",
        "SectionOfToshikeikakuhouCodeName": "設定なし",
        "SectionOfToshikeikakuhou": "0",
        "OwnerFarmIntentionCodeName": "非公表",
        "OwnerFarmIntention": "999",
        "FarmerIndicationNumberHash": "386abc73e7927410e98763ba26321fb5",
        "KindOfRightCodeName": "使用貸借権",
        "KindOfRight": "4",
        "CommencementDate": "20001221",
        "EndStagesDate": "20301220",
        "RightSettingContentsCodeName": "農地中間管理権が設定されていない",
        "RightSettingContents": "0",
        "UsageSituationInvestigationDate": "20250804",
        "UsageSituationInvestigationResultCodeName": "遊休農地ではない",
        "UsageSituationInvestigationResult": "3",
        "UseIntentionInvestigationDate": "",
        "OwnerStatementIntentSurveyResultsCodeName": "調査対象外",
        "OwnerStatementIntentSurveyResults": "6",
        "UseIntentionAscertainmentResultCodeName": "対象外",
        "UseIntentionAscertainmentResult": "1",
        "PublicNoticeDate": "",
        "RightOfMiddleManagement": "",
        "RecommendationContenDate": "",
        "ActionOrderDate": "",
        "MayorPublicAnnouncementDate": "",
        "Address": "島根県出雲市斐川町出西1878-1",
        "Tiban": "1878-1",
        "SectionOfPolygon": "3",
        "SectionOfPolygonCodeName": "その他",
        "DaichoId": "320173137",
        "daicho_shubetsu_cd": "KNO01"
      }
    },
    {
      "type": "Feature",
      "geometry": {
        "type": "Point",
        "coordinates": [
          132.80776420225354,
          35.368580856805906
        ]
      },
      "properties": {
        "FarmCommitteeCd": "3220321",
        "FarmCommitteeName": "出雲市農業委員会",
        "TodofukenCode": "32",
        "ShikuchosonCode": "322032",
        "OazaCode": "80022",
        "ClassificationOfLandCodeName": "田",
        "ClassificationOfLand": "1",
        "AreaOnRegistry": "930",
        "SectionOfNoushinhouCodeName": "農業振興地域内・農用地区域内(青地)",
        "SectionOfNoushinhou": "1",
        "SectionOfToshikeikakuhouCodeName": "設定なし",
        "SectionOfToshikeikakuhou": "0",
        "OwnerFarmIntentionCodeName": "非公表",
        "OwnerFarmIntention": "999",
        "FarmerIndicationNumberHash": "ef70681b752926797bd8774f3bf9980f",
        "KindOfRightCodeName": "賃借権等の設定がない",
        "KindOfRight": "0",
        "CommencementDate": "",
        "EndStagesDate": "",
        "RightSettingContentsCodeName": "農地中間管理権が設定されていない",
        "RightSettingContents": "0",
        "UsageSituationInvestigationDate": "20250804",
        "UsageSituationInvestigationResultCodeName": "遊休農地（不耕作緑）",
        "UsageSituationInvestigationResult": "6",
        "UseIntentionInvestigationDate": "20231127",
        "OwnerStatementIntentSurveyResultsCodeName": "その他（農業上の利用以外等）",
        "OwnerStatementIntentSurveyResults": "5",
        "UseIntentionAscertainmentResultCodeName": "調査中",
        "UseIntentionAscertainmentResult": "2",
        "PublicNoticeDate": "",
        "RightOfMiddleManagement": "",
        "RecommendationContenDate": "",
        "ActionOrderDate": "",
        "MayorPublicAnnouncementDate": "",
        "Address": "島根県出雲市斐川町出西1922",
        "Tiban": "1922",
        "SectionOfPolygon": "3",
        "SectionOfPolygonCodeName": "その他",
        "DaichoId": "320173163",
        "daicho_shubetsu_cd": "KNO01"
      }
    },
    {
      "type": "Feature",
      "geometry": {
        "type": "Point",
        "coordinates": [
          132.80796644549724,
          35.36867243916689
        ]
      },
      "properties": {
        "FarmCommitteeCd": "3220321",
        "FarmCommitteeName": "出雲市農業委員会",
        "TodofukenCode": "32",
        "ShikuchosonCode": "322032",
        "OazaCode": "80022",
        "ClassificationOfLandCodeName": "田",
        "ClassificationOfLand": "1",
        "AreaOnRegistry": "1140",
        "SectionOfNoushinhouCodeName": "農業振興地域内・農用地区域内(青地)",
        "SectionOfNoushinhou": "1",
        "SectionOfToshikeikakuhouCodeName": "設定なし",
        "SectionOfToshikeikakuhou": "0",
        "OwnerFarmIntentionCodeName": "非公表",
        "OwnerFarmIntention": "999",
        "FarmerIndicationNumberHash": "97924f7b6cf9081eceb40f8ee17c295f",
        "KindOfRightCodeName": "賃借権",
        "KindOfRight": "5",
        "CommencementDate": "20190329",
        "EndStagesDate": "20290331",
        "RightSettingContentsCodeName": "農地中間管理権が設定されていない",
        "RightSettingContents": "0",
        "UsageSituationInvestigationDate": "20250804",
        "UsageSituationInvestigationResultCodeName": "遊休農地ではない",
        "UsageSituationInvestigationResult": "3",
        "UseIntentionInvestigationDate": "",
        "OwnerStatementIntentSurveyResultsCodeName": "調査対象外",
        "OwnerStatementIntentSurveyResults": "6",
        "UseIntentionAscertainmentResultCodeName": "対象外",
        "UseIntentionAscertainmentResult": "1",
        "PublicNoticeDate": "",
        "RightOfMiddleManagement": "",
        "RecommendationContenDate": "",
        "ActionOrderDate": "",
        "MayorPublicAnnouncementDate": "",
        "Address": "島根県出雲市斐川町出西1924",
        "Tiban": "1924",
        "SectionOfPolygon": "3",
        "SectionOfPolygonCodeName": "その他",
        "DaichoId": "320173164",
        "daicho_shubetsu_cd": "KNO01"
      }
    },
    {
      "type": "Feature",
      "geometry": {
        "type": "Point",
        "coordinates": [
          132.8081735927844,
          35.368666877873
        ]
      },
      "properties": {
        "FarmCommitteeCd": "3220321",
        "FarmCommitteeName": "出雲市農業委員会",
        "TodofukenCode": "32",
        "ShikuchosonCode": "322032",
        "OazaCode": "80022",
        "ClassificationOfLandCodeName": "田",
        "ClassificationOfLand": "1",
        "AreaOnRegistry": "323",
        "SectionOfNoushinhouCodeName": "農業振興地域内・農用地区域内(青地)",
        "SectionOfNoushinhou": "1",
        "SectionOfToshikeikakuhouCodeName": "設定なし",
        "SectionOfToshikeikakuhou": "0",
        "OwnerFarmIntentionCodeName": "非公表",
        "OwnerFarmIntention": "999",
        "FarmerIndicationNumberHash": "8a6617c606ebb5534e039d278e9a5264",
        "KindOfRightCodeName": "賃借権等の設定がない",
        "KindOfRight": "0",
        "CommencementDate": "",
        "EndStagesDate": "",
        "RightSettingContentsCodeName": "農地中間管理権が設定されていない",
        "RightSettingContents": "0",
        "UsageSituationInvestigationDate": "20250804",
        "UsageSituationInvestigationResultCodeName": "遊休農地ではない",
        "UsageSituationInvestigationResult": "3",
        "UseIntentionInvestigationDate": "",
        "OwnerStatementIntentSurveyResultsCodeName": "調査対象外",
        "OwnerStatementIntentSurveyResults": "6",
        "UseIntentionAscertainmentResultCodeName": "対象外",
        "UseIntentionAscertainmentResult": "1",
        "PublicNoticeDate": "",
        "RightOfMiddleManagement": "",
        "RecommendationContenDate": "",
        "ActionOrderDate": "",
        "MayorPublicAnnouncementDate": "",
        "Address": "島根県出雲市斐川町出西1925",
        "Tiban": "1925",
        "SectionOfPolygon": "3",
        "SectionOfPolygonCodeName": "その他",
        "DaichoId": "320173165",
        "daicho_shubetsu_cd": "KNO01"
      }
    },
    {
      "type": "Feature",
      "geometry": {
        "type": "Point",
        "coordinates": [
          132.80472235885563,
          35.347695103059955
        ]
      },
      "properties": {
        "FarmCommitteeCd": "3220321",
        "FarmCommitteeName": "出雲市農業委員会",
        "TodofukenCode": "32",
        "ShikuchosonCode": "322032",
        "OazaCode": "80022",
        "ClassificationOfLandCodeName": "田",
        "ClassificationOfLand": "1",
        "AreaOnRegistry": "521",
        "SectionOfNoushinhouCodeName": "農業振興地域内・農用地区域内(青地)",
        "SectionOfNoushinhou": "1",
        "SectionOfToshikeikakuhouCodeName": "設定なし",
        "SectionOfToshikeikakuhou": "0",
        "OwnerFarmIntentionCodeName": "非公表",
        "OwnerFarmIntention": "999",
        "FarmerIndicationNumberHash": "356ae1f9a459c6a3c32a37b242ecf541",
        "KindOfRightCodeName": "賃借権等の設定がない",
        "KindOfRight": "0",
        "CommencementDate": "",
        "EndStagesDate": "",
        "RightSettingContentsCodeName": "農地中間管理権が設定されていない",
        "RightSettingContents": "0",
        "UsageSituationInvestigationDate": "20250804",
        "UsageSituationInvestigationResultCodeName": "遊休農地（不耕作緑）",
        "UsageSituationInvestigationResult": "6",
        "UseIntentionInvestigationDate": "",
        "OwnerStatementIntentSurveyResultsCodeName": "調査中",
        "OwnerStatementIntentSurveyResults": "9",
        "UseIntentionAscertainmentResultCodeName": "調査中",
        "UseIntentionAscertainmentResult": "2",
        "PublicNoticeDate": "",
        "RightOfMiddleManagement": "",
        "RecommendationContenDate": "",
        "ActionOrderDate": "",
        "MayorPublicAnnouncementDate": "",
        "Address": "島根県出雲市斐川町出西536-1",
        "Tiban": "536-1",
        "SectionOfPolygon": "3",
        "SectionOfPolygonCodeName": "その他",
        "DaichoId": "320172070",
        "daicho_shubetsu_cd": "KNO01"
      }
    },
    {
      "type": "Feature",
      "geometry": {
        "type": "Point",
        "coordinates": [
          132.80430310279866,
          35.347646030691166
        ]
      },
      "properties": {
        "FarmCommitteeCd": "3220321",
        "FarmCommitteeName": "出雲市農業委員会",
        "TodofukenCode": "32",
        "ShikuchosonCode": "322032",
        "OazaCode": "80022",
        "ClassificationOfLandCodeName": "田",
        "ClassificationOfLand": "1",
        "AreaOnRegistry": "732",
        "SectionOfNoushinhouCodeName": "農業振興地域内・農用地区域内(青地)",
        "SectionOfNoushinhou": "1",
        "SectionOfToshikeikakuhouCodeName": "設定なし",
        "SectionOfToshikeikakuhou": "0",
        "OwnerFarmIntentionCodeName": "非公表",
        "OwnerFarmIntention": "999",
        "FarmerIndicationNumberHash": "356ae1f9a459c6a3c32a37b242ecf541",
        "KindOfRightCodeName": "賃借権等の設定がない",
        "KindOfRight": "0",
        "CommencementDate": "",
        "EndStagesDate": "",
        "RightSettingContentsCodeName": "農地中間管理権が設定されていない",
        "RightSettingContents": "0",
        "UsageSituationInvestigationDate": "20250804",
        "UsageSituationInvestigationResultCodeName": "遊休農地（不耕作緑）",
        "UsageSituationInvestigationResult": "6",
        "UseIntentionInvestigationDate": "",
        "OwnerStatementIntentSurveyResultsCodeName": "調査中",
        "OwnerStatementIntentSurveyResults": "9",
        "UseIntentionAscertainmentResultCodeName": "調査中",
        "UseIntentionAscertainmentResult": "2",
        "PublicNoticeDate": "",
        "RightOfMiddleManagement": "",
        "RecommendationContenDate": "",
        "ActionOrderDate": "",
        "MayorPublicAnnouncementDate": "",
        "Address": "島根県出雲市斐川町出西540-1",
        "Tiban": "540-1",
        "SectionOfPolygon": "3",
        "SectionOfPolygonCodeName": "その他",
        "DaichoId": "320172074",
        "daicho_shubetsu_cd": "KNO01"
      }
    },
    {
      "type": "Feature",
      "geometry": {
        "type": "Point",
        "coordinates": [
          132.80390085279697,
          35.34773211303967
        ]
      },
      "properties": {
        "FarmCommitteeCd": "3220321",
        "FarmCommitteeName": "出雲市農業委員会",
        "TodofukenCode": "32",
        "ShikuchosonCode": "322032",
        "OazaCode": "80022",
        "ClassificationOfLandCodeName": "田",
        "ClassificationOfLand": "1",
        "AreaOnRegistry": "276",
        "SectionOfNoushinhouCodeName": "農業振興地域内・農用地区域内(青地)",
        "SectionOfNoushinhou": "1",
        "SectionOfToshikeikakuhouCodeName": "設定なし",
        "SectionOfToshikeikakuhou": "0",
        "OwnerFarmIntentionCodeName": "非公表",
        "OwnerFarmIntention": "999",
        "FarmerIndicationNumberHash": "356ae1f9a459c6a3c32a37b242ecf541",
        "KindOfRightCodeName": "賃借権等の設定がない",
        "KindOfRight": "0",
        "CommencementDate": "",
        "EndStagesDate": "",
        "RightSettingContentsCodeName": "農地中間管理権が設定されていない",
        "RightSettingContents": "0",
        "UsageSituationInvestigationDate": "20250804",
        "UsageSituationInvestigationResultCodeName": "遊休農地（不耕作緑）",
        "UsageSituationInvestigationResult": "6",
        "UseIntentionInvestigationDate": "",
        "OwnerStatementIntentSurveyResultsCodeName": "調査中",
        "OwnerStatementIntentSurveyResults": "9",
        "UseIntentionAscertainmentResultCodeName": "調査中",
        "UseIntentionAscertainmentResult": "2",
        "PublicNoticeDate": "",
        "RightOfMiddleManagement": "",
        "RecommendationContenDate": "",
        "ActionOrderDate": "",
        "MayorPublicAnnouncementDate": "",
        "Address": "島根県出雲市斐川町出西540-3",
        "Tiban": "540-3",
        "SectionOfPolygon": "3",
        "SectionOfPolygonCodeName": "その他",
        "DaichoId": "320172075",
        "daicho_shubetsu_cd": "KNO01"
      }
    },
    {
      "type": "Feature",
      "geometry": {
        "type": "Point",
        "coordinates": [
          132.79376793518006,
          35.35122431903732
        ]
      },
      "properties": {
        "FarmCommitteeCd": "3220321",
        "FarmCommitteeName": "出雲市農業委員会",
        "TodofukenCode": "32",
        "ShikuchosonCode": "322032",
        "OazaCode": "80022",
        "ClassificationOfLandCodeName": "その他",
        "ClassificationOfLand": "9",
        "AreaOnRegistry": "323",
        "SectionOfNoushinhouCodeName": "農業振興地域内・農用地区域内(青地)",
        "SectionOfNoushinhou": "1",
        "SectionOfToshikeikakuhouCodeName": "設定なし",
        "SectionOfToshikeikakuhou": "0",
        "OwnerFarmIntentionCodeName": "非公表",
        "OwnerFarmIntention": "999",
        "FarmerIndicationNumberHash": "8fe783235246dc04f165bd4c349af278",
        "KindOfRightCodeName": "賃借権等の設定がない",
        "KindOfRight": "0",
        "CommencementDate": "",
        "EndStagesDate": "",
        "RightSettingContentsCodeName": "農地中間管理権が設定されていない",
        "RightSettingContents": "0",
        "UsageSituationInvestigationDate": "20250912",
        "UsageSituationInvestigationResultCodeName": "遊休農地（不耕作緑）",
        "UsageSituationInvestigationResult": "6",
        "UseIntentionInvestigationDate": "20231201",
        "OwnerStatementIntentSurveyResultsCodeName": "調査中",
        "OwnerStatementIntentSurveyResults": "9",
        "UseIntentionAscertainmentResultCodeName": "調査中",
        "UseIntentionAscertainmentResult": "2",
        "PublicNoticeDate": "",
        "RightOfMiddleManagement": "",
        "RecommendationContenDate": "",
        "ActionOrderDate": "",
        "MayorPublicAnnouncementDate": "",
        "Address": "島根県出雲市斐川町出西795",
        "Tiban": "795",
        "SectionOfPolygon": "3",
        "SectionOfPolygonCodeName": "その他",
        "DaichoId": "320172252",
        "daicho_shubetsu_cd": "KNO01"
      }
    },
    {
      "type": "Feature",
      "geometry": {
        "type": "Point",
        "coordinates": [
          132.79379176454657,
          35.35132926167239
        ]
      },
      "properties": {
        "FarmCommitteeCd": "3220321",
        "FarmCommitteeName": "出雲市農業委員会",
        "TodofukenCode": "32",
        "ShikuchosonCode": "322032",
        "OazaCode": "80022",
        "ClassificationOfLandCodeName": "田",
        "ClassificationOfLand": "1",
        "AreaOnRegistry": "1261",
        "SectionOfNoushinhouCodeName": "農業振興地域内・農用地区域内(青地)",
        "SectionOfNoushinhou": "1",
        "SectionOfToshikeikakuhouCodeName": "設定なし",
        "SectionOfToshikeikakuhou": "0",
        "OwnerFarmIntentionCodeName": "非公表",
        "OwnerFarmIntention": "999",
        "FarmerIndicationNumberHash": "7b366a65fe1d2a2645259c210f9ba3a5",
        "KindOfRightCodeName": "賃借権",
        "KindOfRight": "5",
        "CommencementDate": "20230303",
        "EndStagesDate": "20260331",
        "RightSettingContentsCodeName": "農地中間管理権が設定されていない",
        "RightSettingContents": "0",
        "UsageSituationInvestigationDate": "20250804",
        "UsageSituationInvestigationResultCodeName": "遊休農地ではない",
        "UsageSituationInvestigationResult": "3",
        "UseIntentionInvestigationDate": "",
        "OwnerStatementIntentSurveyResultsCodeName": "調査対象外",
        "OwnerStatementIntentSurveyResults": "6",
        "UseIntentionAscertainmentResultCodeName": "対象外",
        "UseIntentionAscertainmentResult": "1",
        "PublicNoticeDate": "",
        "RightOfMiddleManagement": "",
        "RecommendationContenDate": "",
        "ActionOrderDate": "",
        "MayorPublicAnnouncementDate": "",
        "Address": "島根県出雲市斐川町出西796",
        "Tiban": "796",
        "SectionOfPolygon": "3",
        "SectionOfPolygonCodeName": "その他",
        "DaichoId": "320172253",
        "daicho_shubetsu_cd": "KNO01"
      }
    },
    {
      "type": "Feature",
      "geometry": {
        "type": "Point",
        "coordinates": [
          132.79277320832549,
          35.35941080558584
        ]
      },
      "properties": {
        "FarmCommitteeCd": "3220321",
        "FarmCommitteeName": "出雲市農業委員会",
        "TodofukenCode": "32",
        "ShikuchosonCode": "322032",
        "OazaCode": "80022",
        "ClassificationOfLandCodeName": "畑",
        "ClassificationOfLand": "2",
        "AreaOnRegistry": "523",
        "SectionOfNoushinhouCodeName": "農業振興地域内・農用地区域外(白地)",
        "SectionOfNoushinhou": "2",
        "SectionOfToshikeikakuhouCodeName": "設定なし",
        "SectionOfToshikeikakuhou": "0",
        "OwnerFarmIntentionCodeName": "非公表",
        "OwnerFarmIntention": "999",
        "FarmerIndicationNumberHash": "05da996717aee2e23f17767a9d7996ee",
        "KindOfRightCodeName": "賃借権等の設定がない",
        "KindOfRight": "0",
        "CommencementDate": "",
        "EndStagesDate": "",
        "RightSettingContentsCodeName": "農地中間管理権が設定されていない",
        "RightSettingContents": "0",
        "UsageSituationInvestigationDate": "20250804",
        "UsageSituationInvestigationResultCodeName": "遊休農地ではない",
        "UsageSituationInvestigationResult": "3",
        "UseIntentionInvestigationDate": "",
        "OwnerStatementIntentSurveyResultsCodeName": "調査対象外",
        "OwnerStatementIntentSurveyResults": "6",
        "UseIntentionAscertainmentResultCodeName": "対象外",
        "UseIntentionAscertainmentResult": "1",
        "PublicNoticeDate": "",
        "RightOfMiddleManagement": "",
        "RecommendationContenDate": "",
        "ActionOrderDate": "",
        "MayorPublicAnnouncementDate": "",
        "Address": "島根県出雲市斐川町出西3569-1",
        "Tiban": "3569-1",
        "SectionOfPolygon": "3",
        "SectionOfPolygonCodeName": "その他",
        "DaichoId": "320173690",
        "daicho_shubetsu_cd": "KNO01"
      }
    },
    {
      "type": "Feature",
      "geometry": {
        "type": "Point",
        "coordinates": [
          132.79268141461165,
          35.35940077052868
        ]
      },
      "properties": {
        "FarmCommitteeCd": "3220321",
        "FarmCommitteeName": "出雲市農業委員会",
        "TodofukenCode": "32",
        "ShikuchosonCode": "322032",
        "OazaCode": "80022",
        "ClassificationOfLandCodeName": "畑",
        "ClassificationOfLand": "2",
        "AreaOnRegistry": "116",
        "SectionOfNoushinhouCodeName": "農業振興地域内・農用地区域外(白地)",
        "SectionOfNoushinhou": "2",
        "SectionOfToshikeikakuhouCodeName": "設定なし",
        "SectionOfToshikeikakuhou": "0",
        "OwnerFarmIntentionCodeName": "非公表",
        "OwnerFarmIntention": "999",
        "FarmerIndicationNumberHash": "f819a9cb4cc305903e10b84132fafa10",
        "KindOfRightCodeName": "賃借権等の設定がない",
        "KindOfRight": "0",
        "CommencementDate": "",
        "EndStagesDate": "",
        "RightSettingContentsCodeName": "農地中間管理権が設定されていない",
        "RightSettingContents": "0",
        "UsageSituationInvestigationDate": "20250804",
        "UsageSituationInvestigationResultCodeName": "遊休農地ではない",
        "UsageSituationInvestigationResult": "3",
        "UseIntentionInvestigationDate": "",
        "OwnerStatementIntentSurveyResultsCodeName": "調査対象外",
        "OwnerStatementIntentSurveyResults": "6",
        "UseIntentionAscertainmentResultCodeName": "対象外",
        "UseIntentionAscertainmentResult": "1",
        "PublicNoticeDate": "",
        "RightOfMiddleManagement": "",
        "RecommendationContenDate": "",
        "ActionOrderDate": "",
        "MayorPublicAnnouncementDate": "",
        "Address": "島根県出雲市斐川町出西3569-2",
        "Tiban": "3569-2",
        "SectionOfPolygon": "3",
        "SectionOfPolygonCodeName": "その他",
        "DaichoId": "320173691",
        "daicho_shubetsu_cd": "KNO01"
      }
    },
    {
      "type": "Feature",
      "geometry": {
        "type": "Point",
        "coordinates": [
          132.79280174101558,
          35.359499378703866
        ]
      },
      "properties": {
        "FarmCommitteeCd": "3220321",
        "FarmCommitteeName": "出雲市農業委員会",
        "TodofukenCode": "32",
        "ShikuchosonCode": "322032",
        "OazaCode": "80022",
        "ClassificationOfLandCodeName": "畑",
        "ClassificationOfLand": "2",
        "AreaOnRegistry": "607",
        "SectionOfNoushinhouCodeName": "農業振興地域内・農用地区域外(白地)",
        "SectionOfNoushinhou": "2",
        "SectionOfToshikeikakuhouCodeName": "設定なし",
        "SectionOfToshikeikakuhou": "0",
        "OwnerFarmIntentionCodeName": "非公表",
        "OwnerFarmIntention": "999",
        "FarmerIndicationNumberHash": "2ae6c05f01d47c2059c40511e7e9f40f",
        "KindOfRightCodeName": "賃借権等の設定がない",
        "KindOfRight": "0",
        "CommencementDate": "",
        "EndStagesDate": "",
        "RightSettingContentsCodeName": "農地中間管理権が設定されていない",
        "RightSettingContents": "0",
        "UsageSituationInvestigationDate": "20250804",
        "UsageSituationInvestigationResultCodeName": "遊休農地（不耕作緑）",
        "UsageSituationInvestigationResult": "6",
        "UseIntentionInvestigationDate": "20231201",
        "OwnerStatementIntentSurveyResultsCodeName": "調査中",
        "OwnerStatementIntentSurveyResults": "9",
        "UseIntentionAscertainmentResultCodeName": "調査中",
        "UseIntentionAscertainmentResult": "2",
        "PublicNoticeDate": "",
        "RightOfMiddleManagement": "",
        "RecommendationContenDate": "",
        "ActionOrderDate": "",
        "MayorPublicAnnouncementDate": "",
        "Address": "島根県出雲市斐川町出西3570",
        "Tiban": "3570",
        "SectionOfPolygon": "3",
        "SectionOfPolygonCodeName": "その他",
        "DaichoId": "320173692",
        "daicho_shubetsu_cd": "KNO01"
      }
    },
    {
      "type": "Feature",
      "geometry": {
        "type": "Point",
        "coordinates": [
          132.79281595589322,
          35.359599918646964
        ]
      },
      "properties": {
        "FarmCommitteeCd": "3220321",
        "FarmCommitteeName": "出雲市農業委員会",
        "TodofukenCode": "32",
        "ShikuchosonCode": "322032",
        "OazaCode": "80022",
        "ClassificationOfLandCodeName": "畑",
        "ClassificationOfLand": "2",
        "AreaOnRegistry": "732",
        "SectionOfNoushinhouCodeName": "農業振興地域内・農用地区域外(白地)",
        "SectionOfNoushinhou": "2",
        "SectionOfToshikeikakuhouCodeName": "設定なし",
        "SectionOfToshikeikakuhou": "0",
        "OwnerFarmIntentionCodeName": "非公表",
        "OwnerFarmIntention": "999",
        "FarmerIndicationNumberHash": "8fe783235246dc04f165bd4c349af278",
        "KindOfRightCodeName": "賃借権等の設定がない",
        "KindOfRight": "0",
        "CommencementDate": "",
        "EndStagesDate": "",
        "RightSettingContentsCodeName": "農地中間管理権が設定されていない",
        "RightSettingContents": "0",
        "UsageSituationInvestigationDate": "20250804",
        "UsageSituationInvestigationResultCodeName": "遊休農地（不耕作緑）",
        "UsageSituationInvestigationResult": "6",
        "UseIntentionInvestigationDate": "20201125",
        "OwnerStatementIntentSurveyResultsCodeName": "調査中",
        "OwnerStatementIntentSurveyResults": "9",
        "UseIntentionAscertainmentResultCodeName": "調査中",
        "UseIntentionAscertainmentResult": "2",
        "PublicNoticeDate": "",
        "RightOfMiddleManagement": "",
        "RecommendationContenDate": "",
        "ActionOrderDate": "",
        "MayorPublicAnnouncementDate": "",
        "Address": "島根県出雲市斐川町出西3571",
        "Tiban": "3571",
        "SectionOfPolygon": "3",
        "SectionOfPolygonCodeName": "その他",
        "DaichoId": "320173693",
        "daicho_shubetsu_cd": "KNO01"
      }
    },
    {
      "type": "Feature",
      "geometry": {
        "type": "Point",
        "coordinates": [
          132.79311054845067,
          35.36000583283767
        ]
      },
      "properties": {
        "FarmCommitteeCd": "3220321",
        "FarmCommitteeName": "出雲市農業委員会",
        "TodofukenCode": "32",
        "ShikuchosonCode": "322032",
        "OazaCode": "80022",
        "ClassificationOfLandCodeName": "畑",
        "ClassificationOfLand": "2",
        "AreaOnRegistry": "2000",
        "SectionOfNoushinhouCodeName": "農業振興地域内・農用地区域外(白地)",
        "SectionOfNoushinhou": "2",
        "SectionOfToshikeikakuhouCodeName": "設定なし",
        "SectionOfToshikeikakuhou": "0",
        "OwnerFarmIntentionCodeName": "非公表",
        "OwnerFarmIntention": "999",
        "FarmerIndicationNumberHash": "8ba27b32ab012484f7fabcc380155691",
        "KindOfRightCodeName": "賃借権",
        "KindOfRight": "5",
        "CommencementDate": "20230101",
        "EndStagesDate": "20321231",
        "RightSettingContentsCodeName": "農地中間管理権が設定されていない",
        "RightSettingContents": "0",
        "UsageSituationInvestigationDate": "20250804",
        "UsageSituationInvestigationResultCodeName": "遊休農地ではない",
        "UsageSituationInvestigationResult": "3",
        "UseIntentionInvestigationDate": "",
        "OwnerStatementIntentSurveyResultsCodeName": "調査対象外",
        "OwnerStatementIntentSurveyResults": "6",
        "UseIntentionAscertainmentResultCodeName": "対象外",
        "UseIntentionAscertainmentResult": "1",
        "PublicNoticeDate": "",
        "RightOfMiddleManagement": "",
        "RecommendationContenDate": "",
        "ActionOrderDate": "",
        "MayorPublicAnnouncementDate": "",
        "Address": "島根県出雲市斐川町出西3574",
        "Tiban": "3574",
        "SectionOfPolygon": "3",
        "SectionOfPolygonCodeName": "その他",
        "DaichoId": "320173699",
        "daicho_shubetsu_cd": "KNO01"
      }
    },
    {
      "type": "Feature",
      "geometry": {
        "type": "Point",
        "coordinates": [
          132.7932516941014,
          35.36012245554903
        ]
      },
      "properties": {
        "FarmCommitteeCd": "3220321",
        "FarmCommitteeName": "出雲市農業委員会",
        "TodofukenCode": "32",
        "ShikuchosonCode": "322032",
        "OazaCode": "80022",
        "ClassificationOfLandCodeName": "畑",
        "ClassificationOfLand": "2",
        "AreaOnRegistry": "2032",
        "SectionOfNoushinhouCodeName": "農業振興地域内・農用地区域外(白地)",
        "SectionOfNoushinhou": "2",
        "SectionOfToshikeikakuhouCodeName": "設定なし",
        "SectionOfToshikeikakuhou": "0",
        "OwnerFarmIntentionCodeName": "非公表",
        "OwnerFarmIntention": "999",
        "FarmerIndicationNumberHash": "8ba27b32ab012484f7fabcc380155691",
        "KindOfRightCodeName": "賃借権",
        "KindOfRight": "5",
        "CommencementDate": "20180101",
        "EndStagesDate": "20271231",
        "RightSettingContentsCodeName": "農地中間管理権が設定されていない",
        "RightSettingContents": "0",
        "UsageSituationInvestigationDate": "20250804",
        "UsageSituationInvestigationResultCodeName": "遊休農地ではない",
        "UsageSituationInvestigationResult": "3",
        "UseIntentionInvestigationDate": "",
        "OwnerStatementIntentSurveyResultsCodeName": "調査対象外",
        "OwnerStatementIntentSurveyResults": "6",
        "UseIntentionAscertainmentResultCodeName": "対象外",
        "UseIntentionAscertainmentResult": "1",
        "PublicNoticeDate": "",
        "RightOfMiddleManagement": "",
        "RecommendationContenDate": "",
        "ActionOrderDate": "",
        "MayorPublicAnnouncementDate": "",
        "Address": "島根県出雲市斐川町出西3575",
        "Tiban": "3575",
        "SectionOfPolygon": "3",
        "SectionOfPolygonCodeName": "その他",
        "DaichoId": "320173700",
        "daicho_shubetsu_cd": "KNO01"
      }
    },
    {
      "type": "Feature",
      "geometry": {
        "type": "Point",
        "coordinates": [
          132.79339264818168,
          35.36023959179514
        ]
      },
      "properties": {
        "FarmCommitteeCd": "3220321",
        "FarmCommitteeName": "出雲市農業委員会",
        "TodofukenCode": "32",
        "ShikuchosonCode": "322032",
        "OazaCode": "80022",
        "ClassificationOfLandCodeName": "畑",
        "ClassificationOfLand": "2",
        "AreaOnRegistry": "1993",
        "SectionOfNoushinhouCodeName": "農業振興地域内・農用地区域外(白地)",
        "SectionOfNoushinhou": "2",
        "SectionOfToshikeikakuhouCodeName": "設定なし",
        "SectionOfToshikeikakuhou": "0",
        "OwnerFarmIntentionCodeName": "非公表",
        "OwnerFarmIntention": "999",
        "FarmerIndicationNumberHash": "8ba27b32ab012484f7fabcc380155691",
        "KindOfRightCodeName": "賃借権",
        "KindOfRight": "5",
        "CommencementDate": "20170330",
        "EndStagesDate": "20270331",
        "RightSettingContentsCodeName": "農地中間管理権が設定されていない",
        "RightSettingContents": "0",
        "UsageSituationInvestigationDate": "20250804",
        "UsageSituationInvestigationResultCodeName": "遊休農地ではない",
        "UsageSituationInvestigationResult": "3",
        "UseIntentionInvestigationDate": "",
        "OwnerStatementIntentSurveyResultsCodeName": "調査対象外",
        "OwnerStatementIntentSurveyResults": "6",
        "UseIntentionAscertainmentResultCodeName": "対象外",
        "UseIntentionAscertainmentResult": "1",
        "PublicNoticeDate": "",
        "RightOfMiddleManagement": "",
        "RecommendationContenDate": "",
        "ActionOrderDate": "",
        "MayorPublicAnnouncementDate": "",
        "Address": "島根県出雲市斐川町出西3576",
        "Tiban": "3576",
        "SectionOfPolygon": "3",
        "SectionOfPolygonCodeName": "その他",
        "DaichoId": "320173701",
        "daicho_shubetsu_cd": "KNO01"
      }
    },
    {
      "type": "Feature",
      "geometry": {
        "type": "Point",
        "coordinates": [
          132.79353656360811,
          35.360353725092786
        ]
      },
      "properties": {
        "FarmCommitteeCd": "3220321",
        "FarmCommitteeName": "出雲市農業委員会",
        "TodofukenCode": "32",
        "ShikuchosonCode": "322032",
        "OazaCode": "80022",
        "ClassificationOfLandCodeName": "畑",
        "ClassificationOfLand": "2",
        "AreaOnRegistry": "2030",
        "SectionOfNoushinhouCodeName": "農業振興地域内・農用地区域外(白地)",
        "SectionOfNoushinhou": "2",
        "SectionOfToshikeikakuhouCodeName": "設定なし",
        "SectionOfToshikeikakuhou": "0",
        "OwnerFarmIntentionCodeName": "非公表",
        "OwnerFarmIntention": "999",
        "FarmerIndicationNumberHash": "75bbcdaa0bf50e7276fd4914be65775d",
        "KindOfRightCodeName": "賃借権",
        "KindOfRight": "5",
        "CommencementDate": "20221108",
        "EndStagesDate": "20320331",
        "RightSettingContentsCodeName": "農地中間管理権が設定されていない",
        "RightSettingContents": "0",
        "UsageSituationInvestigationDate": "20250804",
        "UsageSituationInvestigationResultCodeName": "遊休農地ではない",
        "UsageSituationInvestigationResult": "3",
        "UseIntentionInvestigationDate": "",
        "OwnerStatementIntentSurveyResultsCodeName": "調査対象外",
        "OwnerStatementIntentSurveyResults": "6",
        "UseIntentionAscertainmentResultCodeName": "対象外",
        "UseIntentionAscertainmentResult": "1",
        "PublicNoticeDate": "",
        "RightOfMiddleManagement": "",
        "RecommendationContenDate": "",
        "ActionOrderDate": "",
        "MayorPublicAnnouncementDate": "",
        "Address": "島根県出雲市斐川町出西3577",
        "Tiban": "3577",
        "SectionOfPolygon": "3",
        "SectionOfPolygonCodeName": "その他",
        "DaichoId": "320173702",
        "daicho_shubetsu_cd": "KNO01"
      }
    }
  ]
}