{
  "type": "FeatureCollection",
  "features": [
    {
      "type": "Feature",
      "geometry": {
        "type": "Polygon",
        "coordinates": [
          [
            [
              132.807585,
              35.368627
            ],
            [
              132.807762,
              35.368295
            ],
            [
              132.807672,
              35.368265
            ],
            [
              132.807378,
              35.368163
            ],
            [
              132.807351,
              35.368212
            ],
            [
              132.807324,
              35.368257
            ],
            [
              132.807465,
              35.368467
            ],
            [
              132.80753,
              35.368564
            ],
            [
              132.807565,
              35.368615
            ],
            [
              132.807585,
              35.368627
            ]
          ]
        ]
      },
      "properties": {
        "polygon_uuid": "343d6019-e6a7-4e21-bd3a-7d8fe109b9e7",
        "daicho_shubetsu_cd": "FUD25",
        "SelectedCrop": "2号遊休農地低利用"
      }
    },
    {
      "type": "Feature",
      "geometry": {
        "type": "Polygon",
        "coordinates": [
          [
            [
              132.806689,
              35.368354
            ],
            [
              132.807512,
              35.369019
            ],
            [
              132.807542,
              35.368991
            ],
            [
              132.80756,
              35.368953
            ],
            [
              132.807502,
              35.368831
            ],
            [
              132.807376,
              35.368585
            ],
            [
              132.807238,
              35.368689
            ],
            [
              132.806843,
              35.368264
            ],
            [
              132.806804,
              35.368266
            ],
            [
              132.806689,
              35.368354
            ]
          ]
        ]
      },
      "properties": {
        "polygon_uuid": "caf515bd-6369-4061-99aa-efa3361d6637",
        "daicho_shubetsu_cd": "FUD25",
        "SelectedCrop": "2号遊休農地低利用"
      }
    },
    {
      "type": "Feature",
      "geometry": {
        "type": "Polygon",
        "coordinates": [
          [
            [
              132.800999,
              35.347305
            ],
            [
              132.800818,
              35.347303
            ],
            [
              132.800735,
              35.347306
            ],
            [
              132.800733,
              35.347317
            ],
            [
              132.800744,
              35.347483
            ],
            [
              132.800809,
              35.347485
            ],
            [
              132.800945,
              35.347488
            ],
            [
              132.800997,
              35.347488
            ],
            [
              132.800999,
              35.347305
            ]
          ]
        ]
      },
      "properties": {
        "polygon_uuid": "fad59ce3-7d93-4851-9fcf-02a5dde1dfe0",
        "daicho_shubetsu_cd": "FUD25"
      }
    },
    {
      "type": "Feature",
      "geometry": {
        "type": "Polygon",
        "coordinates": [
          [
            [
              132.805659,
              35.347616
            ],
            [
              132.804903,
              35.347605
            ],
            [
              132.804916,
              35.347781
            ],
            [
              132.805196,
              35.347777
            ],
            [
              132.805307,
              35.347775
            ],
            [
              132.805424,
              35.347774
            ],
            [
              132.80557,
              35.347771
            ],
            [
              132.805619,
              35.347768
            ],
            [
              132.805689,
              35.347768
            ],
            [
              132.805735,
              35.347763
            ],
            [
              132.805767,
              35.347764
            ],
            [
              132.805775,
              35.347618
            ],
            [
              132.805659,
              35.347616
            ]
          ]
        ]
      },
      "properties": {
        "polygon_uuid": "b7fdab81-ff41-4b8e-a8a2-07dad0e0fd52",
        "daicho_shubetsu_cd": "FUD25"
      }
    },
    {
      "type": "Feature",
      "geometry": {
        "type": "Polygon",
        "coordinates": [
          [
            [
              132.799797,
              35.347242
            ],
            [
              132.799777,
              35.347243
            ],
            [
              132.799768,
              35.347244
            ],
            [
              132.799772,
              35.34757
            ],
            [
              132.799908,
              35.347607
            ],
            [
              132.800001,
              35.347625
            ],
            [
              132.800061,
              35.347629
            ],
            [
              132.800144,
              35.347621
            ],
            [
              132.800197,
              35.347591
            ],
            [
              132.800274,
              35.347536
            ],
            [
              132.800389,
              35.347411
            ],
            [
              132.800389,
              35.347383
            ],
            [
              132.800387,
              35.347354
            ],
            [
              132.800384,
              35.347293
            ],
            [
              132.800385,
              35.347274
            ],
            [
              132.800385,
              35.347259
            ],
            [
              132.800383,
              35.347222
            ],
            [
              132.800234,
              35.347228
            ],
            [
              132.800092,
              35.347232
            ],
            [
              132.800055,
              35.347233
            ],
            [
              132.799797,
              35.347242
            ]
          ]
        ]
      },
      "properties": {
        "polygon_uuid": "db8750a3-cd87-43b8-a904-1ba26760565d",
        "daicho_shubetsu_cd": "FUD25"
      }
    },
    {
      "type": "Feature",
      "geometry": {
        "type": "Polygon",
        "coordinates": [
          [
            [
              132.798744,
              35.347249
            ],
            [
              132.799146,
              35.347363
            ],
            [
              132.799204,
              35.347215
            ],
            [
              132.798576,
              35.347151
            ],
            [
              132.798651,
              35.347205
            ],
            [
              132.798744,
              35.347249
            ]
          ]
        ]
      },
      "properties": {
        "polygon_uuid": "480027c6-1a5f-4fda-b139-5dc05a8c9e85",
        "daicho_shubetsu_cd": "FUD25"
      }
    },
    {
      "type": "Feature",
      "geometry": {
        "type": "Polygon",
        "coordinates": [
          [
            [
              132.799254,
              35.347218
            ],
            [
              132.799232,
              35.347216
            ],
            [
              132.799169,
              35.347371
            ],
            [
              132.799189,
              35.347375
            ],
            [
              132.799772,
              35.34757
            ],
            [
              132.799768,
              35.347244
            ],
            [
              132.799777,
              35.347243
            ],
            [
              132.799469,
              35.347238
            ],
            [
              132.799254,
              35.347218
            ]
          ]
        ]
      },
      "properties": {
        "polygon_uuid": "b207bc81-3bb7-4188-9cbf-63bb5c23099a",
        "daicho_shubetsu_cd": "FUD25"
      }
    },
    {
      "type": "Feature",
      "geometry": {
        "type": "Polygon",
        "coordinates": [
          [
            [
              132.793757,
              35.349832
            ],
            [
              132.793791,
              35.349783
            ],
            [
              132.793819,
              35.34975
            ],
            [
              132.793821,
              35.349722
            ],
            [
              132.793789,
              35.349682
            ],
            [
              132.793722,
              35.349647
            ],
            [
              132.793682,
              35.349699
            ],
            [
              132.793605,
              35.349666
            ],
            [
              132.793568,
              35.349778
            ],
            [
              132.793517,
              35.349969
            ],
            [
              132.793727,
              35.350058
            ],
            [
              132.793838,
              35.350104
            ],
            [
              132.793937,
              35.349918
            ],
            [
              132.793757,
              35.349832
            ]
          ]
        ]
      },
      "properties": {
        "polygon_uuid": "62a736fe-892b-44fe-90c0-f67b1a8e675b",
        "daicho_shubetsu_cd": "FUD25"
      }
    },
    {
      "type": "Feature",
      "geometry": {
        "type": "Polygon",
        "coordinates": [
          [
            [
              132.792562,
              35.36087
            ],
            [
              132.79242,
              35.360763
            ],
            [
              132.792322,
              35.360846
            ],
            [
              132.792458,
              35.360947
            ],
            [
              132.792579,
              35.36106
            ],
            [
              132.792587,
              35.361054
            ],
            [
              132.792667,
              35.360994
            ],
            [
              132.792767,
              35.360919
            ],
            [
              132.792851,
              35.360857
            ],
            [
              132.793027,
              35.360722
            ],
            [
              132.792894,
              35.360606
            ],
            [
              132.792562,
              35.36087
            ]
          ]
        ]
      },
      "properties": {
        "polygon_uuid": "0c0fb4f5-f42e-4d7b-98fe-31547e39a633",
        "daicho_shubetsu_cd": "FUD25",
        "SelectedCrop": "2号遊休農地低利用"
      }
    },
    {
      "type": "Feature",
      "geometry": {
        "type": "Polygon",
        "coordinates": [
          [
            [
              132.792592,
              35.361325
            ],
            [
              132.792696,
              35.361242
            ],
            [
              132.793172,
              35.36085
            ],
            [
              132.793027,
              35.360722
            ],
            [
              132.792851,
              35.360857
            ],
            [
              132.792767,
              35.360919
            ],
            [
              132.792667,
              35.360994
            ],
            [
              132.792587,
              35.361054
            ],
            [
              132.792639,
              35.361102
            ],
            [
              132.792585,
              35.361146
            ],
            [
              132.79249,
              35.361221
            ],
            [
              132.792419,
              35.361274
            ],
            [
              132.792381,
              35.361307
            ],
            [
              132.79243,
              35.36135
            ],
            [
              132.79235,
              35.361422
            ],
            [
              132.792401,
              35.36147
            ],
            [
              132.792449,
              35.361425
            ],
            [
              132.792475,
              35.361418
            ],
            [
              132.792592,
              35.361325
            ]
          ]
        ]
      },
      "properties": {
        "polygon_uuid": "e92c36d1-5451-4c8a-af97-84b7ddc5723d",
        "daicho_shubetsu_cd": "FUD25",
        "SelectedCrop": "2号遊休農地低利用"
      }
    },
    {
      "type": "Feature",
      "geometry": {
        "type": "Polygon",
        "coordinates": [
          [
            [
              132.792592,
              35.361325
            ],
            [
              132.79268,
              35.36141
            ],
            [
              132.792785,
              35.361329
            ],
            [
              132.792993,
              35.361172
            ],
            [
              132.793284,
              35.360938
            ],
            [
              132.793172,
              35.36085
            ],
            [
              132.792696,
              35.361242
            ],
            [
              132.792592,
              35.361325
            ]
          ]
        ]
      },
      "properties": {
        "polygon_uuid": "99f32bf4-4f93-41b5-8318-ac7d6ad50517",
        "daicho_shubetsu_cd": "FUD25",
        "SelectedCrop": "2号遊休農地低利用"
      }
    }
  ]
}