{
  "type": "FeatureCollection",
  "features": [
    {
      "type": "Feature",
      "geometry": {
        "type": "Polygon",
        "coordinates": [
          [
            [
              132.792098565,
              35.353541383
            ],
            [
              132.791837383,
              35.353496657
            ],
            [
              132.791821397,
              35.353537809
            ],
            [
              132.791792931,
              35.353615683
            ],
            [
              132.791775062,
              35.353676878
            ],
            [
              132.791766567,
              35.353703392
            ],
            [
              132.792297696,
              35.353816698
            ],
            [
              132.792306258,
              35.353784385
            ],
            [
              132.792326184,
              35.353725851
            ],
            [
              132.792361807,
              35.353588769
            ],
            [
              132.792098565,
              35.353541383
            ]
          ]
        ]
      },
      "properties": {
        "polygon_uuid": "9132e8c1-b22c-42ea-a8f9-0b88f71edd6e",
        "daicho_shubetsu_cd": "FUD25"
      }
    },
    {
      "type": "Feature",
      "geometry": {
        "type": "Polygon",
        "coordinates": [
          [
            [
              132.794349426,
              35.358643852
            ],
            [
              132.794379806,
              35.35861932
            ],
            [
              132.794481067,
              35.358537324
            ],
            [
              132.793716491,
              35.357924838
            ],
            [
              132.793661826,
              35.357968391
            ],
            [
              132.79361576,
              35.35800495
            ],
            [
              132.793581689,
              35.358029229
            ],
            [
              132.794349426,
              35.358643852
            ]
          ]
        ]
      },
      "properties": {
        "polygon_uuid": "eb109d61-7667-4cc3-9d57-0827a63ec5d0",
        "daicho_shubetsu_cd": "FUD25"
      }
    },
    {
      "type": "Feature",
      "geometry": {
        "type": "Polygon",
        "coordinates": [
          [
            [
              132.793989007,
              35.358945227
            ],
            [
              132.794057829,
              35.358884769
            ],
            [
              132.793287052,
              35.358235794
            ],
            [
              132.79322293,
              35.358283011
            ],
            [
              132.793989007,
              35.358945227
            ]
          ]
        ]
      },
      "properties": {
        "polygon_uuid": "ba2fed15-cf11-44e0-8a4c-0be0371decea",
        "daicho_shubetsu_cd": "FUD25"
      }
    },
    {
      "type": "Feature",
      "geometry": {
        "type": "Polygon",
        "coordinates": [
          [
            [
              132.79413272,
              35.358818602
            ],
            [
              132.794349426,
              35.358643852
            ],
            [
              132.793581689,
              35.358029229
            ],
            [
              132.793443412,
              35.358128998
            ],
            [
              132.793363207,
              35.358181251
            ],
            [
              132.79413272,
              35.358818602
            ]
          ]
        ]
      },
      "properties": {
        "polygon_uuid": "e091cb51-87c3-40c3-aad9-8d5d33be0d8e",
        "daicho_shubetsu_cd": "FUD25"
      }
    },
    {
      "type": "Feature",
      "geometry": {
        "type": "Polygon",
        "coordinates": [
          [
            [
              132.793683592,
              35.359204905
            ],
            [
              132.793734891,
              35.359161895
            ],
            [
              132.793829603,
              35.35907756
            ],
            [
              132.793067038,
              35.358450556
            ],
            [
              132.792980995,
              35.358529583
            ],
            [
              132.792934992,
              35.358574395
            ],
            [
              132.793683592,
              35.359204905
            ]
          ]
        ]
      },
      "properties": {
        "polygon_uuid": "fb93587e-08ce-486c-905f-a621599c57e8",
        "daicho_shubetsu_cd": "FUD25"
      }
    },
    {
      "type": "Feature",
      "geometry": {
        "type": "Polygon",
        "coordinates": [
          [
            [
              132.793829603,
              35.35907756
            ],
            [
              132.793855753,
              35.359056425
            ],
            [
              132.793893798,
              35.359024861
            ],
            [
              132.793989007,
              35.358945227
            ],
            [
              132.79322293,
              35.358283011
            ],
            [
              132.793178763,
              35.358304701
            ],
            [
              132.793177131,
              35.358354236
            ],
            [
              132.793167297,
              35.358385652
            ],
            [
              132.793147287,
              35.358403916
            ],
            [
              132.793123284,
              35.358427153
            ],
            [
              132.793067038,
              35.358450556
            ],
            [
              132.793829603,
              35.35907756
            ]
          ]
        ]
      },
      "properties": {
        "polygon_uuid": "3ab0b47a-4641-4ef3-a22e-a8bfe49a6cf3",
        "daicho_shubetsu_cd": "FUD25"
      }
    },
    {
      "type": "Feature",
      "geometry": {
        "type": "Polygon",
        "coordinates": [
          [
            [
              132.793113908,
              35.355191909
            ],
            [
              132.793258366,
              35.355551179
            ],
            [
              132.793349234,
              35.355528436
            ],
            [
              132.793452512,
              35.355497336
            ],
            [
              132.793292836,
              35.355139895
            ],
            [
              132.793203382,
              35.355167071
            ],
            [
              132.793113908,
              35.355191909
            ]
          ]
        ]
      },
      "properties": {
        "polygon_uuid": "77d85010-275e-4631-8f01-f617ebc8d416",
        "daicho_shubetsu_cd": "FUD25"
      }
    },
    {
      "type": "Feature",
      "geometry": {
        "type": "Polygon",
        "coordinates": [
          [
            [
              132.792778713,
              35.355591648
            ],
            [
              132.79293528,
              35.355546763
            ],
            [
              132.793079768,
              35.355520972
            ],
            [
              132.793216183,
              35.355505239
            ],
            [
              132.793087482,
              35.355200393
            ],
            [
              132.793034624,
              35.355216693
            ],
            [
              132.792851651,
              35.355272735
            ],
            [
              132.792652445,
              35.355337874
            ],
            [
              132.792778713,
              35.355591648
            ]
          ]
        ]
      },
      "properties": {
        "polygon_uuid": "dfd1edc7-f674-428d-9929-fbb914732076",
        "daicho_shubetsu_cd": "FUD25"
      }
    }
  ]
}