{
  "type": "FeatureCollection",
  "features": [
    {
      "type": "Feature",
      "geometry": {
        "type": "Point",
        "coordinates": [
          132.79210758724707,
          35.35354888710932
        ]
      },
      "properties": {
        "FarmCommitteeCd": "3220321",
        "FarmCommitteeName": "出雲市農業委員会",
        "TodofukenCode": "32",
        "ShikuchosonCode": "322032",
        "OazaCode": "80022",
        "ClassificationOfLandCodeName": "田",
        "ClassificationOfLand": "1",
        "AreaOnRegistry": "263",
        "SectionOfNoushinhouCodeName": "農業振興地域内・農用地区域内(青地)",
        "SectionOfNoushinhou": "1",
        "SectionOfToshikeikakuhouCodeName": "設定なし",
        "SectionOfToshikeikakuhou": "0",
        "OwnerFarmIntentionCodeName": "非公表",
        "OwnerFarmIntention": "999",
        "FarmerIndicationNumberHash": "8fe783235246dc04f165bd4c349af278",
        "KindOfRightCodeName": "賃借権等の設定がない",
        "KindOfRight": "0",
        "CommencementDate": "",
        "EndStagesDate": "",
        "RightSettingContentsCodeName": "農地中間管理権が設定されていない",
        "RightSettingContents": "0",
        "UsageSituationInvestigationDate": "20250804",
        "UsageSituationInvestigationResultCodeName": "遊休農地（不耕作黄）",
        "UsageSituationInvestigationResult": "7",
        "UseIntentionInvestigationDate": "",
        "OwnerStatementIntentSurveyResultsCodeName": "調査中",
        "OwnerStatementIntentSurveyResults": "9",
        "UseIntentionAscertainmentResultCodeName": "調査中",
        "UseIntentionAscertainmentResult": "2",
        "PublicNoticeDate": "",
        "RightOfMiddleManagement": "",
        "RecommendationContenDate": "",
        "ActionOrderDate": "",
        "MayorPublicAnnouncementDate": "",
        "Address": "島根県出雲市斐川町出西844-1",
        "Tiban": "844-1",
        "SectionOfPolygon": "3",
        "SectionOfPolygonCodeName": "その他",
        "DaichoId": "320172302",
        "daicho_shubetsu_cd": "KNO01"
      }
    },
    {
      "type": "Feature",
      "geometry": {
        "type": "Point",
        "coordinates": [
          132.79212570391556,
          35.35349176862588
        ]
      },
      "properties": {
        "FarmCommitteeCd": "3220321",
        "FarmCommitteeName": "出雲市農業委員会",
        "TodofukenCode": "32",
        "ShikuchosonCode": "322032",
        "OazaCode": "80022",
        "ClassificationOfLandCodeName": "田",
        "ClassificationOfLand": "1",
        "AreaOnRegistry": "320",
        "SectionOfNoushinhouCodeName": "農業振興地域内・農用地区域内(青地)",
        "SectionOfNoushinhou": "1",
        "SectionOfToshikeikakuhouCodeName": "設定なし",
        "SectionOfToshikeikakuhou": "0",
        "OwnerFarmIntentionCodeName": "非公表",
        "OwnerFarmIntention": "999",
        "FarmerIndicationNumberHash": "8fe783235246dc04f165bd4c349af278",
        "KindOfRightCodeName": "賃借権等の設定がない",
        "KindOfRight": "0",
        "CommencementDate": "",
        "EndStagesDate": "",
        "RightSettingContentsCodeName": "農地中間管理権が設定されていない",
        "RightSettingContents": "0",
        "UsageSituationInvestigationDate": "20250804",
        "UsageSituationInvestigationResultCodeName": "遊休農地（不耕作黄）",
        "UsageSituationInvestigationResult": "7",
        "UseIntentionInvestigationDate": "",
        "OwnerStatementIntentSurveyResultsCodeName": "調査中",
        "OwnerStatementIntentSurveyResults": "9",
        "UseIntentionAscertainmentResultCodeName": "調査中",
        "UseIntentionAscertainmentResult": "2",
        "PublicNoticeDate": "",
        "RightOfMiddleManagement": "",
        "RecommendationContenDate": "",
        "ActionOrderDate": "",
        "MayorPublicAnnouncementDate": "",
        "Address": "島根県出雲市斐川町出西845-1",
        "Tiban": "845-1",
        "SectionOfPolygon": "3",
        "SectionOfPolygonCodeName": "その他",
        "DaichoId": "320172303",
        "daicho_shubetsu_cd": "KNO01"
      }
    },
    {
      "type": "Feature",
      "geometry": {
        "type": "Point",
        "coordinates": [
          132.7929529124979,
          35.35547224324823
        ]
      },
      "properties": {
        "FarmCommitteeCd": "3220321",
        "FarmCommitteeName": "出雲市農業委員会",
        "TodofukenCode": "32",
        "ShikuchosonCode": "322032",
        "OazaCode": "80022",
        "ClassificationOfLandCodeName": "田",
        "ClassificationOfLand": "1",
        "AreaOnRegistry": "1244",
        "SectionOfNoushinhouCodeName": "農業振興地域内・農用地区域内(青地)",
        "SectionOfNoushinhou": "1",
        "SectionOfToshikeikakuhouCodeName": "設定なし",
        "SectionOfToshikeikakuhou": "0",
        "OwnerFarmIntentionCodeName": "非公表",
        "OwnerFarmIntention": "999",
        "FarmerIndicationNumberHash": "8fe783235246dc04f165bd4c349af278",
        "KindOfRightCodeName": "賃借権等の設定がない",
        "KindOfRight": "0",
        "CommencementDate": "",
        "EndStagesDate": "",
        "RightSettingContentsCodeName": "農地中間管理権が設定されていない",
        "RightSettingContents": "0",
        "UsageSituationInvestigationDate": "20250804",
        "UsageSituationInvestigationResultCodeName": "遊休農地（不耕作黄）",
        "UsageSituationInvestigationResult": "7",
        "UseIntentionInvestigationDate": "20231201",
        "OwnerStatementIntentSurveyResultsCodeName": "調査中",
        "OwnerStatementIntentSurveyResults": "9",
        "UseIntentionAscertainmentResultCodeName": "調査中",
        "UseIntentionAscertainmentResult": "2",
        "PublicNoticeDate": "",
        "RightOfMiddleManagement": "",
        "RecommendationContenDate": "",
        "ActionOrderDate": "",
        "MayorPublicAnnouncementDate": "",
        "Address": "島根県出雲市斐川町出西913-1",
        "Tiban": "913-1",
        "SectionOfPolygon": "3",
        "SectionOfPolygonCodeName": "その他",
        "DaichoId": "320172346",
        "daicho_shubetsu_cd": "KNO01"
      }
    },
    {
      "type": "Feature",
      "geometry": {
        "type": "Point",
        "coordinates": [
          132.79312166432297,
          35.35533520923746
        ]
      },
      "properties": {
        "FarmCommitteeCd": "3220321",
        "FarmCommitteeName": "出雲市農業委員会",
        "TodofukenCode": "32",
        "ShikuchosonCode": "322032",
        "OazaCode": "80022",
        "ClassificationOfLandCodeName": "田",
        "ClassificationOfLand": "1",
        "AreaOnRegistry": "17",
        "SectionOfNoushinhouCodeName": "農業振興地域内・農用地区域内(青地)",
        "SectionOfNoushinhou": "1",
        "SectionOfToshikeikakuhouCodeName": "設定なし",
        "SectionOfToshikeikakuhou": "0",
        "OwnerFarmIntentionCodeName": "非公表",
        "OwnerFarmIntention": "999",
        "FarmerIndicationNumberHash": "8fe783235246dc04f165bd4c349af278",
        "KindOfRightCodeName": "賃借権等の設定がない",
        "KindOfRight": "0",
        "CommencementDate": "",
        "EndStagesDate": "",
        "RightSettingContentsCodeName": "農地中間管理権が設定されていない",
        "RightSettingContents": "0",
        "UsageSituationInvestigationDate": "20250804",
        "UsageSituationInvestigationResultCodeName": "遊休農地（不耕作黄）",
        "UsageSituationInvestigationResult": "7",
        "UseIntentionInvestigationDate": "20231201",
        "OwnerStatementIntentSurveyResultsCodeName": "調査中",
        "OwnerStatementIntentSurveyResults": "9",
        "UseIntentionAscertainmentResultCodeName": "調査中",
        "UseIntentionAscertainmentResult": "2",
        "PublicNoticeDate": "",
        "RightOfMiddleManagement": "",
        "RecommendationContenDate": "",
        "ActionOrderDate": "",
        "MayorPublicAnnouncementDate": "",
        "Address": "島根県出雲市斐川町出西913-2",
        "Tiban": "913-2",
        "SectionOfPolygon": "3",
        "SectionOfPolygonCodeName": "その他",
        "DaichoId": "320172347",
        "daicho_shubetsu_cd": "KNO01"
      }
    },
    {
      "type": "Feature",
      "geometry": {
        "type": "Point",
        "coordinates": [
          132.79325117509222,
          35.358063185250174
        ]
      },
      "properties": {
        "FarmCommitteeCd": "3220321",
        "FarmCommitteeName": "出雲市農業委員会",
        "TodofukenCode": "32",
        "ShikuchosonCode": "322032",
        "OazaCode": "80022",
        "ClassificationOfLandCodeName": "田",
        "ClassificationOfLand": "1",
        "AreaOnRegistry": "429",
        "SectionOfNoushinhouCodeName": "農業振興地域内・農用地区域内(青地)",
        "SectionOfNoushinhou": "1",
        "SectionOfToshikeikakuhouCodeName": "設定なし",
        "SectionOfToshikeikakuhou": "0",
        "OwnerFarmIntentionCodeName": "非公表",
        "OwnerFarmIntention": "999",
        "FarmerIndicationNumberHash": "8fe783235246dc04f165bd4c349af278",
        "KindOfRightCodeName": "賃借権等の設定がない",
        "KindOfRight": "0",
        "CommencementDate": "",
        "EndStagesDate": "",
        "RightSettingContentsCodeName": "農地中間管理権が設定されていない",
        "RightSettingContents": "0",
        "UsageSituationInvestigationDate": "20250804",
        "UsageSituationInvestigationResultCodeName": "遊休農地（不耕作黄）",
        "UsageSituationInvestigationResult": "7",
        "UseIntentionInvestigationDate": "20231201",
        "OwnerStatementIntentSurveyResultsCodeName": "調査中",
        "OwnerStatementIntentSurveyResults": "9",
        "UseIntentionAscertainmentResultCodeName": "調査中",
        "UseIntentionAscertainmentResult": "2",
        "PublicNoticeDate": "",
        "RightOfMiddleManagement": "",
        "RecommendationContenDate": "",
        "ActionOrderDate": "",
        "MayorPublicAnnouncementDate": "",
        "Address": "島根県出雲市斐川町出西1039",
        "Tiban": "1039",
        "SectionOfPolygon": "3",
        "SectionOfPolygonCodeName": "その他",
        "DaichoId": "320172446",
        "daicho_shubetsu_cd": "KNO01"
      }
    },
    {
      "type": "Feature",
      "geometry": {
        "type": "Point",
        "coordinates": [
          132.79373097096,
          35.358575006554595
        ]
      },
      "properties": {
        "FarmCommitteeCd": "3220321",
        "FarmCommitteeName": "出雲市農業委員会",
        "TodofukenCode": "32",
        "ShikuchosonCode": "322032",
        "OazaCode": "80022",
        "ClassificationOfLandCodeName": "その他",
        "ClassificationOfLand": "9",
        "AreaOnRegistry": "840",
        "SectionOfNoushinhouCodeName": "農業振興地域内・農用地区域内(青地)",
        "SectionOfNoushinhou": "1",
        "SectionOfToshikeikakuhouCodeName": "設定なし",
        "SectionOfToshikeikakuhou": "0",
        "OwnerFarmIntentionCodeName": "非公表",
        "OwnerFarmIntention": "999",
        "FarmerIndicationNumberHash": "8fe783235246dc04f165bd4c349af278",
        "KindOfRightCodeName": "賃借権等の設定がない",
        "KindOfRight": "0",
        "CommencementDate": "",
        "EndStagesDate": "",
        "RightSettingContentsCodeName": "農地中間管理権が設定されていない",
        "RightSettingContents": "0",
        "UsageSituationInvestigationDate": "20250912",
        "UsageSituationInvestigationResultCodeName": "遊休農地（不耕作黄）",
        "UsageSituationInvestigationResult": "7",
        "UseIntentionInvestigationDate": "20231201",
        "OwnerStatementIntentSurveyResultsCodeName": "調査中",
        "OwnerStatementIntentSurveyResults": "9",
        "UseIntentionAscertainmentResultCodeName": "調査中",
        "UseIntentionAscertainmentResult": "2",
        "PublicNoticeDate": "",
        "RightOfMiddleManagement": "",
        "RecommendationContenDate": "",
        "ActionOrderDate": "",
        "MayorPublicAnnouncementDate": "",
        "Address": "島根県出雲市斐川町出西1083",
        "Tiban": "1083",
        "SectionOfPolygon": "3",
        "SectionOfPolygonCodeName": "その他",
        "DaichoId": "320172481",
        "daicho_shubetsu_cd": "KNO01"
      }
    }
  ]
}