{
  "type": "FeatureCollection",
  "features": [
    {
      "type": "Feature",
      "geometry": {
        "type": "Polygon",
        "coordinates": [
          [
            [
              132.805284682,
              35.3668056
            ],
            [
              132.805340011,
              35.366843705
            ],
            [
              132.805684476,
              35.367104993
            ],
            [
              132.805962265,
              35.366922887
            ],
            [
              132.805904541,
              35.366839719
            ],
            [
              132.805764554,
              35.366921262
            ],
            [
              132.805678187,
              35.366824221
            ],
            [
              132.805832394,
              35.366736593
            ],
            [
              132.805706881,
              35.366586004
            ],
            [
              132.805469365,
              35.366705792
            ],
            [
              132.805284682,
              35.3668056
            ]
          ]
        ]
      },
      "properties": {
        "polygon_uuid": "6d1e3e26-005c-488c-a7ac-1885f6bc67dc",
        "daicho_shubetsu_cd": "FUD25"
      }
    },
    {
      "type": "Feature",
      "geometry": {
        "type": "Polygon",
        "coordinates": [
          [
            [
              132.805284682,
              35.3668056
            ],
            [
              132.805150946,
              35.366904805
            ],
            [
              132.805059817,
              35.366979411
            ],
            [
              132.805882411,
              35.367651866
            ],
            [
              132.806115332,
              35.36746599
            ],
            [
              132.80583427,
              35.367233084
            ],
            [
              132.805684476,
              35.367104993
            ],
            [
              132.805340011,
              35.366843705
            ],
            [
              132.805284682,
              35.3668056
            ]
          ]
        ]
      },
      "properties": {
        "polygon_uuid": "94dec5bd-3d43-4e53-aa87-59b599f9a68e",
        "daicho_shubetsu_cd": "FUD25"
      }
    },
    {
      "type": "Feature",
      "geometry": {
        "type": "Polygon",
        "coordinates": [
          [
            [
              132.807584803,
              35.368627459
            ],
            [
              132.807712942,
              35.368872292
            ],
            [
              132.807979001,
              35.368369332
            ],
            [
              132.807813462,
              35.368312781
            ],
            [
              132.807762365,
              35.368294689
            ],
            [
              132.807584803,
              35.368627459
            ]
          ]
        ]
      },
      "properties": {
        "polygon_uuid": "2511dd3f-f92c-4bfa-a2ea-68b7435e2054",
        "daicho_shubetsu_cd": "FUD25"
      }
    },
    {
      "type": "Feature",
      "geometry": {
        "type": "Polygon",
        "coordinates": [
          [
            [
              132.807712942,
              35.368872292
            ],
            [
              132.807737795,
              35.368898003
            ],
            [
              132.807761463,
              35.368898685
            ],
            [
              132.808037456,
              35.368821923
            ],
            [
              132.808224656,
              35.368456495
            ],
            [
              132.807979001,
              35.368369332
            ],
            [
              132.807712942,
              35.368872292
            ]
          ]
        ]
      },
      "properties": {
        "polygon_uuid": "771a0747-c98b-40ed-92a6-bb09fb866aaa",
        "daicho_shubetsu_cd": "FUD25"
      }
    },
    {
      "type": "Feature",
      "geometry": {
        "type": "Polygon",
        "coordinates": [
          [
            [
              132.804463468,
              35.347771328
            ],
            [
              132.804532057,
              35.34778353
            ],
            [
              132.804601611,
              35.347788188
            ],
            [
              132.804877577,
              35.347783347
            ],
            [
              132.804857821,
              35.347603148
            ],
            [
              132.804478743,
              35.347593463
            ],
            [
              132.803915864,
              35.347531322
            ],
            [
              132.803904132,
              35.347571583
            ],
            [
              132.803904218,
              35.347582471
            ],
            [
              132.804148198,
              35.347668293
            ],
            [
              132.804352807,
              35.347739246
            ],
            [
              132.804463468,
              35.347771328
            ]
          ]
        ]
      },
      "properties": {
        "polygon_uuid": "1038ca83-831e-44ee-8958-7a600a1a5470",
        "daicho_shubetsu_cd": "FUD25"
      }
    },
    {
      "type": "Feature",
      "geometry": {
        "type": "Polygon",
        "coordinates": [
          [
            [
              132.803794292,
              35.347618776
            ],
            [
              132.803776112,
              35.347757552
            ],
            [
              132.803854367,
              35.347763736
            ],
            [
              132.80400385,
              35.34776012
            ],
            [
              132.80401908,
              35.347701064
            ],
            [
              132.803794292,
              35.347618776
            ]
          ]
        ]
      },
      "properties": {
        "polygon_uuid": "eb1a723c-3644-43ff-a0de-86e5de2d746f",
        "daicho_shubetsu_cd": "FUD25"
      }
    },
    {
      "type": "Feature",
      "geometry": {
        "type": "Polygon",
        "coordinates": [
          [
            [
              132.793412145,
              35.351195369
            ],
            [
              132.79333675,
              35.35134764
            ],
            [
              132.793721592,
              35.351343993
            ],
            [
              132.794221324,
              35.351344701
            ],
            [
              132.794220941,
              35.351295177
            ],
            [
              132.794189663,
              35.351211145
            ],
            [
              132.794109245,
              35.351182838
            ],
            [
              132.793412145,
              35.351195369
            ]
          ]
        ]
      },
      "properties": {
        "polygon_uuid": "a973248e-7bff-4821-b2bc-6056bd2e6ba1",
        "daicho_shubetsu_cd": "FUD25"
      }
    },
    {
      "type": "Feature",
      "geometry": {
        "type": "Polygon",
        "coordinates": [
          [
            [
              132.792819784,
              35.35929853
            ],
            [
              132.792765039,
              35.359255231
            ],
            [
              132.792560755,
              35.359419724
            ],
            [
              132.79255151,
              35.359527408
            ],
            [
              132.792619605,
              35.359472578
            ],
            [
              132.792819784,
              35.35929853
            ]
          ]
        ]
      },
      "properties": {
        "polygon_uuid": "df8f3670-7e06-4a8a-b0a1-0cedfaf6950a",
        "daicho_shubetsu_cd": "FUD25"
      }
    },
    {
      "type": "Feature",
      "geometry": {
        "type": "Polygon",
        "coordinates": [
          [
            [
              132.792479481,
              35.359928217
            ],
            [
              132.792447507,
              35.360151973
            ],
            [
              132.792463738,
              35.360166086
            ],
            [
              132.792772174,
              35.35991851
            ],
            [
              132.793018448,
              35.359711206
            ],
            [
              132.792882563,
              35.359599322
            ],
            [
              132.792632211,
              35.359800373
            ],
            [
              132.792564124,
              35.359856195
            ],
            [
              132.792479481,
              35.359928217
            ]
          ]
        ]
      },
      "properties": {
        "polygon_uuid": "844d005d-f30b-4f9e-8838-5d10ac30b13d",
        "daicho_shubetsu_cd": "FUD25"
      }
    },
    {
      "type": "Feature",
      "geometry": {
        "type": "Polygon",
        "coordinates": [
          [
            [
              132.792538303,
              35.359644028
            ],
            [
              132.793032948,
              35.359240306
            ],
            [
              132.792957954,
              35.359184565
            ],
            [
              132.792819784,
              35.35929853
            ],
            [
              132.792619605,
              35.359472578
            ],
            [
              132.79255151,
              35.359527408
            ],
            [
              132.792538303,
              35.359644028
            ]
          ]
        ]
      },
      "properties": {
        "polygon_uuid": "66c9d731-8884-4ed2-b37f-9891e0702671",
        "daicho_shubetsu_cd": "FUD25"
      }
    },
    {
      "type": "Feature",
      "geometry": {
        "type": "Polygon",
        "coordinates": [
          [
            [
              132.792463738,
              35.360166086
            ],
            [
              132.792607727,
              35.360283542
            ],
            [
              132.793210246,
              35.359811636
            ],
            [
              132.793509206,
              35.359587158
            ],
            [
              132.793353012,
              35.35945491
            ],
            [
              132.793246778,
              35.359529088
            ],
            [
              132.793018448,
              35.359711206
            ],
            [
              132.792772174,
              35.35991851
            ],
            [
              132.792463738,
              35.360166086
            ]
          ]
        ]
      },
      "properties": {
        "polygon_uuid": "1bbb2ce2-689e-4efd-9fde-98beea4bf99e",
        "daicho_shubetsu_cd": "FUD25"
      }
    },
    {
      "type": "Feature",
      "geometry": {
        "type": "Polygon",
        "coordinates": [
          [
            [
              132.792607727,
              35.360283542
            ],
            [
              132.792745675,
              35.36040169
            ],
            [
              132.793632927,
              35.359689531
            ],
            [
              132.793509206,
              35.359587158
            ],
            [
              132.793210246,
              35.359811636
            ],
            [
              132.792607727,
              35.360283542
            ]
          ]
        ]
      },
      "properties": {
        "polygon_uuid": "1a7b11e4-b48b-4c32-9c36-f79cec871062",
        "daicho_shubetsu_cd": "FUD25"
      }
    }
  ]
}