{
  "type": "FeatureCollection",
  "features": [
    {
      "type": "Feature",
      "geometry": {
        "type": "Point",
        "coordinates": [
          132.80564851401346,
          35.36688972322143
        ]
      },
      "properties": {
        "FarmCommitteeCd": "3220321",
        "FarmCommitteeName": "出雲市農業委員会",
        "TodofukenCode": "32",
        "ShikuchosonCode": "322032",
        "OazaCode": "80022",
        "ClassificationOfLandCodeName": "畑",
        "ClassificationOfLand": "2",
        "AreaOnRegistry": "1461",
        "SectionOfNoushinhouCodeName": "農業振興地域内・農用地区域内(青地)",
        "SectionOfNoushinhou": "1",
        "SectionOfToshikeikakuhouCodeName": "設定なし",
        "SectionOfToshikeikakuhou": "0",
        "OwnerFarmIntentionCodeName": "非公表",
        "OwnerFarmIntention": "999",
        "FarmerIndicationNumberHash": "ef70681b752926797bd8774f3bf9980f",
        "KindOfRightCodeName": "賃借権等の設定がない",
        "KindOfRight": "0",
        "CommencementDate": "",
        "EndStagesDate": "",
        "RightSettingContentsCodeName": "農地中間管理権が設定されていない",
        "RightSettingContents": "0",
        "UsageSituationInvestigationDate": "20250804",
        "UsageSituationInvestigationResultCodeName": "遊休農地（不耕作緑）",
        "UsageSituationInvestigationResult": "6",
        "UseIntentionInvestigationDate": "20231127",
        "OwnerStatementIntentSurveyResultsCodeName": "自ら耕作を再開",
        "OwnerStatementIntentSurveyResults": "1",
        "UseIntentionAscertainmentResultCodeName": "調査中",
        "UseIntentionAscertainmentResult": "2",
        "PublicNoticeDate": "",
        "RightOfMiddleManagement": "",
        "RecommendationContenDate": "",
        "ActionOrderDate": "",
        "MayorPublicAnnouncementDate": "",
        "Address": "島根県出雲市斐川町出西1873",
        "Tiban": "1873",
        "SectionOfPolygon": "3",
        "SectionOfPolygonCodeName": "その他",
        "DaichoId": "320173133",
        "daicho_shubetsu_cd": "KNO01"
      }
    },
    {
      "type": "Feature",
      "geometry": {
        "type": "Point",
        "coordinates": [
          132.80776420225354,
          35.368580856805906
        ]
      },
      "properties": {
        "FarmCommitteeCd": "3220321",
        "FarmCommitteeName": "出雲市農業委員会",
        "TodofukenCode": "32",
        "ShikuchosonCode": "322032",
        "OazaCode": "80022",
        "ClassificationOfLandCodeName": "田",
        "ClassificationOfLand": "1",
        "AreaOnRegistry": "930",
        "SectionOfNoushinhouCodeName": "農業振興地域内・農用地区域内(青地)",
        "SectionOfNoushinhou": "1",
        "SectionOfToshikeikakuhouCodeName": "設定なし",
        "SectionOfToshikeikakuhou": "0",
        "OwnerFarmIntentionCodeName": "非公表",
        "OwnerFarmIntention": "999",
        "FarmerIndicationNumberHash": "ef70681b752926797bd8774f3bf9980f",
        "KindOfRightCodeName": "賃借権等の設定がない",
        "KindOfRight": "0",
        "CommencementDate": "",
        "EndStagesDate": "",
        "RightSettingContentsCodeName": "農地中間管理権が設定されていない",
        "RightSettingContents": "0",
        "UsageSituationInvestigationDate": "20250804",
        "UsageSituationInvestigationResultCodeName": "遊休農地（不耕作緑）",
        "UsageSituationInvestigationResult": "6",
        "UseIntentionInvestigationDate": "20231127",
        "OwnerStatementIntentSurveyResultsCodeName": "その他（農業上の利用以外等）",
        "OwnerStatementIntentSurveyResults": "5",
        "UseIntentionAscertainmentResultCodeName": "調査中",
        "UseIntentionAscertainmentResult": "2",
        "PublicNoticeDate": "",
        "RightOfMiddleManagement": "",
        "RecommendationContenDate": "",
        "ActionOrderDate": "",
        "MayorPublicAnnouncementDate": "",
        "Address": "島根県出雲市斐川町出西1922",
        "Tiban": "1922",
        "SectionOfPolygon": "3",
        "SectionOfPolygonCodeName": "その他",
        "DaichoId": "320173163",
        "daicho_shubetsu_cd": "KNO01"
      }
    },
    {
      "type": "Feature",
      "geometry": {
        "type": "Point",
        "coordinates": [
          132.80472235885563,
          35.347695103059955
        ]
      },
      "properties": {
        "FarmCommitteeCd": "3220321",
        "FarmCommitteeName": "出雲市農業委員会",
        "TodofukenCode": "32",
        "ShikuchosonCode": "322032",
        "OazaCode": "80022",
        "ClassificationOfLandCodeName": "田",
        "ClassificationOfLand": "1",
        "AreaOnRegistry": "521",
        "SectionOfNoushinhouCodeName": "農業振興地域内・農用地区域内(青地)",
        "SectionOfNoushinhou": "1",
        "SectionOfToshikeikakuhouCodeName": "設定なし",
        "SectionOfToshikeikakuhou": "0",
        "OwnerFarmIntentionCodeName": "非公表",
        "OwnerFarmIntention": "999",
        "FarmerIndicationNumberHash": "356ae1f9a459c6a3c32a37b242ecf541",
        "KindOfRightCodeName": "賃借権等の設定がない",
        "KindOfRight": "0",
        "CommencementDate": "",
        "EndStagesDate": "",
        "RightSettingContentsCodeName": "農地中間管理権が設定されていない",
        "RightSettingContents": "0",
        "UsageSituationInvestigationDate": "20250804",
        "UsageSituationInvestigationResultCodeName": "遊休農地（不耕作緑）",
        "UsageSituationInvestigationResult": "6",
        "UseIntentionInvestigationDate": "",
        "OwnerStatementIntentSurveyResultsCodeName": "調査中",
        "OwnerStatementIntentSurveyResults": "9",
        "UseIntentionAscertainmentResultCodeName": "調査中",
        "UseIntentionAscertainmentResult": "2",
        "PublicNoticeDate": "",
        "RightOfMiddleManagement": "",
        "RecommendationContenDate": "",
        "ActionOrderDate": "",
        "MayorPublicAnnouncementDate": "",
        "Address": "島根県出雲市斐川町出西536-1",
        "Tiban": "536-1",
        "SectionOfPolygon": "3",
        "SectionOfPolygonCodeName": "その他",
        "DaichoId": "320172070",
        "daicho_shubetsu_cd": "KNO01"
      }
    },
    {
      "type": "Feature",
      "geometry": {
        "type": "Point",
        "coordinates": [
          132.80430310279866,
          35.347646030691166
        ]
      },
      "properties": {
        "FarmCommitteeCd": "3220321",
        "FarmCommitteeName": "出雲市農業委員会",
        "TodofukenCode": "32",
        "ShikuchosonCode": "322032",
        "OazaCode": "80022",
        "ClassificationOfLandCodeName": "田",
        "ClassificationOfLand": "1",
        "AreaOnRegistry": "732",
        "SectionOfNoushinhouCodeName": "農業振興地域内・農用地区域内(青地)",
        "SectionOfNoushinhou": "1",
        "SectionOfToshikeikakuhouCodeName": "設定なし",
        "SectionOfToshikeikakuhou": "0",
        "OwnerFarmIntentionCodeName": "非公表",
        "OwnerFarmIntention": "999",
        "FarmerIndicationNumberHash": "356ae1f9a459c6a3c32a37b242ecf541",
        "KindOfRightCodeName": "賃借権等の設定がない",
        "KindOfRight": "0",
        "CommencementDate": "",
        "EndStagesDate": "",
        "RightSettingContentsCodeName": "農地中間管理権が設定されていない",
        "RightSettingContents": "0",
        "UsageSituationInvestigationDate": "20250804",
        "UsageSituationInvestigationResultCodeName": "遊休農地（不耕作緑）",
        "UsageSituationInvestigationResult": "6",
        "UseIntentionInvestigationDate": "",
        "OwnerStatementIntentSurveyResultsCodeName": "調査中",
        "OwnerStatementIntentSurveyResults": "9",
        "UseIntentionAscertainmentResultCodeName": "調査中",
        "UseIntentionAscertainmentResult": "2",
        "PublicNoticeDate": "",
        "RightOfMiddleManagement": "",
        "RecommendationContenDate": "",
        "ActionOrderDate": "",
        "MayorPublicAnnouncementDate": "",
        "Address": "島根県出雲市斐川町出西540-1",
        "Tiban": "540-1",
        "SectionOfPolygon": "3",
        "SectionOfPolygonCodeName": "その他",
        "DaichoId": "320172074",
        "daicho_shubetsu_cd": "KNO01"
      }
    },
    {
      "type": "Feature",
      "geometry": {
        "type": "Point",
        "coordinates": [
          132.80390085279697,
          35.34773211303967
        ]
      },
      "properties": {
        "FarmCommitteeCd": "3220321",
        "FarmCommitteeName": "出雲市農業委員会",
        "TodofukenCode": "32",
        "ShikuchosonCode": "322032",
        "OazaCode": "80022",
        "ClassificationOfLandCodeName": "田",
        "ClassificationOfLand": "1",
        "AreaOnRegistry": "276",
        "SectionOfNoushinhouCodeName": "農業振興地域内・農用地区域内(青地)",
        "SectionOfNoushinhou": "1",
        "SectionOfToshikeikakuhouCodeName": "設定なし",
        "SectionOfToshikeikakuhou": "0",
        "OwnerFarmIntentionCodeName": "非公表",
        "OwnerFarmIntention": "999",
        "FarmerIndicationNumberHash": "356ae1f9a459c6a3c32a37b242ecf541",
        "KindOfRightCodeName": "賃借権等の設定がない",
        "KindOfRight": "0",
        "CommencementDate": "",
        "EndStagesDate": "",
        "RightSettingContentsCodeName": "農地中間管理権が設定されていない",
        "RightSettingContents": "0",
        "UsageSituationInvestigationDate": "20250804",
        "UsageSituationInvestigationResultCodeName": "遊休農地（不耕作緑）",
        "UsageSituationInvestigationResult": "6",
        "UseIntentionInvestigationDate": "",
        "OwnerStatementIntentSurveyResultsCodeName": "調査中",
        "OwnerStatementIntentSurveyResults": "9",
        "UseIntentionAscertainmentResultCodeName": "調査中",
        "UseIntentionAscertainmentResult": "2",
        "PublicNoticeDate": "",
        "RightOfMiddleManagement": "",
        "RecommendationContenDate": "",
        "ActionOrderDate": "",
        "MayorPublicAnnouncementDate": "",
        "Address": "島根県出雲市斐川町出西540-3",
        "Tiban": "540-3",
        "SectionOfPolygon": "3",
        "SectionOfPolygonCodeName": "その他",
        "DaichoId": "320172075",
        "daicho_shubetsu_cd": "KNO01"
      }
    },
    {
      "type": "Feature",
      "geometry": {
        "type": "Point",
        "coordinates": [
          132.79371295875058,
          35.35116473288765
        ]
      },
      "properties": {
        "FarmCommitteeCd": "3220321",
        "FarmCommitteeName": "出雲市農業委員会",
        "TodofukenCode": "32",
        "ShikuchosonCode": "322032",
        "OazaCode": "80022",
        "ClassificationOfLandCodeName": "その他",
        "ClassificationOfLand": "9",
        "AreaOnRegistry": "334",
        "SectionOfNoushinhouCodeName": "農業振興地域内・農用地区域内(青地)",
        "SectionOfNoushinhou": "1",
        "SectionOfToshikeikakuhouCodeName": "設定なし",
        "SectionOfToshikeikakuhou": "0",
        "OwnerFarmIntentionCodeName": "非公表",
        "OwnerFarmIntention": "999",
        "FarmerIndicationNumberHash": "8fe783235246dc04f165bd4c349af278",
        "KindOfRightCodeName": "賃借権等の設定がない",
        "KindOfRight": "0",
        "CommencementDate": "",
        "EndStagesDate": "",
        "RightSettingContentsCodeName": "農地中間管理権が設定されていない",
        "RightSettingContents": "0",
        "UsageSituationInvestigationDate": "20250912",
        "UsageSituationInvestigationResultCodeName": "遊休農地（不耕作緑）",
        "UsageSituationInvestigationResult": "6",
        "UseIntentionInvestigationDate": "20231201",
        "OwnerStatementIntentSurveyResultsCodeName": "調査中",
        "OwnerStatementIntentSurveyResults": "9",
        "UseIntentionAscertainmentResultCodeName": "調査中",
        "UseIntentionAscertainmentResult": "2",
        "PublicNoticeDate": "",
        "RightOfMiddleManagement": "",
        "RecommendationContenDate": "",
        "ActionOrderDate": "",
        "MayorPublicAnnouncementDate": "",
        "Address": "島根県出雲市斐川町出西794-1",
        "Tiban": "794-1",
        "SectionOfPolygon": "3",
        "SectionOfPolygonCodeName": "その他",
        "DaichoId": "320172251",
        "daicho_shubetsu_cd": "KNO01"
      }
    },
    {
      "type": "Feature",
      "geometry": {
        "type": "Point",
        "coordinates": [
          132.79376793518006,
          35.35122431903732
        ]
      },
      "properties": {
        "FarmCommitteeCd": "3220321",
        "FarmCommitteeName": "出雲市農業委員会",
        "TodofukenCode": "32",
        "ShikuchosonCode": "322032",
        "OazaCode": "80022",
        "ClassificationOfLandCodeName": "その他",
        "ClassificationOfLand": "9",
        "AreaOnRegistry": "323",
        "SectionOfNoushinhouCodeName": "農業振興地域内・農用地区域内(青地)",
        "SectionOfNoushinhou": "1",
        "SectionOfToshikeikakuhouCodeName": "設定なし",
        "SectionOfToshikeikakuhou": "0",
        "OwnerFarmIntentionCodeName": "非公表",
        "OwnerFarmIntention": "999",
        "FarmerIndicationNumberHash": "8fe783235246dc04f165bd4c349af278",
        "KindOfRightCodeName": "賃借権等の設定がない",
        "KindOfRight": "0",
        "CommencementDate": "",
        "EndStagesDate": "",
        "RightSettingContentsCodeName": "農地中間管理権が設定されていない",
        "RightSettingContents": "0",
        "UsageSituationInvestigationDate": "20250912",
        "UsageSituationInvestigationResultCodeName": "遊休農地（不耕作緑）",
        "UsageSituationInvestigationResult": "6",
        "UseIntentionInvestigationDate": "20231201",
        "OwnerStatementIntentSurveyResultsCodeName": "調査中",
        "OwnerStatementIntentSurveyResults": "9",
        "UseIntentionAscertainmentResultCodeName": "調査中",
        "UseIntentionAscertainmentResult": "2",
        "PublicNoticeDate": "",
        "RightOfMiddleManagement": "",
        "RecommendationContenDate": "",
        "ActionOrderDate": "",
        "MayorPublicAnnouncementDate": "",
        "Address": "島根県出雲市斐川町出西795",
        "Tiban": "795",
        "SectionOfPolygon": "3",
        "SectionOfPolygonCodeName": "その他",
        "DaichoId": "320172252",
        "daicho_shubetsu_cd": "KNO01"
      }
    },
    {
      "type": "Feature",
      "geometry": {
        "type": "Point",
        "coordinates": [
          132.79280174101558,
          35.359499378703866
        ]
      },
      "properties": {
        "FarmCommitteeCd": "3220321",
        "FarmCommitteeName": "出雲市農業委員会",
        "TodofukenCode": "32",
        "ShikuchosonCode": "322032",
        "OazaCode": "80022",
        "ClassificationOfLandCodeName": "畑",
        "ClassificationOfLand": "2",
        "AreaOnRegistry": "607",
        "SectionOfNoushinhouCodeName": "農業振興地域内・農用地区域外(白地)",
        "SectionOfNoushinhou": "2",
        "SectionOfToshikeikakuhouCodeName": "設定なし",
        "SectionOfToshikeikakuhou": "0",
        "OwnerFarmIntentionCodeName": "非公表",
        "OwnerFarmIntention": "999",
        "FarmerIndicationNumberHash": "2ae6c05f01d47c2059c40511e7e9f40f",
        "KindOfRightCodeName": "賃借権等の設定がない",
        "KindOfRight": "0",
        "CommencementDate": "",
        "EndStagesDate": "",
        "RightSettingContentsCodeName": "農地中間管理権が設定されていない",
        "RightSettingContents": "0",
        "UsageSituationInvestigationDate": "20250804",
        "UsageSituationInvestigationResultCodeName": "遊休農地（不耕作緑）",
        "UsageSituationInvestigationResult": "6",
        "UseIntentionInvestigationDate": "20231201",
        "OwnerStatementIntentSurveyResultsCodeName": "調査中",
        "OwnerStatementIntentSurveyResults": "9",
        "UseIntentionAscertainmentResultCodeName": "調査中",
        "UseIntentionAscertainmentResult": "2",
        "PublicNoticeDate": "",
        "RightOfMiddleManagement": "",
        "RecommendationContenDate": "",
        "ActionOrderDate": "",
        "MayorPublicAnnouncementDate": "",
        "Address": "島根県出雲市斐川町出西3570",
        "Tiban": "3570",
        "SectionOfPolygon": "3",
        "SectionOfPolygonCodeName": "その他",
        "DaichoId": "320173692",
        "daicho_shubetsu_cd": "KNO01"
      }
    },
    {
      "type": "Feature",
      "geometry": {
        "type": "Point",
        "coordinates": [
          132.79281595589322,
          35.359599918646964
        ]
      },
      "properties": {
        "FarmCommitteeCd": "3220321",
        "FarmCommitteeName": "出雲市農業委員会",
        "TodofukenCode": "32",
        "ShikuchosonCode": "322032",
        "OazaCode": "80022",
        "ClassificationOfLandCodeName": "畑",
        "ClassificationOfLand": "2",
        "AreaOnRegistry": "732",
        "SectionOfNoushinhouCodeName": "農業振興地域内・農用地区域外(白地)",
        "SectionOfNoushinhou": "2",
        "SectionOfToshikeikakuhouCodeName": "設定なし",
        "SectionOfToshikeikakuhou": "0",
        "OwnerFarmIntentionCodeName": "非公表",
        "OwnerFarmIntention": "999",
        "FarmerIndicationNumberHash": "8fe783235246dc04f165bd4c349af278",
        "KindOfRightCodeName": "賃借権等の設定がない",
        "KindOfRight": "0",
        "CommencementDate": "",
        "EndStagesDate": "",
        "RightSettingContentsCodeName": "農地中間管理権が設定されていない",
        "RightSettingContents": "0",
        "UsageSituationInvestigationDate": "20250804",
        "UsageSituationInvestigationResultCodeName": "遊休農地（不耕作緑）",
        "UsageSituationInvestigationResult": "6",
        "UseIntentionInvestigationDate": "20201125",
        "OwnerStatementIntentSurveyResultsCodeName": "調査中",
        "OwnerStatementIntentSurveyResults": "9",
        "UseIntentionAscertainmentResultCodeName": "調査中",
        "UseIntentionAscertainmentResult": "2",
        "PublicNoticeDate": "",
        "RightOfMiddleManagement": "",
        "RecommendationContenDate": "",
        "ActionOrderDate": "",
        "MayorPublicAnnouncementDate": "",
        "Address": "島根県出雲市斐川町出西3571",
        "Tiban": "3571",
        "SectionOfPolygon": "3",
        "SectionOfPolygonCodeName": "その他",
        "DaichoId": "320173693",
        "daicho_shubetsu_cd": "KNO01"
      }
    }
  ]
}