{
  "type": "FeatureCollection",
  "features": [
    {
      "type": "Feature",
      "geometry": {
        "type": "Point",
        "coordinates": [
          132.80754501069555,
          35.36840060131154
        ]
      },
      "properties": {
        "FarmCommitteeCd": "3220321",
        "FarmCommitteeName": "出雲市農業委員会",
        "TodofukenCode": "32",
        "ShikuchosonCode": "322032",
        "OazaCode": "80022",
        "ClassificationOfLandCodeName": "田",
        "ClassificationOfLand": "1",
        "AreaOnRegistry": "795",
        "SectionOfNoushinhouCodeName": "農業振興地域内・農用地区域内(青地)",
        "SectionOfNoushinhou": "1",
        "SectionOfToshikeikakuhouCodeName": "設定なし",
        "SectionOfToshikeikakuhou": "0",
        "OwnerFarmIntentionCodeName": "非公表",
        "OwnerFarmIntention": "999",
        "FarmerIndicationNumberHash": "7c56f452811d7a91177563245a153043",
        "KindOfRightCodeName": "賃借権等の設定がない",
        "KindOfRight": "0",
        "CommencementDate": "",
        "EndStagesDate": "",
        "RightSettingContentsCodeName": "農地中間管理権が設定されていない",
        "RightSettingContents": "0",
        "UsageSituationInvestigationDate": "20250804",
        "UsageSituationInvestigationResultCodeName": "遊休農地（低利用）",
        "UsageSituationInvestigationResult": "2",
        "UseIntentionInvestigationDate": "",
        "OwnerStatementIntentSurveyResultsCodeName": "調査中",
        "OwnerStatementIntentSurveyResults": "9",
        "UseIntentionAscertainmentResultCodeName": "調査中",
        "UseIntentionAscertainmentResult": "2",
        "PublicNoticeDate": "",
        "RightOfMiddleManagement": "",
        "RecommendationContenDate": "",
        "ActionOrderDate": "",
        "MayorPublicAnnouncementDate": "",
        "Address": "島根県出雲市斐川町出西1921",
        "Tiban": "1921",
        "SectionOfPolygon": "3",
        "SectionOfPolygonCodeName": "その他",
        "DaichoId": "320173162",
        "daicho_shubetsu_cd": "KNO01"
      }
    },
    {
      "type": "Feature",
      "geometry": {
        "type": "Point",
        "coordinates": [
          132.80570672483367,
          35.347687903425566
        ]
      },
      "properties": {
        "FarmCommitteeCd": "3220321",
        "FarmCommitteeName": "出雲市農業委員会",
        "TodofukenCode": "32",
        "ShikuchosonCode": "322032",
        "OazaCode": "80022",
        "ClassificationOfLandCodeName": "田",
        "ClassificationOfLand": "1",
        "AreaOnRegistry": "141",
        "SectionOfNoushinhouCodeName": "農業振興地域内・農用地区域内(青地)",
        "SectionOfNoushinhou": "1",
        "SectionOfToshikeikakuhouCodeName": "設定なし",
        "SectionOfToshikeikakuhou": "0",
        "OwnerFarmIntentionCodeName": "非公表",
        "OwnerFarmIntention": "999",
        "FarmerIndicationNumberHash": "1e4b45492e7bc4ab755bebbc41ad84c1",
        "KindOfRightCodeName": "賃借権等の設定がない",
        "KindOfRight": "0",
        "CommencementDate": "",
        "EndStagesDate": "",
        "RightSettingContentsCodeName": "農地中間管理権が設定されていない",
        "RightSettingContents": "0",
        "UsageSituationInvestigationDate": "20250804",
        "UsageSituationInvestigationResultCodeName": "遊休農地（低利用）",
        "UsageSituationInvestigationResult": "2",
        "UseIntentionInvestigationDate": "",
        "OwnerStatementIntentSurveyResultsCodeName": "調査中",
        "OwnerStatementIntentSurveyResults": "9",
        "UseIntentionAscertainmentResultCodeName": "調査中",
        "UseIntentionAscertainmentResult": "2",
        "PublicNoticeDate": "",
        "RightOfMiddleManagement": "",
        "RecommendationContenDate": "",
        "ActionOrderDate": "",
        "MayorPublicAnnouncementDate": "",
        "Address": "島根県出雲市斐川町出西523-1",
        "Tiban": "523-1",
        "SectionOfPolygon": "3",
        "SectionOfPolygonCodeName": "その他",
        "DaichoId": "320172059",
        "daicho_shubetsu_cd": "KNO01"
      }
    },
    {
      "type": "Feature",
      "geometry": {
        "type": "Point",
        "coordinates": [
          132.80570018394144,
          35.347751963026504
        ]
      },
      "properties": {
        "FarmCommitteeCd": "3220321",
        "FarmCommitteeName": "出雲市農業委員会",
        "TodofukenCode": "32",
        "ShikuchosonCode": "322032",
        "OazaCode": "80022",
        "ClassificationOfLandCodeName": "田",
        "ClassificationOfLand": "1",
        "AreaOnRegistry": "7",
        "SectionOfNoushinhouCodeName": "農業振興地域内・農用地区域内(青地)",
        "SectionOfNoushinhou": "1",
        "SectionOfToshikeikakuhouCodeName": "設定なし",
        "SectionOfToshikeikakuhou": "0",
        "OwnerFarmIntentionCodeName": "非公表",
        "OwnerFarmIntention": "999",
        "FarmerIndicationNumberHash": "1e4b45492e7bc4ab755bebbc41ad84c1",
        "KindOfRightCodeName": "賃借権等の設定がない",
        "KindOfRight": "0",
        "CommencementDate": "",
        "EndStagesDate": "",
        "RightSettingContentsCodeName": "農地中間管理権が設定されていない",
        "RightSettingContents": "0",
        "UsageSituationInvestigationDate": "20250804",
        "UsageSituationInvestigationResultCodeName": "遊休農地（低利用）",
        "UsageSituationInvestigationResult": "2",
        "UseIntentionInvestigationDate": "",
        "OwnerStatementIntentSurveyResultsCodeName": "調査中",
        "OwnerStatementIntentSurveyResults": "9",
        "UseIntentionAscertainmentResultCodeName": "調査中",
        "UseIntentionAscertainmentResult": "2",
        "PublicNoticeDate": "",
        "RightOfMiddleManagement": "",
        "RecommendationContenDate": "",
        "ActionOrderDate": "",
        "MayorPublicAnnouncementDate": "",
        "Address": "島根県出雲市斐川町出西524-3",
        "Tiban": "524-3",
        "SectionOfPolygon": "3",
        "SectionOfPolygonCodeName": "その他",
        "DaichoId": "320172061",
        "daicho_shubetsu_cd": "KNO01"
      }
    },
    {
      "type": "Feature",
      "geometry": {
        "type": "Point",
        "coordinates": [
          132.80564323034278,
          35.347733120798395
        ]
      },
      "properties": {
        "FarmCommitteeCd": "3220321",
        "FarmCommitteeName": "出雲市農業委員会",
        "TodofukenCode": "32",
        "ShikuchosonCode": "322032",
        "OazaCode": "80022",
        "ClassificationOfLandCodeName": "畑",
        "ClassificationOfLand": "2",
        "AreaOnRegistry": "30",
        "SectionOfNoushinhouCodeName": "農業振興地域内・農用地区域内(青地)",
        "SectionOfNoushinhou": "1",
        "SectionOfToshikeikakuhouCodeName": "設定なし",
        "SectionOfToshikeikakuhou": "0",
        "OwnerFarmIntentionCodeName": "非公表",
        "OwnerFarmIntention": "999",
        "FarmerIndicationNumberHash": "1e4b45492e7bc4ab755bebbc41ad84c1",
        "KindOfRightCodeName": "賃借権等の設定がない",
        "KindOfRight": "0",
        "CommencementDate": "",
        "EndStagesDate": "",
        "RightSettingContentsCodeName": "農地中間管理権が設定されていない",
        "RightSettingContents": "0",
        "UsageSituationInvestigationDate": "20250804",
        "UsageSituationInvestigationResultCodeName": "遊休農地（低利用）",
        "UsageSituationInvestigationResult": "2",
        "UseIntentionInvestigationDate": "",
        "OwnerStatementIntentSurveyResultsCodeName": "調査中",
        "OwnerStatementIntentSurveyResults": "9",
        "UseIntentionAscertainmentResultCodeName": "調査中",
        "UseIntentionAscertainmentResult": "2",
        "PublicNoticeDate": "",
        "RightOfMiddleManagement": "",
        "RecommendationContenDate": "",
        "ActionOrderDate": "",
        "MayorPublicAnnouncementDate": "",
        "Address": "島根県出雲市斐川町出西525-3",
        "Tiban": "525-3",
        "SectionOfPolygon": "3",
        "SectionOfPolygonCodeName": "その他",
        "DaichoId": "320172063",
        "daicho_shubetsu_cd": "KNO01"
      }
    },
    {
      "type": "Feature",
      "geometry": {
        "type": "Point",
        "coordinates": [
          132.80518749935072,
          35.34767912028144
        ]
      },
      "properties": {
        "FarmCommitteeCd": "3220321",
        "FarmCommitteeName": "出雲市農業委員会",
        "TodofukenCode": "32",
        "ShikuchosonCode": "322032",
        "OazaCode": "80022",
        "ClassificationOfLandCodeName": "田",
        "ClassificationOfLand": "1",
        "AreaOnRegistry": "812",
        "SectionOfNoushinhouCodeName": "農業振興地域内・農用地区域内(青地)",
        "SectionOfNoushinhou": "1",
        "SectionOfToshikeikakuhouCodeName": "設定なし",
        "SectionOfToshikeikakuhou": "0",
        "OwnerFarmIntentionCodeName": "非公表",
        "OwnerFarmIntention": "999",
        "FarmerIndicationNumberHash": "1e4b45492e7bc4ab755bebbc41ad84c1",
        "KindOfRightCodeName": "賃借権等の設定がない",
        "KindOfRight": "0",
        "CommencementDate": "",
        "EndStagesDate": "",
        "RightSettingContentsCodeName": "農地中間管理権が設定されていない",
        "RightSettingContents": "0",
        "UsageSituationInvestigationDate": "20250804",
        "UsageSituationInvestigationResultCodeName": "遊休農地（低利用）",
        "UsageSituationInvestigationResult": "2",
        "UseIntentionInvestigationDate": "20231127",
        "OwnerStatementIntentSurveyResultsCodeName": "農地中間管理事業の利用",
        "OwnerStatementIntentSurveyResults": "2",
        "UseIntentionAscertainmentResultCodeName": "調査中",
        "UseIntentionAscertainmentResult": "2",
        "PublicNoticeDate": "",
        "RightOfMiddleManagement": "",
        "RecommendationContenDate": "",
        "ActionOrderDate": "",
        "MayorPublicAnnouncementDate": "",
        "Address": "島根県出雲市斐川町出西536-2",
        "Tiban": "536-2",
        "SectionOfPolygon": "3",
        "SectionOfPolygonCodeName": "その他",
        "DaichoId": "320172071",
        "daicho_shubetsu_cd": "KNO01"
      }
    },
    {
      "type": "Feature",
      "geometry": {
        "type": "Point",
        "coordinates": [
          132.8008208191153,
          35.347424164154056
        ]
      },
      "properties": {
        "FarmCommitteeCd": "3220321",
        "FarmCommitteeName": "出雲市農業委員会",
        "TodofukenCode": "32",
        "ShikuchosonCode": "322032",
        "OazaCode": "80022",
        "ClassificationOfLandCodeName": "田",
        "ClassificationOfLand": "1",
        "AreaOnRegistry": "419",
        "SectionOfNoushinhouCodeName": "農業振興地域内・農用地区域内(青地)",
        "SectionOfNoushinhou": "1",
        "SectionOfToshikeikakuhouCodeName": "設定なし",
        "SectionOfToshikeikakuhou": "0",
        "OwnerFarmIntentionCodeName": "非公表",
        "OwnerFarmIntention": "999",
        "FarmerIndicationNumberHash": "cf767434b170b0d181f85e7f0554468d",
        "KindOfRightCodeName": "賃借権等の設定がない",
        "KindOfRight": "0",
        "CommencementDate": "",
        "EndStagesDate": "",
        "RightSettingContentsCodeName": "農地中間管理権が設定されていない",
        "RightSettingContents": "0",
        "UsageSituationInvestigationDate": "20250804",
        "UsageSituationInvestigationResultCodeName": "遊休農地（低利用）",
        "UsageSituationInvestigationResult": "2",
        "UseIntentionInvestigationDate": "",
        "OwnerStatementIntentSurveyResultsCodeName": "調査中",
        "OwnerStatementIntentSurveyResults": "9",
        "UseIntentionAscertainmentResultCodeName": "調査中",
        "UseIntentionAscertainmentResult": "2",
        "PublicNoticeDate": "",
        "RightOfMiddleManagement": "",
        "RecommendationContenDate": "",
        "ActionOrderDate": "",
        "MayorPublicAnnouncementDate": "",
        "Address": "島根県出雲市斐川町出西602-1",
        "Tiban": "602-1",
        "SectionOfPolygon": "3",
        "SectionOfPolygonCodeName": "その他",
        "DaichoId": "320172124",
        "daicho_shubetsu_cd": "KNO01"
      }
    },
    {
      "type": "Feature",
      "geometry": {
        "type": "Point",
        "coordinates": [
          132.80002988610704,
          35.347483510356206
        ]
      },
      "properties": {
        "FarmCommitteeCd": "3220321",
        "FarmCommitteeName": "出雲市農業委員会",
        "TodofukenCode": "32",
        "ShikuchosonCode": "322032",
        "OazaCode": "80022",
        "ClassificationOfLandCodeName": "田",
        "ClassificationOfLand": "1",
        "AreaOnRegistry": "1182",
        "SectionOfNoushinhouCodeName": "農業振興地域内・農用地区域内(青地)",
        "SectionOfNoushinhou": "1",
        "SectionOfToshikeikakuhouCodeName": "設定なし",
        "SectionOfToshikeikakuhou": "0",
        "OwnerFarmIntentionCodeName": "非公表",
        "OwnerFarmIntention": "999",
        "FarmerIndicationNumberHash": "cf767434b170b0d181f85e7f0554468d",
        "KindOfRightCodeName": "賃借権等の設定がない",
        "KindOfRight": "0",
        "CommencementDate": "",
        "EndStagesDate": "",
        "RightSettingContentsCodeName": "農地中間管理権が設定されていない",
        "RightSettingContents": "0",
        "UsageSituationInvestigationDate": "20250804",
        "UsageSituationInvestigationResultCodeName": "遊休農地（低利用）",
        "UsageSituationInvestigationResult": "2",
        "UseIntentionInvestigationDate": "",
        "OwnerStatementIntentSurveyResultsCodeName": "調査中",
        "OwnerStatementIntentSurveyResults": "9",
        "UseIntentionAscertainmentResultCodeName": "調査中",
        "UseIntentionAscertainmentResult": "2",
        "PublicNoticeDate": "",
        "RightOfMiddleManagement": "",
        "RecommendationContenDate": "",
        "ActionOrderDate": "",
        "MayorPublicAnnouncementDate": "",
        "Address": "島根県出雲市斐川町出西608-1",
        "Tiban": "608-1",
        "SectionOfPolygon": "3",
        "SectionOfPolygonCodeName": "その他",
        "DaichoId": "320172134",
        "daicho_shubetsu_cd": "KNO01"
      }
    },
    {
      "type": "Feature",
      "geometry": {
        "type": "Point",
        "coordinates": [
          132.79951760495337,
          35.347363466853416
        ]
      },
      "properties": {
        "FarmCommitteeCd": "3220321",
        "FarmCommitteeName": "出雲市農業委員会",
        "TodofukenCode": "32",
        "ShikuchosonCode": "322032",
        "OazaCode": "80022",
        "ClassificationOfLandCodeName": "田",
        "ClassificationOfLand": "1",
        "AreaOnRegistry": "1259",
        "SectionOfNoushinhouCodeName": "農業振興地域内・農用地区域内(青地)",
        "SectionOfNoushinhou": "1",
        "SectionOfToshikeikakuhouCodeName": "設定なし",
        "SectionOfToshikeikakuhou": "0",
        "OwnerFarmIntentionCodeName": "非公表",
        "OwnerFarmIntention": "999",
        "FarmerIndicationNumberHash": "f8a5e81d130a555b051e97f0bcb2ae51",
        "KindOfRightCodeName": "賃借権等の設定がない",
        "KindOfRight": "0",
        "CommencementDate": "",
        "EndStagesDate": "",
        "RightSettingContentsCodeName": "農地中間管理権が設定されていない",
        "RightSettingContents": "0",
        "UsageSituationInvestigationDate": "20250804",
        "UsageSituationInvestigationResultCodeName": "遊休農地（低利用）",
        "UsageSituationInvestigationResult": "2",
        "UseIntentionInvestigationDate": "",
        "OwnerStatementIntentSurveyResultsCodeName": "調査中",
        "OwnerStatementIntentSurveyResults": "9",
        "UseIntentionAscertainmentResultCodeName": "調査中",
        "UseIntentionAscertainmentResult": "2",
        "PublicNoticeDate": "",
        "RightOfMiddleManagement": "",
        "RecommendationContenDate": "",
        "ActionOrderDate": "",
        "MayorPublicAnnouncementDate": "",
        "Address": "島根県出雲市斐川町出西610-1",
        "Tiban": "610-1",
        "SectionOfPolygon": "3",
        "SectionOfPolygonCodeName": "その他",
        "DaichoId": "320172137",
        "daicho_shubetsu_cd": "KNO01"
      }
    },
    {
      "type": "Feature",
      "geometry": {
        "type": "Point",
        "coordinates": [
          132.79921181250882,
          35.347295485411195
        ]
      },
      "properties": {
        "FarmCommitteeCd": "3220321",
        "FarmCommitteeName": "出雲市農業委員会",
        "TodofukenCode": "32",
        "ShikuchosonCode": "322032",
        "OazaCode": "80022",
        "ClassificationOfLandCodeName": "田",
        "ClassificationOfLand": "1",
        "AreaOnRegistry": "30",
        "SectionOfNoushinhouCodeName": "農業振興地域内・農用地区域内(青地)",
        "SectionOfNoushinhou": "1",
        "SectionOfToshikeikakuhouCodeName": "設定なし",
        "SectionOfToshikeikakuhou": "0",
        "OwnerFarmIntentionCodeName": "非公表",
        "OwnerFarmIntention": "999",
        "FarmerIndicationNumberHash": "cf767434b170b0d181f85e7f0554468d",
        "KindOfRightCodeName": "賃借権等の設定がない",
        "KindOfRight": "0",
        "CommencementDate": "",
        "EndStagesDate": "",
        "RightSettingContentsCodeName": "農地中間管理権が設定されていない",
        "RightSettingContents": "0",
        "UsageSituationInvestigationDate": "20250804",
        "UsageSituationInvestigationResultCodeName": "遊休農地（低利用）",
        "UsageSituationInvestigationResult": "2",
        "UseIntentionInvestigationDate": "",
        "OwnerStatementIntentSurveyResultsCodeName": "調査中",
        "OwnerStatementIntentSurveyResults": "9",
        "UseIntentionAscertainmentResultCodeName": "調査中",
        "UseIntentionAscertainmentResult": "2",
        "PublicNoticeDate": "",
        "RightOfMiddleManagement": "",
        "RecommendationContenDate": "",
        "ActionOrderDate": "",
        "MayorPublicAnnouncementDate": "",
        "Address": "島根県出雲市斐川町出西614-1",
        "Tiban": "614-1",
        "SectionOfPolygon": "3",
        "SectionOfPolygonCodeName": "その他",
        "DaichoId": "320172138",
        "daicho_shubetsu_cd": "KNO01"
      }
    },
    {
      "type": "Feature",
      "geometry": {
        "type": "Point",
        "coordinates": [
          132.79903731528697,
          35.34726125219542
        ]
      },
      "properties": {
        "FarmCommitteeCd": "3220321",
        "FarmCommitteeName": "出雲市農業委員会",
        "TodofukenCode": "32",
        "ShikuchosonCode": "322032",
        "OazaCode": "80022",
        "ClassificationOfLandCodeName": "田",
        "ClassificationOfLand": "1",
        "AreaOnRegistry": "386",
        "SectionOfNoushinhouCodeName": "農業振興地域内・農用地区域内(青地)",
        "SectionOfNoushinhou": "1",
        "SectionOfToshikeikakuhouCodeName": "設定なし",
        "SectionOfToshikeikakuhou": "0",
        "OwnerFarmIntentionCodeName": "非公表",
        "OwnerFarmIntention": "999",
        "FarmerIndicationNumberHash": "cf767434b170b0d181f85e7f0554468d",
        "KindOfRightCodeName": "賃借権等の設定がない",
        "KindOfRight": "0",
        "CommencementDate": "",
        "EndStagesDate": "",
        "RightSettingContentsCodeName": "農地中間管理権が設定されていない",
        "RightSettingContents": "0",
        "UsageSituationInvestigationDate": "20250804",
        "UsageSituationInvestigationResultCodeName": "遊休農地（低利用）",
        "UsageSituationInvestigationResult": "2",
        "UseIntentionInvestigationDate": "",
        "OwnerStatementIntentSurveyResultsCodeName": "調査中",
        "OwnerStatementIntentSurveyResults": "9",
        "UseIntentionAscertainmentResultCodeName": "調査中",
        "UseIntentionAscertainmentResult": "2",
        "PublicNoticeDate": "",
        "RightOfMiddleManagement": "",
        "RecommendationContenDate": "",
        "ActionOrderDate": "",
        "MayorPublicAnnouncementDate": "",
        "Address": "島根県出雲市斐川町出西617-1",
        "Tiban": "617-1",
        "SectionOfPolygon": "3",
        "SectionOfPolygonCodeName": "その他",
        "DaichoId": "320172141",
        "daicho_shubetsu_cd": "KNO01"
      }
    },
    {
      "type": "Feature",
      "geometry": {
        "type": "Point",
        "coordinates": [
          132.79367733220067,
          35.34989159285594
        ]
      },
      "properties": {
        "FarmCommitteeCd": "3220321",
        "FarmCommitteeName": "出雲市農業委員会",
        "TodofukenCode": "32",
        "ShikuchosonCode": "322032",
        "OazaCode": "80022",
        "ClassificationOfLandCodeName": "田",
        "ClassificationOfLand": "1",
        "AreaOnRegistry": "581",
        "SectionOfNoushinhouCodeName": "農業振興地域内・農用地区域内(青地)",
        "SectionOfNoushinhou": "1",
        "SectionOfToshikeikakuhouCodeName": "設定なし",
        "SectionOfToshikeikakuhou": "0",
        "OwnerFarmIntentionCodeName": "非公表",
        "OwnerFarmIntention": "999",
        "FarmerIndicationNumberHash": "758c594bb9b6460fdcf9f43fd4fa221e",
        "KindOfRightCodeName": "賃借権等の設定がない",
        "KindOfRight": "0",
        "CommencementDate": "",
        "EndStagesDate": "",
        "RightSettingContentsCodeName": "農地中間管理権が設定されていない",
        "RightSettingContents": "0",
        "UsageSituationInvestigationDate": "20250804",
        "UsageSituationInvestigationResultCodeName": "遊休農地（低利用）",
        "UsageSituationInvestigationResult": "2",
        "UseIntentionInvestigationDate": "",
        "OwnerStatementIntentSurveyResultsCodeName": "調査中",
        "OwnerStatementIntentSurveyResults": "9",
        "UseIntentionAscertainmentResultCodeName": "調査中",
        "UseIntentionAscertainmentResult": "2",
        "PublicNoticeDate": "",
        "RightOfMiddleManagement": "",
        "RecommendationContenDate": "",
        "ActionOrderDate": "",
        "MayorPublicAnnouncementDate": "",
        "Address": "島根県出雲市斐川町出西690-1",
        "Tiban": "690-1",
        "SectionOfPolygon": "3",
        "SectionOfPolygonCodeName": "その他",
        "DaichoId": "320172184",
        "daicho_shubetsu_cd": "KNO01"
      }
    },
    {
      "type": "Feature",
      "geometry": {
        "type": "Point",
        "coordinates": [
          132.79342823881646,
          35.3498430203904
        ]
      },
      "properties": {
        "FarmCommitteeCd": "3220321",
        "FarmCommitteeName": "出雲市農業委員会",
        "TodofukenCode": "32",
        "ShikuchosonCode": "322032",
        "OazaCode": "80022",
        "ClassificationOfLandCodeName": "その他",
        "ClassificationOfLand": "9",
        "AreaOnRegistry": "90",
        "SectionOfNoushinhouCodeName": "農業振興地域内・農用地区域内(青地)",
        "SectionOfNoushinhou": "1",
        "SectionOfToshikeikakuhouCodeName": "設定なし",
        "SectionOfToshikeikakuhou": "0",
        "OwnerFarmIntentionCodeName": "非公表",
        "OwnerFarmIntention": "999",
        "FarmerIndicationNumberHash": "8fe783235246dc04f165bd4c349af278",
        "KindOfRightCodeName": "賃借権等の設定がない",
        "KindOfRight": "0",
        "CommencementDate": "",
        "EndStagesDate": "",
        "RightSettingContentsCodeName": "農地中間管理権が設定されていない",
        "RightSettingContents": "0",
        "UsageSituationInvestigationDate": "20240722",
        "UsageSituationInvestigationResultCodeName": "遊休農地（低利用）",
        "UsageSituationInvestigationResult": "2",
        "UseIntentionInvestigationDate": "",
        "OwnerStatementIntentSurveyResultsCodeName": "調査中",
        "OwnerStatementIntentSurveyResults": "9",
        "UseIntentionAscertainmentResultCodeName": "調査中",
        "UseIntentionAscertainmentResult": "2",
        "PublicNoticeDate": "",
        "RightOfMiddleManagement": "",
        "RecommendationContenDate": "",
        "ActionOrderDate": "",
        "MayorPublicAnnouncementDate": "",
        "Address": "島根県出雲市斐川町出西702-1",
        "Tiban": "702-1",
        "SectionOfPolygon": "3",
        "SectionOfPolygonCodeName": "その他",
        "DaichoId": "320172193",
        "daicho_shubetsu_cd": "KNO01"
      }
    },
    {
      "type": "Feature",
      "geometry": {
        "type": "Point",
        "coordinates": [
          132.79380639065542,
          35.3500185883185
        ]
      },
      "properties": {
        "FarmCommitteeCd": "3220321",
        "FarmCommitteeName": "出雲市農業委員会",
        "TodofukenCode": "32",
        "ShikuchosonCode": "322032",
        "OazaCode": "80022",
        "ClassificationOfLandCodeName": "田",
        "ClassificationOfLand": "1",
        "AreaOnRegistry": "224",
        "SectionOfNoushinhouCodeName": "農業振興地域内・農用地区域内(青地)",
        "SectionOfNoushinhou": "1",
        "SectionOfToshikeikakuhouCodeName": "設定なし",
        "SectionOfToshikeikakuhou": "0",
        "OwnerFarmIntentionCodeName": "非公表",
        "OwnerFarmIntention": "999",
        "FarmerIndicationNumberHash": "758c594bb9b6460fdcf9f43fd4fa221e",
        "KindOfRightCodeName": "賃借権等の設定がない",
        "KindOfRight": "0",
        "CommencementDate": "",
        "EndStagesDate": "",
        "RightSettingContentsCodeName": "農地中間管理権が設定されていない",
        "RightSettingContents": "0",
        "UsageSituationInvestigationDate": "20250804",
        "UsageSituationInvestigationResultCodeName": "遊休農地（低利用）",
        "UsageSituationInvestigationResult": "2",
        "UseIntentionInvestigationDate": "",
        "OwnerStatementIntentSurveyResultsCodeName": "調査中",
        "OwnerStatementIntentSurveyResults": "9",
        "UseIntentionAscertainmentResultCodeName": "調査中",
        "UseIntentionAscertainmentResult": "2",
        "PublicNoticeDate": "",
        "RightOfMiddleManagement": "",
        "RecommendationContenDate": "",
        "ActionOrderDate": "",
        "MayorPublicAnnouncementDate": "",
        "Address": "島根県出雲市斐川町出西708-1",
        "Tiban": "708-1",
        "SectionOfPolygon": "3",
        "SectionOfPolygonCodeName": "その他",
        "DaichoId": "320172197",
        "daicho_shubetsu_cd": "KNO01"
      }
    },
    {
      "type": "Feature",
      "geometry": {
        "type": "Point",
        "coordinates": [
          132.79279192810873,
          35.36092921013795
        ]
      },
      "properties": {
        "FarmCommitteeCd": "3220321",
        "FarmCommitteeName": "出雲市農業委員会",
        "TodofukenCode": "32",
        "ShikuchosonCode": "322032",
        "OazaCode": "80022",
        "ClassificationOfLandCodeName": "畑",
        "ClassificationOfLand": "2",
        "AreaOnRegistry": "2182",
        "SectionOfNoushinhouCodeName": "農業振興地域内・農用地区域外(白地)",
        "SectionOfNoushinhou": "2",
        "SectionOfToshikeikakuhouCodeName": "設定なし",
        "SectionOfToshikeikakuhou": "0",
        "OwnerFarmIntentionCodeName": "非公表",
        "OwnerFarmIntention": "999",
        "FarmerIndicationNumberHash": "77ae0c60cc5a989b9e50cc9d611965cb",
        "KindOfRightCodeName": "賃借権等の設定がない",
        "KindOfRight": "0",
        "CommencementDate": "",
        "EndStagesDate": "",
        "RightSettingContentsCodeName": "農地中間管理権が設定されていない",
        "RightSettingContents": "0",
        "UsageSituationInvestigationDate": "20250804",
        "UsageSituationInvestigationResultCodeName": "遊休農地（低利用）",
        "UsageSituationInvestigationResult": "2",
        "UseIntentionInvestigationDate": "",
        "OwnerStatementIntentSurveyResultsCodeName": "調査中",
        "OwnerStatementIntentSurveyResults": "9",
        "UseIntentionAscertainmentResultCodeName": "調査中",
        "UseIntentionAscertainmentResult": "2",
        "PublicNoticeDate": "",
        "RightOfMiddleManagement": "",
        "RecommendationContenDate": "",
        "ActionOrderDate": "",
        "MayorPublicAnnouncementDate": "",
        "Address": "島根県出雲市斐川町出西3564",
        "Tiban": "3564",
        "SectionOfPolygon": "3",
        "SectionOfPolygonCodeName": "その他",
        "DaichoId": "320173686",
        "daicho_shubetsu_cd": "KNO01"
      }
    }
  ]
}