{
  "type": "FeatureCollection",
  "features": [
    {
      "type": "Feature",
      "geometry": {
        "type": "Polygon",
        "coordinates": [
          [
            [
              132.807584803,
              35.368627459
            ],
            [
              132.807762365,
              35.368294689
            ],
            [
              132.807672452,
              35.368265114
            ],
            [
              132.80737815,
              35.368163168
            ],
            [
              132.807351193,
              35.368211852
            ],
            [
              132.80732392,
              35.3682573
            ],
            [
              132.807465443,
              35.368466684
            ],
            [
              132.807529663,
              35.368564467
            ],
            [
              132.807564769,
              35.368614634
            ],
            [
              132.807584803,
              35.368627459
            ]
          ]
        ]
      },
      "properties": {
        "polygon_uuid": "343d6019-e6a7-4e21-bd3a-7d8fe109b9e7",
        "daicho_shubetsu_cd": "FUD25"
      }
    },
    {
      "type": "Feature",
      "geometry": {
        "type": "Polygon",
        "coordinates": [
          [
            [
              132.806688945,
              35.368353781
            ],
            [
              132.807511957,
              35.369019064
            ],
            [
              132.807542018,
              35.368991008
            ],
            [
              132.807560057,
              35.368952514
            ],
            [
              132.807502027,
              35.368830951
            ],
            [
              132.807375751,
              35.368584539
            ],
            [
              132.807237981,
              35.368689111
            ],
            [
              132.80684314,
              35.368264483
            ],
            [
              132.80680443,
              35.368266357
            ],
            [
              132.806688945,
              35.368353781
            ]
          ]
        ]
      },
      "properties": {
        "polygon_uuid": "caf515bd-6369-4061-99aa-efa3361d6637",
        "daicho_shubetsu_cd": "FUD25"
      }
    },
    {
      "type": "Feature",
      "geometry": {
        "type": "Polygon",
        "coordinates": [
          [
            [
              132.800998641,
              35.347304666
            ],
            [
              132.800818496,
              35.347302654
            ],
            [
              132.800734609,
              35.347306475
            ],
            [
              132.800733072,
              35.347317366
            ],
            [
              132.800743568,
              35.347483152
            ],
            [
              132.800808777,
              35.347484639
            ],
            [
              132.800945214,
              35.347487749
            ],
            [
              132.800996628,
              35.347488421
            ],
            [
              132.800998641,
              35.347304666
            ]
          ]
        ]
      },
      "properties": {
        "polygon_uuid": "fad59ce3-7d93-4851-9fcf-02a5dde1dfe0",
        "daicho_shubetsu_cd": "FUD25"
      }
    },
    {
      "type": "Feature",
      "geometry": {
        "type": "Polygon",
        "coordinates": [
          [
            [
              132.805658715,
              35.347615612
            ],
            [
              132.80490266,
              35.347604581
            ],
            [
              132.804916278,
              35.347781474
            ],
            [
              132.805195539,
              35.347776894
            ],
            [
              132.805307466,
              35.347775047
            ],
            [
              132.805424004,
              35.347774431
            ],
            [
              132.805569655,
              35.347771149
            ],
            [
              132.805618703,
              35.347768376
            ],
            [
              132.80568924,
              35.347768004
            ],
            [
              132.805734946,
              35.347762981
            ],
            [
              132.805767182,
              35.347763599
            ],
            [
              132.805774882,
              35.347618337
            ],
            [
              132.805658715,
              35.347615612
            ]
          ]
        ]
      },
      "properties": {
        "polygon_uuid": "b7fdab81-ff41-4b8e-a8a2-07dad0e0fd52",
        "daicho_shubetsu_cd": "FUD25"
      }
    },
    {
      "type": "Feature",
      "geometry": {
        "type": "Polygon",
        "coordinates": [
          [
            [
              132.799797072,
              35.34724216
            ],
            [
              132.799777304,
              35.347243344
            ],
            [
              132.799768361,
              35.347244086
            ],
            [
              132.799772054,
              35.347570095
            ],
            [
              132.79990827,
              35.347607251
            ],
            [
              132.800001358,
              35.347624587
            ],
            [
              132.800060724,
              35.347629137
            ],
            [
              132.800143721,
              35.3476206
            ],
            [
              132.800196889,
              35.347591156
            ],
            [
              132.800273586,
              35.347535661
            ],
            [
              132.800388776,
              35.347410574
            ],
            [
              132.80038928,
              35.34738269
            ],
            [
              132.800387432,
              35.347353632
            ],
            [
              132.800383551,
              35.347292608
            ],
            [
              132.800384837,
              35.347274495
            ],
            [
              132.800384714,
              35.347258652
            ],
            [
              132.800382887,
              35.347221914
            ],
            [
              132.800234335,
              35.347227789
            ],
            [
              132.800091973,
              35.347231776
            ],
            [
              132.800054579,
              35.347233263
            ],
            [
              132.799797072,
              35.34724216
            ]
          ]
        ]
      },
      "properties": {
        "polygon_uuid": "db8750a3-cd87-43b8-a904-1ba26760565d",
        "daicho_shubetsu_cd": "FUD25"
      }
    },
    {
      "type": "Feature",
      "geometry": {
        "type": "Polygon",
        "coordinates": [
          [
            [
              132.798743842,
              35.347248972
            ],
            [
              132.799145744,
              35.347363423
            ],
            [
              132.799203918,
              35.347215126
            ],
            [
              132.798575514,
              35.347151014
            ],
            [
              132.798651485,
              35.347205138
            ],
            [
              132.798743842,
              35.347248972
            ]
          ]
        ]
      },
      "properties": {
        "polygon_uuid": "480027c6-1a5f-4fda-b139-5dc05a8c9e85",
        "daicho_shubetsu_cd": "FUD25"
      }
    },
    {
      "type": "Feature",
      "geometry": {
        "type": "Polygon",
        "coordinates": [
          [
            [
              132.799253723,
              35.347217569
            ],
            [
              132.799231858,
              35.347215799
            ],
            [
              132.799168915,
              35.347370859
            ],
            [
              132.799189164,
              35.347375074
            ],
            [
              132.799772054,
              35.347570095
            ],
            [
              132.799768361,
              35.347244086
            ],
            [
              132.799777304,
              35.347243344
            ],
            [
              132.799468949,
              35.347238115
            ],
            [
              132.799253723,
              35.347217569
            ]
          ]
        ]
      },
      "properties": {
        "polygon_uuid": "b207bc81-3bb7-4188-9cbf-63bb5c23099a",
        "daicho_shubetsu_cd": "FUD25"
      }
    },
    {
      "type": "Feature",
      "geometry": {
        "type": "Polygon",
        "coordinates": [
          [
            [
              132.793757459,
              35.349831946
            ],
            [
              132.793791338,
              35.349783235
            ],
            [
              132.793819291,
              35.349750073
            ],
            [
              132.793821089,
              35.349721998
            ],
            [
              132.793788536,
              35.349681556
            ],
            [
              132.793721777,
              35.349647234
            ],
            [
              132.793681874,
              35.349698619
            ],
            [
              132.793605052,
              35.349665999
            ],
            [
              132.793567637,
              35.349778453
            ],
            [
              132.793516716,
              35.349968566
            ],
            [
              132.793726969,
              35.350058273
            ],
            [
              132.793838147,
              35.35010392
            ],
            [
              132.793937457,
              35.349917847
            ],
            [
              132.793757459,
              35.349831946
            ]
          ]
        ]
      },
      "properties": {
        "polygon_uuid": "62a736fe-892b-44fe-90c0-f67b1a8e675b",
        "daicho_shubetsu_cd": "FUD25"
      }
    },
    {
      "type": "Feature",
      "geometry": {
        "type": "Polygon",
        "coordinates": [
          [
            [
              132.792561704,
              35.360869721
            ],
            [
              132.792419974,
              35.360762604
            ],
            [
              132.792321867,
              35.360845654
            ],
            [
              132.792457675,
              35.360947305
            ],
            [
              132.792578643,
              35.361059718
            ],
            [
              132.792587172,
              35.361054147
            ],
            [
              132.792667133,
              35.360994094
            ],
            [
              132.792767318,
              35.360919286
            ],
            [
              132.792851153,
              35.360856902
            ],
            [
              132.793027456,
              35.360722268
            ],
            [
              132.792894202,
              35.360606062
            ],
            [
              132.792561704,
              35.360869721
            ]
          ]
        ]
      },
      "properties": {
        "polygon_uuid": "0c0fb4f5-f42e-4d7b-98fe-31547e39a633",
        "daicho_shubetsu_cd": "FUD25"
      }
    },
    {
      "type": "Feature",
      "geometry": {
        "type": "Polygon",
        "coordinates": [
          [
            [
              132.792592142,
              35.361324559
            ],
            [
              132.792695615,
              35.361241695
            ],
            [
              132.793172338,
              35.360849504
            ],
            [
              132.793027456,
              35.360722268
            ],
            [
              132.792851153,
              35.360856902
            ],
            [
              132.792767318,
              35.360919286
            ],
            [
              132.792667133,
              35.360994094
            ],
            [
              132.792587172,
              35.361054147
            ],
            [
              132.792639425,
              35.361101666
            ],
            [
              132.792585351,
              35.361145529
            ],
            [
              132.792489524,
              35.361220852
            ],
            [
              132.7924194,
              35.361274042
            ],
            [
              132.792381366,
              35.361307257
            ],
            [
              132.792430065,
              35.361350257
            ],
            [
              132.79235001,
              35.361422319
            ],
            [
              132.792400758,
              35.36146993
            ],
            [
              132.792448779,
              35.361425109
            ],
            [
              132.792474957,
              35.361418128
            ],
            [
              132.792592142,
              35.361324559
            ]
          ]
        ]
      },
      "properties": {
        "polygon_uuid": "e92c36d1-5451-4c8a-af97-84b7ddc5723d",
        "daicho_shubetsu_cd": "FUD25"
      }
    },
    {
      "type": "Feature",
      "geometry": {
        "type": "Polygon",
        "coordinates": [
          [
            [
              132.792592142,
              35.361324559
            ],
            [
              132.792680028,
              35.361409807
            ],
            [
              132.79278546,
              35.361328513
            ],
            [
              132.792992627,
              35.361172076
            ],
            [
              132.793283862,
              35.360938071
            ],
            [
              132.793172338,
              35.360849504
            ],
            [
              132.792695615,
              35.361241695
            ],
            [
              132.792592142,
              35.361324559
            ]
          ]
        ]
      },
      "properties": {
        "polygon_uuid": "99f32bf4-4f93-41b5-8318-ac7d6ad50517",
        "daicho_shubetsu_cd": "FUD25"
      }
    }
  ]
}